Title,Address Line 1,Address Line 2,Address Line 3,Town/City,Postcode,URL
Cockermouth and Maryport Registration Offices,Fairfield,Station Road,Cockermouth,,CA13 9PT,http://www.cumbria.gov.uk/registrationservice/local_register_offices/cockermouth.asp
Allerdale Borough Council - Register Office,Wigton Register Office,Station Road,Wigton,,CA7 9AJ,http://www.cumbria.gov.uk/registration/wheretofindus/Default.asp
Amber Valley Borough Council - Register Office,Amber Valley Registration District,Town Hall,Market Place,Ripley,DE5 3BT,http://www.ambervalley.gov.uk/services/informationandcommunication/informationmanagement/recordsmanagement/recordsoffices/registeroffices/
Ashfield District Council - Register Office,Under One Roof,3A Vine Terrace,Hucknall,Nottingham,NG15 7HN,http://cms.nottinghamshire.gov.uk/home/youandyourcommunity/registrars/registeroffices.htm
Ashfield District Council - Register Office,Sutton-in-Ashfield Library,Idlewells Precinct,Sutton-in-Ashfield,,NG17 1BP,http://cms.nottinghamshire.gov.uk/home/youandyourcommunity/registrars/registeroffices.htm
Kent County Council - Ashford Gateway Plus &#40;Births and Deaths&#41;,Church Road,Ashford,,,TN23 1AS,http://www.kent.gov.uk/about-the-council/contact-us/gateway/ashford-gateway-plus
Aylesbury Vale District Council - Register Office,County Hall,Walton Street,Aylesbury,,HP20 1XF,http://www.buckscc.gov.uk/sites/faq/items/registrars_location.page?cookie_flush=true
Sudbury Registration Office,The Town Hall,Old Market Place,,Sudbury,CO10 1TL,http://www.suffolk.gov.uk/BirthsMarriagesAndDeaths/SuffolkRegistrationOffices/
Barking and Dagenham Register Office,Woodlands House,Rainham Road North,,Dagenham,RM10 7ER,https://www.lbbd.gov.uk/residents/births-marriages-deaths-and-nationality/
Brent - Register Office,Brent Civic Centre,Engineers Way,,Wembley,HA9 0FJ,http://brent.gov.uk/services-for-residents/births-marriages-and-deaths/ceremony-venues/brent-civic-centre/
Barnsley Register Office,Town Hall,Barnsley,,,S70 2TA,http://www.barnsley.gov.uk/contacting-the-register-office
Basildon Borough Council - Register Office,Basildon Registration Office,Basildon Centre,St Martins Square,Basildon,SS14 1DL,http://www.essex.gov.uk/Births%20Ceremonies%20Deaths/Births/Pages/Registration-Contacts.aspx
Basildon Borough Council - Register Office,Billericay Registration Office,Burghstead Lodge,143 High Street,Billericay,CM12 9AB,http://www.essex.gov.uk/Births%20Ceremonies%20Deaths/Births/Pages/Registration-Contacts.aspx
Basingstoke and Deane Borough Council - Register Office,Basingstoke Registration Office,Goldings,London Road,Basingstoke,RG21 4AN,http://www3.hants.gov.uk/registration/registration-contact.htm
Bassetlaw District Council - Register Office,Bassetlaw Register Office,County Council Offices,Chancery Lane,Retford,DN22 6DG,http://www.bassetlaw.gov.uk/services/community__living/life_events.aspx
Bassetlaw District Council - Register Office,Memorial Avenue (adjacent to NEW library),Worksop,,,S80 2BP,http://cms.nottinghamshire.gov.uk/home/youandyourcommunity/registrars/registeroffices.htm
Bath & North East Somerset Council - Register Office,The Guildhall,High Street,Bath,,BA1 5AW,http://www.bathnes.gov.uk/communityandliving/Pages/localoffices.aspx
Bath & North East Somerset Council - Register Office,The Hollies,High Street,Midsomer Norton,Radstock,BA3 2DT,http://www.bathnes.gov.uk/communityandliving/Pages/localoffices.aspx
London Borough of Bexley - Register Office,Manor House,The Green,Sidcup,Kent,DA14 6BW,http://www.bexley.gov.uk/index.aspx?articleid 263&contactid 2146
Birmingham City Council - Register Office,Holliday Wharf,Holliday Street,Birmingham,,B1 1TJ,http://www.birmingham.gov.uk/registeroffice
Blaby District Council - Register Office,County Hall,Leicester Road,Glenfield,,LE3 8RN,http://www.leics.gov.uk/index/community/registration_services/marriages_and_civil_partnerships/registeroffices
Blackburn with Darwen Borough Council - Register Office,King Georges Hall,Northgate,Blackburn,,BB2 1AA,http://www.blackburn.gov.uk/server.php?show=ConWebDoc.13973
Blackburn with Darwen Borough Council - Register Office,Town Hall,Croft Street,Darwen,,BB3 2RN,http://www.blackburn.gov.uk/server.php?show=ConWebDoc.13973
Blackpool Register Office,Festival House,Promenade,,Blackpool,FY1 1AP,http://www.blackpool.gov.uk/Residents/Life-events/Life-events.aspx
Bolsover District Council - Register Office,Chesterfield Registration District,New Beetwell Street,Chesterfield,,S40 1QJ,http://www.derbyshire.gov.uk/community/births_marriages_deaths/register_offices/default.asp
Bolton Metropolitan Borough Council - Register Office,Mere Hall,Merehall Street,Bolton,Lancashire,BL1 2QT,http://www.bolton.gov.uk/website/pages/Deathregistering.aspx?bid=2225
Boston Borough Council - Register Office,County Hall,Boston,Lincolnshire,,PE21 6DY,http://www.lincolnshire.gov.uk/residents/births-marriages-deaths-and-civil-partnerships/registration-offices/boston-registration-office/28775.article?tab=contacts
Bournemouth Borough Council - Register Office,Town Hall,Bourne Avenue,Bournemouth,,BH2 6DY,http://www.bournemouth.gov.uk/residents/births/
Bracknell Forest - Register Office,Time Square,Market Street,,Bracknell,RG12 1JD,http://www.bracknell-forest.gov.uk/organisingaweddingwithbracknellforestregisteroffice
Bradford and Keighley - Register Office,City Hall,Centenary Sqaure,,Bradford,BD1 1HY,http://www.bradford.gov.uk/bmdc/contact_us/online_forms/register_offices
Braintree District Council - Register Office,Braintree Registration Office,John Ray House,Bocking End,Braintree,CM7 9RW,http://www.essex.gov.uk/Births%20Ceremonies%20Deaths/Births/Pages/Registration-Contacts.aspx
Braintree District Council - Register Office,Halstead Registration Office,Halstead Hospital,78 Hedingham Road,Halstead,CO9 2DL,http://www.essex.gov.uk/Births%20Ceremonies%20Deaths/Births/Pages/Registration-Contacts.aspx
Braintree District Council - Register Office,Witham Registration Office,Witham Library,18 Newland Street,Witham,CM8 2AQ,http://www.essex.gov.uk/Births%20Ceremonies%20Deaths/Births/Pages/Registration-Contacts.aspx
Breckland District Council - Register Office,Dereham Registration Office,Breckland Business Centre,St Withburga Lane,Dereham,NR19 1FD,http://www.norfolk.gov.uk/Community_and_living/Registration_services/NCC090563
Breckland District Council - Register Office,Thetford Registration Office,Kings House,King Street,Thetford,IP24 2AP,http://www.norfolk.gov.uk/Community_and_living/Registration_services/NCC090563
London Borough of Brent - Register Office,Brent Town Hall,Forty Lane,Wembley,Middlesex,HA9 9HD,http://www.brent.gov.uk/Reg.nsf/Pages/LBB-19
Essex County Council - Register Office,Essex Register Office,"Seax House, County Hall",Victoria Road South,Chelmsford,CM1 1QH,http://www.brentwood.gov.uk
Brighton & Hove City Council - Register Office,Brighton Town Hall,Bartholomews,Brighton,,BN1 1JA,http://www.brighton-hove.gov.uk/index.cfm?request=b1113986
Broadland District Council - Register Office,The Norfolk Register office,Churchman House,71 Bethel Street,Norwich,NR2 1NR,http://www.norfolk.gov.uk/Community_and_living/Registration_services/NCC090563
London Borough of Bromley - Register Office,Civic Centre,Stockwell Close,Bromley,,BR1 3UH,http://www.bromley.gov.uk/a_to_z/service/28/register_office
Bromsgrove District Council - Register Office,Bromsgrove Register Office,School Drive,Bromsgrove,Worcestershire,B60 1AY,http://www.worcestershire.gov.uk/cms/community-and-living/registration-services.aspx
Borough of Broxbourne - Register Office,Broxbourne Registration Office,Bishops College,Churchgate,Cheshunt,EN8 9XH,http://www.hertsdirect.org/your-community/register/contactreg/broxbournereg
Broxtowe Borough Council - Register Office,Beeston Library,Foster Avenue,Beeston ,Nottingham,NG9 1AE,http://cms.nottinghamshire.gov.uk/home/youandyourcommunity/registrars/registeroffices.htm
Broxtowe Borough Council - Register Office,Eastwood Health Clinic,Nottingham Road,Eastwood,Nottingham,NG16 3GL,http://cms.nottinghamshire.gov.uk/home/youandyourcommunity/registrars/registeroffices.htm
Broxtowe Borough Council - Register Office,Stapleford Library,Church Street,Stapleford,Nottingham,NG9 8GA,http://cms.nottinghamshire.gov.uk/home/youandyourcommunity/registrars/registeroffices.htm
Buckinghamshire County Council - Register Office,County Hall,Walton Street,Aylesbury,,HP20 1XF,"http://www.buckscc.gov.uk/community/births,-deaths,-marriages-and-civil-partnerships/register-offices/aylesbury/"
Burnley Borough Council - Register Office,Lyndhurst House,Todmorden Road,Burnley,,BB10 4AB,http://www.lancashire.gov.uk/acs/sites/registration/offices/
Calderdale Council - Register Office,Spring Hall,Huddersfield Road,Halifax,,HX3 0AQ,http://www.calderdale.gov.uk/advice/life-events/register-office/contact.html
Cambridge City Council - Register Office,Castle Lodge,Shire Hall,Cambridge,,CB3 0AP,http://www.cambridgeshire.gov.uk/community/bmd/offices/cambridge/default.htm
Kent County Council - Canterbury Library &#40;Births and Deaths&#41;,18 High Street,Canterbury,,,CT1 2RA,http://webapps.kent.gov.uk/KCC.Libraries.Web.Sites.Public/LibraryDetails.aspx?aid 0&lid 8&uprn 010033173051
Cambridgeshire County Council - Register Office,March Registration Office,Audmoor House,93 High Street,March,PE15 9LH,http://www.cambridgeshire.gov.uk/community/bmd/offices/march/
Cambridgeshire County Council - Register Office,Ely Registration Office,Old School House,74 Market Street,Ely,CB7 4LS,http://www.cambridgeshire.gov.uk/community/bmd/offices/ely/
Cambridgeshire County Council - Register Office,The Huntingdon Registration and Coroners Office,Lawrence Court ,Princes Street,Huntingdon,PE29 3PA,http://www.cambridgeshire.gov.uk/community/bmd/offices/huntingdon/
London Borough of Camden - Register Office,Camden Town Hall,Judd Street,London ,,WC1H 9JE,http://www.camden.gov.uk/ccm/content/contacts/council-contacts/community-and-living/contact-register-office-services.en;jsessionid=4E357B5C833C1A205016CDE425546B85
Cannock Chase District Council - Register Office,Cannock Registration Office,5 Victoria Street,Cannock,,WS11 1AG,http://www.staffordshire.gov.uk/community/lifeevents/offices/offices.aspx
Cannock Chase District Council - Register Office,Rugeley Office,Council Offices,Anson Street,Rugeley,WS15 2BH,http://www.staffordshire.gov.uk/community/lifeevents/offices/offices.aspx
Kent County Council - Canterbury Register Office &#40;Marriages&#41;,Wellington House,St Stephens Road,Canterbury,,CT2 7RD,http://www.akentishceremony.com/kcc-register-offices/
Carlisle City Council - Register Office,Carlisle Register Office,23 Portland Square,Carlisle,,CA1 1PE,http://www.cumbria.gov.uk/registration/wheretofindus/Default.asp
Castle Point Borough Council - Register Office,Castle Point Borough Council Office,Kiln Road,Thundersley,Benfleet,SS7 1TF,http://www.essex.gov.uk/Births%20Ceremonies%20Deaths/Births/Pages/Registration-Contacts.aspx
Charnwood Borough Council - Register Office,Loughborough Registration Service,202 Ashby Road,Loughborough,,LE11 3AG,http://www.leics.gov.uk/index/community/registration_services/marriages_and_civil_partnerships/registeroffices
Chelmsford Borough Council - Register Office,Chelmsford Registration Office,17 Market Road,Chelmsford,,CM1 1GF,http://www.essex.gov.uk/Births%20Ceremonies%20Deaths/Births/Pages/Registration-Contacts.aspx
Cheltenham Borough Council - Register Office,Cheltenham Office,St Georges Road,Cheltenham,Glos,GL50 3EW,http://www.gloucestershire.gov.uk/index.cfm?articleid=7879&contactid=7840
Cherwell District Council - Register Office,Banbury Register Office,Bodictote House,Banbury,,OX15 4AA,http://www.oxfordshire.gov.uk/wps/portal/publicsite/councilservices?WCM_GLOBAL_CONTEXT=http://apps.oxfordshire.gov.uk/wps/wcm/connect/occ/Internet%2FCouncil+services%2FCommunity+and+living%2FBirths+deaths+and+marriages%2FCL+-+BDM+-+Register+Offices
Cherwell District Council - Register Office,Bicester Register Office,The Garth,Launton Road,Bicester,OX26 6PS,http://www.oxfordshire.gov.uk/wps/portal/publicsite/councilservices?WCM_GLOBAL_CONTEXT=http://apps.oxfordshire.gov.uk/wps/wcm/connect/occ/Internet%2FCouncil+services%2FCommunity+and+living%2FBirths+deaths+and+marriages%2FCL+-+BDM+-+Register+Offices
Chesterfield Borough Council - Register Office,Chesterfield Registration District,New Beetwell Street,Chesterfield,,S40 1QJ,http://www.derbyshire.gov.uk/community/births_marriages_deaths/register_offices/default.asp
West Sussex County Council - Registration Office,Edes House,West Street,,Chichester,PO19 1RQ,http://www.westsussex.gov.uk/living/births_marriages_and_deaths/registration_offices.aspx
Chiltern District Council - Register Office,Wycombe Registration Office,Chiltern Hills,Easton Street,High Wycombe,HP11 1NH,http://www.chiltern.gov.uk/site/scripts/services_info.php?serviceID=498&startsWith=B
Chorley Council - Register Office,Devonshire House,Devonshire Road,Chorley,,PR7 2BY,http://www.lancashire.gov.uk/acs/sites/registration/offices/?town=Chorley
Christchurch Registration Office,Civic Offices,Bridge Street,,Christchurch,BH23 1AZ,http://www.dorsetforyou.com/374502
Colchester Borough Council - Register Office,Colchester Registration Office,Stanwell House,Stanwell Street,Colchester,CO2 7DL,http://www.essex.gov.uk/Births%20Ceremonies%20Deaths/Births/Pages/Registration-Contacts.aspx
Copeland Borough Council - Register Office,Whitehaven Register Office,College House,Flatt Walk,Whitehaven,CA28 7RW,http://www.cumbria.gov.uk/registration/wheretofindus/Default.asp
Copeland Borough Council - Register Office,Whitehaven Register Office,West Cumberland Hospital,Hensingham,Whitehaven,CA28 8JG,http://www.cumbria.gov.uk/registration/wheretofindus/Default.asp
City of London - Register Office,St Bartholomews Hospital,Robin Brook Centre,West Smithfield,London,EC1A 7BE,http://www.cityoflondon.gov.uk/Corporation/LGNL_Services/Community_and_living/Deaths_funerals_and_cremations/Death-registering.htm
Cotswold District Council - Register Office,The Old Council Chambers,The Council Offices,High Street,Moreton-in-Marsh,GL56 0AZ,http://www.gloucestershire.gov.uk/index.cfm?articleid=7879&contactid=7848
Cotswold District Council - Register Office,Cirencester Office,Cirencester Library,The Waterloo,Cirencester,GL7 2PZ,http://www.gloucestershire.gov.uk/index.cfm?articleid=7879&contactid=7842
Coventry City Council - Register Office,Cheylesmore Manor House,Manor House Drive,Coventry,,CV1 2ND,http://www.coventry.gov.uk/info/321/death-registering/507/register_office
Craven District Council - Register Office,Council Offices,Castle Hill,Settle,Craven,BD24 9EU,http://www.northyorks.gov.uk/index.aspx?articleid=5654
Craven District Council - Register Office,Skipton Registration Office,Area Offices,Water Street ,Skipton,BD23 1PB,http://www.northyorks.gov.uk/index.aspx?articleid=5658
London Borough of Croydon - Register Office,Croydon Town Hall,Ground Floor Offices,Fell Road,Croydon,CR0 1NX,http://www.croydon.gov.uk/community/registeroffice/
Cumbria County Council - Register Office,Barrow Register Office,Nan Tait Centre,Abbey Road,Barrow In Furness,LA14 1LG,http://www.cumbria.gov.uk/registration/wheretofindus/Default.asp
Carlisle Registration Office,Lady Gillford s House ,Petteril Bank Road,Carlisle,,CA1 3AJ,http://www.cumbria.gov.uk/registrationservice/local_register_offices/carlisle.asp
Cumbria County Council - Register Office,Cockermouth Register Office,Fairfield,Station Road,Cockermouth,CA13 9PT,http://www.cumbria.gov.uk/registration/wheretofindus/Default.asp
Cumbria County Council - Register Office,Kendal Register Office,County Offices,Busher Walk,Kendal,LA9 4RQ,http://www.cumbria.gov.uk/registration/wheretofindus/Default.asp
Cumbria County Council - Register Office,Penrith Register Office,Friargate,Penrith,,CA11 7XR,http://www.cumbria.gov.uk/registration/wheretofindus/Default.asp
Cumbria County Council - Register Office,Ulverston Register Office,The Town Hall,Ulverston,,LA12 7AR,http://www.cumbria.gov.uk/registration/wheretofindus/Default.asp
Cumbria County Council - Register Office,Whitehaven Register Office,College House,Flatt Walk,Whitehaven,CA28 7RW,http://www.cumbria.gov.uk/registration/wheretofindus/Default.asp
Cumbria County Council - Register Office,Whitehaven Register Office,West Cumberland Hospital,Hensingham,Whitehaven,CA28 8JG,http://www.cumbria.gov.uk/registration/wheretofindus/Default.asp
Wigton Registration Office,Wigton Library,High Street,Wigton,,CA7 9NJ,http://www.cumbria.gov.uk/registrationservice/local_register_offices/wigton.asp
Dacorum Borough Council - Register Office,The Bury,Queensway,Hemel Hempstead,Herts,HP1 1HR,http://www.hertsdirect.org/your-community/register/contactreg/dacorumreg
Darlington Borough Council - Register Office,Backhouse Hall,Bull Wynd,Darlington,,DL1 5RG,http://www.darlington.gov.uk/Living/Register+Office/Register+Office.htm
Kent County Council - Dartford Register Office &#40;Marriages&#41;,The Manor Gatehouse,Priory Road,Dartford,,DA1 2BJ,http://www.akentishceremony.com/kcc-register-offices/
Derby City Council - Register Office,South Derbyshire Registration District,Council House,Corporation Street,Derby,DE1 2FS,http://www.derby.gov.uk/community-and-living/
Derbyshire County Council - Register Office,Amber Valley Registration District,Town Hall,Market Place,Ripley,DE5 3BT,http://www.derbyshire.gov.uk/community/births_marriages_deaths/register_offices/default.asp
Derbyshire County Council - Register Office,Ashbourne Registration District,Ashbourne Town Hall,Market Place,Ashbourne,DE6 1ES,http://www.derbyshire.gov.uk/community/births_marriages_deaths/register_offices/default.asp
Derbyshire County Council - Register Office,Bakewell Registration District,Town Hall,Bakewell,,DE45 1BW,http://www.derbyshire.gov.uk/community/births_marriages_deaths/register_offices/default.asp
Derbyshire County Council - Register Office,County Hall &#40;Room 2&#41;,Smedley Street,,Matlock,DE4 3AG,http://www.derbyshire.gov.uk/community/births_marriages_deaths/register_offices/default.asp
Derbyshire County Council - Register Office,Chesterfield Registration District,New Beetwell Street,Chesterfield,,S40 1QJ,http://www.derbyshire.gov.uk/community/births_marriages_deaths/register_offices/default.asp
Derbyshire County Council - Register Office,Erewash Registration District,87 Lord Haddon Road,Ilkeston,,DE7 8AX,http://www.derbyshire.gov.uk/community/births_marriages_deaths/register_offices/default.asp
Derbyshire County Council - Register Office,Long Eaton Sub Office,Town Hall,Derby Road,Long Eaton,NG10 1HU,http://www.derbyshire.gov.uk/community/births_marriages_deaths/register_offices/default.asp
Derbyshire County Council - Register Office,South Derbyshire Registration District,Royal Oak House,Market Place,Derby,DE1 3AR,http://www.derbyshire.gov.uk/community/births_marriages_deaths/register_offices/default.asp
Derbyshire County Council - Register Office,Swadlincote Register Office,Civic Way,Swadlincote,,DE11 0AH,http://www.derbyshire.gov.uk/community/births_marriages_deaths/register_offices/default.asp
Derbyshire County Council - Register Office,High Peak Registration District,Town Hall,New Mills,High Peak,SK22 4AT,http://www.derbyshire.gov.uk/community/births_marriages_deaths/register_offices/default.asp
Derbyshire County Council - Register Office,Buxton Register Office,Town Hall,Market Place,Buxton,SK17 6EL,http://www.derbyshire.gov.uk/community/births_marriages_deaths/register_offices/default.asp
Derbyshire County Council - Register Office,Town Hall,Market Street,Chapel-en-le-Frith,High Peak,SK23 0HP,http://www.derbyshire.gov.uk/community/births_marriages_deaths/register_offices/default.asp
Derbyshire County Council - Register Office,Glossop Register Office,51a/53 High Street East,Glossop,,SK13 8PN,http://www.derbyshire.gov.uk/community/births_marriages_deaths/register_offices/default.asp
Derbyshire Dales District Council - Register Office,Ashbourne Registration District,Ashbourne Town Hall,Market Place,Ashbourne,DE6 1ES,http://www.derbyshire.gov.uk/community/births_marriages_deaths/register_offices/default.asp
Derbyshire Dales District Council - Register Office,Bakewell Registration District,Town Hall,Bakewell,,DE45 1BW,http://www.derbyshire.gov.uk/community/births_marriages_deaths/register_offices/default.asp
Derbyshire Dales District Council - Register Office,County Hall &#40;Room 2&#41; ,Smedley Street,Matlock,,DE4 3AG,http://www.derbyshire.gov.uk/community/births_marriages_deaths/register_offices/default.asp
East Devon District Council -  Honiton Register Office,East Devon Business Centre,Heathpark Way,Heathpark,Honiton,EX14 1SF,https://new.devon.gov.uk/registrationservice/registrationoffices/east-devon-registration-office-honiton
East Devon District Council - Exmouth Register Office,Exmouth Town Hall,St Andrews Road,Exmouth,,EX8 1AW,https://new.devon.gov.uk/registrationservice/registrationoffices/east-devon-registration-office-exmouth
South Hams - Register Office,Follaton House,Plymouth Road,Totnes,,TQ9 5NE,https://new.devon.gov.uk/registrationservice/registrationoffices/south-hams-registration-office
Teignbridge District Council - Devon Register Office,Olde Forde House,Brunel Road,,Newton Abbot,TQ12 4XX,https://new.devon.gov.uk/registrationservice/registrationoffices/devon-register-office
Torridge Registration Office,Caddsdown Business Support Centre,Farm Road,,Bideford,EX39 3DX,https://new.devon.gov.uk/registrationservice/registrationoffices/torridge-registration-office
West Devon Borough Council - Okehampton Register Office,Town Hall Offices,Fore Street,Okehampton,,EX20 1AA,https://new.devon.gov.uk/registrationservice/registrationoffices/west-devon-registration-office-okehampton
Doncaster Metropolitan Borough Council - Register Office,Elmfield Park,South Parade,Doncaster,,DN1 2EB,http://www.doncaster.gov.uk/Living_in_Doncaster/Births_Deaths_and_Marriages/Births-_Deaths_and_Marriages.asp
Doncaster Metropolitan Borough Council - Register Office,Registrars Office,Council Offices,Main Street,Mexborough,S64 9LU,http://www.doncaster.gov.uk/Living_in_Doncaster/Births_Deaths_and_Marriages/Births-_Deaths_and_Marriages.asp
Kent County Council - Dover Library &#40;Births and Deaths&#41;,Dover Discovery Centre,Market Square,Dover,,CT16 1PH,http://webapps.kent.gov.uk/KCC.Libraries.Web.Sites.Public/LibraryDetails.aspx?aid 0&lid 23&pcd CT16%201PH
East Cambridgeshire District Council - Register Office,Ely Registration Office,Old School House,74 Market Street,Ely,CB7 4LS,http://www.cambridgeshire.gov.uk/community/bmd/offices/ely/
Ferndown Registration Office,King George V Pavilion,Peter Grant Way,,Ferndown,BH22 9EN,http://www.dorsetforyou.com/374527
Hampshire County Council - Register Office,Alton Registration Office,4 Queens Road,Alton,,GU34 1HU,http://www3.hants.gov.uk/registration/registration-contact.htm
Hampshire County Council - Register Office,Petersfield Registration Office,Petersfield Library,27 The Square,Petersfield,GU32 3HH,http://www3.hants.gov.uk/registration/registration-contact.htm
East Hertfordshire District Council - Register Office,Bishops Stortford Registration Office,Riverside House,2 Hockerhill Street,Bishops Stortford,CM23 2DL,http://www.hertsdirect.org/your-community/register/contactreg/bishopsreg
East Hertfordshire District Council - Register Office,Hertford Registration Office,County Hall,Pegs Lane,Hertford,SG13 8DE,http://www.hertsdirect.org/your-community/register/contactreg/hertfordreg
East Lindsey District Council - Register Office,Horncastle Registration Office,Holmeleigh,Foundry Street,Horncastle,LN9 6AQ,http://www.lincolnshire.gov.uk/residents/births-marriages-deaths-and-civil-partnerships/registration-offices/horncastle-registration-office/28770.article?tab=contacts
East Lindsey District Council - Register Office,Louth Registration Office,The Town Hall,Eastgate,Louth,LN11 9NH,http://www.lincolnshire.gov.uk/residents/births-marriages-deaths-and-civil-partnerships/registration-offices/louth-registration-office/28768.article?tab=contacts
East Lindsey District Council - Register Office,Spilsby Registration Office,Offord House,Church Street,Spilsby,PE23 5EF,http://www.lincolnshire.gov.uk/residents/births-marriages-deaths-and-civil-partnerships/registration-offices/louth-registration-office/28768.article?tab=contacts
East Riding of Yorkshire Council - Register Office,Beverley Registration Office,Walkergate House,Walkergate,Beverley,HU17 9BP,http://www2.eastriding.gov.uk/living/marriage-and-civil-partnerships/marriages/registration-office-finder/
East Riding of Yorkshire Council - Register Office,Cottingham Registration Office,Civic Centre,Market Green , East Riding of Yorkshire,HU16 5QG,http://www2.eastriding.gov.uk/living/marriage-and-civil-partnerships/marriages/registration-office-finder/
East Riding of Yorkshire Council - Register Office,Bridlington Registration Office,The Town Hall,Bridlington,East Riding of Yorkshire,YO16 4LP,http://www2.eastriding.gov.uk/living/marriage-and-civil-partnerships/marriages/registration-office-finder/
East Riding of Yorkshire Council - Register Office,Driffield Registration Office,West Garth,Mill Street,Driffield,YO25 6TP,http://www2.eastriding.gov.uk/living/marriage-and-civil-partnerships/marriages/registration-office-finder/
East Riding of Yorkshire Council - Register Office,Pocklington Registration Office,Burnby Hall,Pocklington,East Riding of Yorkshire,YO42 2QF,http://www2.eastriding.gov.uk/living/marriage-and-civil-partnerships/marriages/registration-office-finder/
East Riding of Yorkshire Council - Register Office,Goole Registration Office,Council Offices,Church Street,Goole,DN14 5BG,http://www2.eastriding.gov.uk/living/marriage-and-civil-partnerships/marriages/registration-office-finder/
East Riding of Yorkshire Council - Register Office,Hedon Registration Office,The Customer Services Centre,2 New Road,Hedon,HU12 8EN,http://www2.eastriding.gov.uk/living/marriage-and-civil-partnerships/marriages/registration-office-finder/
East Riding of Yorkshire Council - Register Office,Hornsea Registration Office,The Hornsea Resource Centre,Parva Road,Hornsea,HU18 1DW,http://www2.eastriding.gov.uk/living/marriage-and-civil-partnerships/marriages/registration-office-finder/
East Riding of Yorkshire Council - Register Office,Withernsea Registration Office,The Customer Services Centre,243 Queen Street,Withernsea,HU19 2HH,http://www2.eastriding.gov.uk/living/marriage-and-civil-partnerships/marriages/registration-office-finder/
East Staffordshire Borough Council - Register Office,Burton Registration Office,57-60 High Street,Burton upon Trent,,DE14 1JS,http://www.staffordshire.gov.uk/community/lifeevents/offices/offices.aspx
East Staffordshire Borough Council - Register Office,Queens Hospital Burton,Belevdere Road,Burton on Trent,,DE13 0RB,http://www.staffordshire.gov.uk/community/lifeevents/offices/offices.aspx
East Staffordshire Borough Council - Register Office,Uttoxeter Office,Balance Street Surgery,Balance Street,Uttoxeter,ST14 8JG,http://www.staffordshire.gov.uk/community/lifeevents/offices/offices.aspx
East Sussex County Council - Register Office,Crowborough Registration Office,Beaconwood,Beacon Road,Crowborough,TN6 1AR,http://www.eastsussex.gov.uk/atoz/heading785.aspx?forms=&acc=1&ae=1&ah=1&al=1&ar=1&aw=1
East Sussex County Council - Register Office,East Sussex Registration Office,Town Hall,Grove Road,Eastbourne,BN21 4UG,http://www.eastsussex.gov.uk/atoz/heading785.aspx?forms=&acc=1&ae=1&ah=1&al=1&ar=1&aw=1
East Sussex County Council - Register Office,Hastings Registration Office,Summerfields,Bohemia Road,Hastings,TN34 1EX,http://www.eastsussex.gov.uk/atoz/heading785.aspx?forms=&acc=1&ae=1&ah=1&al=1&ar=1&aw=1
East Sussex County Council - Register Office,Lewes Registration Office,Southover Grange,Southover Road,Lewes,BN7 1TP,http://www.eastsussex.gov.uk/atoz/heading785.aspx?forms=&acc=1&ae=1&ah=1&al=1&ar=1&aw=1
Eastbourne Borough Council - Register Office,East Sussex Registration Office,Town Hall,Grove Road,Eastbourne,BN21 4UG,http://www.eastbourne.gov.uk/eastbourne/history/family-history/local-resources/?entryid2=14753
Hampshire County Council - Register Office,Eastleigh Library,1st Floor Swan Centre,Eastleigh,,SO50 5SF,http://www3.hants.gov.uk/registration/registration-contact.htm
Penrith Registration Office,Penrith Library,St Andrew s Churchyard,Penrith,,CA11 7YA,http://www.cumbria.gov.uk/registrationservice/local_register_offices/penrith.asp
London Borough of Enfield - Register Office,1 Gentlemans Row,Enfield,,,EN2 6PS,http://www.enfield.gov.uk/info/200066/registration_ceremonies_and_cemeteries/819/register_office-contact_us
Epping Forest District Council - Register Office,Epping Registration Office,St John Road,Epping,,CM16 5DN,http://www.essex.gov.uk/Births%20Ceremonies%20Deaths/Births/Pages/Registration-Contacts.aspx
Epsom and Ewell Borough Council - Register Office,Reigate Library,Bancroft Road,Reigate,Surrey,RH2 7RP,http://www.surreycc.gov.uk/sccwebsite/sccwspages.nsf/LookupWebPagesByTITLE_RTF/Registrars+offices?opendocument
Erewash Borough Council - Register Office,Erewash Registration District,87 Lord Haddon Road,Ilkeston,,DE7 8AX,http://www.derbyshire.gov.uk/community/births_marriages_deaths/register_offices/default.asp
Erewash Borough Council - Register Office,Long Eaton Sub Office,Town Hall,Derby Road,Long Eaton,NG10 1HU,http://www.derbyshire.gov.uk/community/births_marriages_deaths/register_offices/default.asp
Essex County Council - Register Office,Braintree Registration Office,John Ray House,Bocking End,Braintree,CM7 9RW,http://www.essex.gov.uk/Births%20Ceremonies%20Deaths/Births/Pages/Registration-Contacts.aspx
Essex County Council - Register Office,Halstead Registration Office,Halstead Hospital,78 Hedingham Road,Halstead,CO9 2DL,http://www.essex.gov.uk/Births%20Ceremonies%20Deaths/Births/Pages/Registration-Contacts.aspx
Essex County Council - Register Office,Witham Registration Office,Witham Library,18 Newland Street,Witham,CM8 2AQ,http://www.essex.gov.uk/Births%20Ceremonies%20Deaths/Births/Pages/Registration-Contacts.aspx
Essex County Council - Register Office,Essex Register Office,"Seax House, County Hall",Victoria Road South,Chelmsford,CM1 1QH,http://www.essex.gov.uk/Births%20Ceremonies%20Deaths/Births/Pages/Registration-Contacts.aspx
Essex County Council - Register Office,Basildon Registration Office,Basildon Centre,St Martins Square,Basildon,SS14 1DL,http://www.essex.gov.uk/Births%20Ceremonies%20Deaths/Births/Pages/Registration-Contacts.aspx
Essex County Council - Register Office,Billericay Registration Office,Burghstead Lodge,143 High Street,Billericay,CM12 9AB,http://www.essex.gov.uk/Births%20Ceremonies%20Deaths/Births/Pages/Registration-Contacts.aspx
Essex County Council - Register Office,Castle Point Borough Council Office,Kiln Road,Thundersley,Benfleet,SS7 1TF,http://www.essex.gov.uk/Births%20Ceremonies%20Deaths/Births/Pages/Registration-Contacts.aspx
Essex County Council - Register Office,The Robing Room,District Council Offices,Hockley Road,Rayleigh,SS6 8EB,http://www.essex.gov.uk/Births%20Ceremonies%20Deaths/Births/Pages/Registration-Contacts.aspx
Essex County Council - Register Office,Chelmsford Registration Office,17 Market Road,Chelmsford,,CM1 1GF,http://www.essex.gov.uk/Births%20Ceremonies%20Deaths/Births/Pages/Registration-Contacts.aspx
Essex County Council - Register Office,Maldon Registration Office,Carmelite House,White Horse Lane,Maldon,CM9 5FW,http://www.essex.gov.uk/Births%20Ceremonies%20Deaths/Births/Pages/Registration-Contacts.aspx
Essex County Council - Register Office,Burnham Registration Office,Health Service Clinic,33 Crouch Road,Burnham,CM0 8DX,http://www.essex.gov.uk/Births%20Ceremonies%20Deaths/Births/Pages/Registration-Contacts.aspx
Essex County Council - Register Office,Colchester Registration Office,Stanwell House,Stanwell Street,Colchester,CO2 7DL,http://www.essex.gov.uk/Births%20Ceremonies%20Deaths/Births/Pages/Registration-Contacts.aspx
Essex County Council - Register Office,Clacton Registration Office,The Bungalow (opp Railway Station),Clacton on Sea,,CO15 6BP,http://www.essex.gov.uk/Births%20Ceremonies%20Deaths/Births/Pages/Registration-Contacts.aspx
Essex County Council - Register Office,Parish Town Offices,Parish Hall,Victoria Place,Brightlingsea,CO7 0BP,http://www.essex.gov.uk/Births%20Ceremonies%20Deaths/Births/Pages/Registration-Contacts.aspx
Essex County Council - Register Office,Fryatt Hospital,419 Main Road,Dovercourt,Harwich,CO12 4EX,http://www.essex.gov.uk/Births%20Ceremonies%20Deaths/Births/Pages/Registration-Contacts.aspx
Essex County Council - Register Office,Epping Registration Office,St John Road,Epping,,CM16 5DN,http://www.essex.gov.uk/Births%20Ceremonies%20Deaths/Births/Pages/Registration-Contacts.aspx
Essex County Council - Register Office,Watergarden Offices,College Square,The High,Harlow,CM20 1AG,http://www.essex.gov.uk/Births%20Ceremonies%20Deaths/Births/Pages/Registration-Contacts.aspx
Essex County Council - Register Office,Uttlesford Registration Office,Council Offices,London Road,Saffron Walden,CB11 4ER,http://www.essex.gov.uk/Births%20Ceremonies%20Deaths/Births/Pages/Registration-Contacts.aspx
Essex County Council - Register Office,Dunmow Registration Office,47 Stortford Road,Dunmow,,CM6 1DG,http://www.essex.gov.uk/Births%20Ceremonies%20Deaths/Births/Pages/Registration-Contacts.aspx
Essex County Council - Register Office,Branch Library,Crafton Green,Chapel Hill,Stansted,CM24 8AQ,http://www.essex.gov.uk/Births%20Ceremonies%20Deaths/Births/Pages/Registration-Contacts.aspx
Exeter City Council - Register Office,Civic Centre,Paris Street,,Exeter,EX1 1JN ,https://new.devon.gov.uk/registrationservice/registrationoffices/exeter-registration-office
Fareham Borough Council - Register Office,4 Osborn Road South,Fareham,,,PO16 7DG,http://www3.hants.gov.uk/registration/registration-contact.htm
Fenland District Council - Register Office,March Registration Office,Audmoor House,93 High Street,March,PE15 9LH,http://www.fenland.gov.uk/article/1746/Register-Office
Fenland District Council - Register Office,Fenland District Council One Stop Shop,Exchange Tower,2-3 Bridge St,Wisbech,PE13 1HG,http://www.fenland.gov.uk/article/1746/Register-Office
Forest Heath District Council - Register Office,The Guineas Centre,63 The Guineas,Newmarket,,CB8 8HT,http://www.suffolk.gov.uk/BirthsMarriagesAndDeaths/SuffolkRegistrationOffices/
Forest of Dean District Council - Register Office,The Oaks,Belle Vue Centre,6 Belle Vue Road,Cinderford,GL14 2AB,http://www.gloucestershire.gov.uk/index.cfm?articleid=7879&contactid=7844
Fylde Borough Council - Register Office,The Library,Clifton Street,Lytham,,FY8 5EP,http://www.lancashire.gov.uk/acs/sites/registration/offices/?town=Lytham
Gedling Borough Council - Register Office,Fairdale House,47 Station Road,Carlton,Nottingham,NG4 3AR,http://cms.nottinghamshire.gov.uk/home/youandyourcommunity/registrars/registeroffices.htm
Gloucestershire County Council - Register Office,Cheltenham Office,St Georges Road,Cheltenham,Glos,GL50 3EW,http://www.gloucestershire.gov.uk/index.cfm?articleid=7879&contactid=7840
Gloucestershire County Council - Register Office,The Oaks,Belle Vue Centre,6 Belle Vue Road,Cinderford,GL14 2AB,http://www.gloucestershire.gov.uk/index.cfm?articleid=7879&contactid=7844
Gloucestershire County Council - Register Office,The Old Council Chambers,The Council Offices,High Street,Moreton-in-Marsh,GL56 0AZ,http://www.gloucestershire.gov.uk/index.cfm?articleid=7879&contactid=7848
Gloucestershire County Council - Register Office,Cirencester Office,Cirencester Library,The Waterloo,Cirencester,GL7 2PZ,http://www.gloucestershire.gov.uk/index.cfm?articleid=7879&contactid=7842
Gloucester Register Office,Shire Hall,Westgate Street,,Gloucester,GL1 2TG,http://www.gloucestershire.gov.uk/index.cfm?articleid 7879&contactid 7847
Gloucestershire County Council - Register Office,Stroud Office,The Old Victorian School,Parliament Street,Stroud,GL5 1DY,http://www.gloucestershire.gov.uk/index.cfm?articleid=7879
Gosport Borough Council - Register Office,Gosport Discovery Centre,High Street,Gosport,,PO12 1BT,http://www3.hants.gov.uk/registration/registration-contact.htm
Kent County Council - Herne Bay Library &#40;Births and Deaths&#41;,124 High Street,Herne Bay,,,CT6 5JY,http://webapps.kent.gov.uk/KCC.Libraries.Web.Sites.Public/LibraryDetails.aspx?aid 0&lid 10&uprn 100062302754
Great Yarmouth Register Office,The Library,Tolhouse Street,,Great Yarmouth,NR30 2SH,http://www.norfolk.gov.uk/Community_and_living/Registration_services/NCC090563
London Borough of Greenwich - Register Office,Town Hall,Wellington Street,Woolwich,London,SE18 6PW,http://www.greenwich.gov.uk/Greenwich/CommunityLiving/BirthsDeathsMarriages/Marriages/ContactDetails
Guildford Borough Council - Register Office,Guildford Registration Office,Artington House,42 Portsmouth Road,Guildford,GU2 4DZ,http://www.surreycc.gov.uk/sccwebsite/sccwspages.nsf/LookupWebPagesByTITLE_RTF/District+register+offices?opendocument
London Borough of Hackney - Register Office,Hackney Service Centre,1 Hillman Street,Hackney,,E8 1DY,http://www.hackney.gov.uk/registrars.htm
Halton Borough Council - Register Office,Runcorn Town Hall,Heath Road,Runcorn,Warrington,WA7 5TN,http://www4.halton.gov.uk/Pages/BirthsDeathsMarriages/BirthsDeathsMarriages.aspx
London Borough of Hammersmith & Fulham - Register Office,Hammersmith Town Hall,King Street,,London,W6 9JU,http://www.lbhf.gov.uk/Directory/Community_and_Living/Birth_marriage_and_death/Homepage.asp
Hampshire County Council - Register Office,Aldershot Registration Office,30 Grosvenor Road,Aldershot,,GU11 3EB,http://www3.hants.gov.uk/registration/registration-contact.htm
Hampshire County Council - Register Office,Alton Registration Office,4 Queens Road,Alton,,GU34 1HU,http://www3.hants.gov.uk/registration/registration-contact.htm
Hampshire County Council - Register Office,Andover Registration Office,Wessex Chambers,South Street,Andover,SP10 2BN,http://www3.hants.gov.uk/registration/registration-contact.htm
Hampshire County Council - Register Office,Basingstoke Registration Office,Goldings,London Road,Basingstoke,RG21 4AN,http://www3.hants.gov.uk/registration/registration-contact.htm
Hampshire County Council - Register Office,Havant Plaza,Civic Centre Road,Havant ,,PO9 2AX,http://www3.hants.gov.uk/registration/registration-contact.htm
Hampshire County Council - Register Office,Eastleigh Library,1st Floor Swan Centre,Eastleigh,,SO50 5SF,http://www3.hants.gov.uk/registration/registration-contact.htm
Hampshire County Council - Register Office,Fareham Registration Office,4 Osborn Road South,Fareham,,PO16 7DG,http://www3.hants.gov.uk/registration/registration-contact.htm
Hampshire County Council - Register Office,Gosport Registration Office,Gosport Discovery Centre,High Street,Gosport,PO12 1BT,http://www3.hants.gov.uk/registration/registration-contact.htm
Hampshire County Council - Register Office,Havant Registration Office,1st Floor Havant Library,Meridian Centre,Havant,PO9 1UN,http://www3.hants.gov.uk/registration/registration-contact.htm
Hampshire County Council - Register Office,Petersfield Registration Office,Petersfield Library,27 The Square,Petersfield,GU32 3HH,http://www3.hants.gov.uk/registration/registration-contact.htm
Hampshire County Council - Register Office,Ringwood Registration Office,Public Offices,65 Christchurch Road,Ringwood,BH24 1DH,http://www3.hants.gov.uk/registration/registration-contact.htm
Hampshire County Council - Register Office,Romsey Registration Office,Hayter House,Hayter Gardens,Romsey,SO51 7QU,http://www3.hants.gov.uk/registration/registration-contact.htm
Hampshire County Council - Register Office,Totton and Ealing Community Centre,Civic Centre Building,Library Road,Totton,SO40 3AP,http://www3.hants.gov.uk/registration/registration-contact.htm
Harborough District Council - Register Office,Market Harborough Registration Service,42 Coventry Road,Market Harborough,,LE16 9BZ,http://www.leics.gov.uk/index/community/registration_services/marriages_and_civil_partnerships/registeroffices
London Borough of Haringey - Register Office,Civic Centre,High Road,Wood Green,London,N22 8LE,http://www.haringey.gov.uk//index/community_and_leisure/bdm.htm
Harlow District Council - Register Office,Watergarden Offices,College Square,The High,Harlow,CM20 1AG,http://www.essex.gov.uk/Births%20Ceremonies%20Deaths/Births/Pages/Registration-Contacts.aspx
Harrogate Borough Council - Register Office,Harrogate Register Office,Bilton House,31 Park Parade,Harrogate,HG1 5AG,http://www.northyorks.gov.uk/index.aspx?articleid=5656
London Borough of Harrow - Register Office,Harrow Council,Civic Centre,Station Road,Harrow,HA1 2XY,http://www.harrow.gov.uk/location
Hart District Council - Register Office,Aldershot Registration Office,30 Grosvenor Road,Aldershot,,GU11 3EB,http://www3.hants.gov.uk/registration/registration-contact.htm
Hartlepool Borough Council - Register Office,Civic Centre,Victoria Road,Hartlepool,,TS24 8BN,http://www.hartlepool.gov.uk/info/200010/births/988/register_office_home_page
Hastings Borough Council - Register Office,Hastings Registration Office,Summerfields,Bohemia Road,Hastings,TN34 1EX,http://www.eastsussex.gov.uk/atoz/heading785.aspx?forms=&acc=1&ae=1&ah=1&al=1&ar=1&aw=1
Havant Borough Council - Register Office,1st Floor Havant Library,Meridian Centre,Havant,,PO9 1UN,http://www3.hants.gov.uk/registration/registration-contact.htm
London Borough of Havering - Register Office,Langtons House,Billet Lane,Hornchurch,,RM11 1XL,http://www.havering.gov.uk/index.aspx?articleid=597&contactid=2404
Herefordshire Council - Register Office,Herefordshire Register Office,Town Hall,St Owens Street,Hereford,HR1 2PJ,https://www.herefordshire.gov.uk/government-citizens-and-rights/registration/register-offices
Kent County Council - Broadstairs Library &#40;Births and Deaths&#41;,The Broadway,Broadstairs,,,CT10 2BS,http://webapps.kent.gov.uk/KCC.Libraries.Web.Sites.Public/LibraryDetails.aspx?aid 0&lid 83&uprn 100062281548
Hertfordshire County Council - Register Office,Bishops Stortford Registration Office,Riverside House,2 Hockerhill Street,Bishops Stortford,CM23 2DL,http://www.hertsdirect.org/your-community/register/contactreg/bishopsreg
Hertfordshire County Council - Register Office,Broxbourne Registration Office,Bishops College,Churchgate,Cheshunt,EN8 9XH,http://www.hertsdirect.org/your-community/register/contactreg/broxbournereg
Hertfordshire County Council - Register Office,Dacorum Registration Office,The Bury,Queensway,Hemel Hempstead,HP1 1HR,http://www.hertsdirect.org/your-community/register/contactreg/dacorumreg
Hertfordshire County Council - Register Office,Hertford Registration Office,County Hall,Pegs Lane,Hertford,SG13 8DE,http://www.hertsdirect.org/your-community/register/contactreg/hertfordreg
Kent County Council - Deal Library &#40;Births and Deaths&#41;,Broad Street,Deal,,,CT14 6ER,http://webapps.kent.gov.uk/KCC.Libraries.Web.Sites.Public/LibraryDetails.aspx?aid 0&lid 28&pcd CT14%206ER
Hertfordshire County Council - Register Office,Stevenage Registration Office,Danesgate,Stevenage,Hertfordshire,SG1 1WW,http://www.hertsdirect.org/your-community/register/contactreg/stevenagereg
Hertfordshire County Council - Register Office,Watford Registration Office,36 Clarendon Road,Watford,Hertfordshire,WD17 1JQ,http://www.hertsdirect.org/your-community/register/contactreg/watfordreg
Kent County Council - Cranbrook Library &#40;Births and Deaths&#41;,Carriers Road,Cranbrook,,,TN17 3JT,http://webapps.kent.gov.uk/KCC.Libraries.Web.Sites.Public/LibraryDetails.aspx?aid 0&lid 100&pcd TN17%203JT
High Peak Borough Council - Register Office,High Peak Registration District,Town Hall,New Mills,High Peak,SK22 4AT,http://www.derbyshire.gov.uk/community/births_marriages_deaths/register_offices/default.asp
High Peak Borough Council - Register Office,Buxton Register Office,Town Hall,Market Place,Buxton,SK17 6EL,http://www.derbyshire.gov.uk/community/births_marriages_deaths/register_offices/default.asp
High Peak Borough Council - Register Office,Town Hall,Market Street,Chapel-en-le-Frith,High Peak,SK23 0HP,http://www.derbyshire.gov.uk/community/births_marriages_deaths/register_offices/default.asp
High Peak Borough Council - Register Office,Glossop Register Office,51a/53 High Street East,Glossop,,SK13 8PN,http://www.derbyshire.gov.uk/community/births_marriages_deaths/register_offices/default.asp
London Borough of Hillingdon - Register Office,Civic Centre,High Street,Uxbridge,Middlesex,UB8 1UW,http://www.hillingdon.gov.uk/index.jsp?articleid=9657
Hinckley & Bosworth Borough Council - Register Office,Atkins Building,Lower Bond Street,Hinckley,,LE10 1QU,http://www.leics.gov.uk/index/community/registration_services/marriages_and_civil_partnerships/registeroffices
London Borough of Hounslow - Register Office,88 Lampton Road,Hounslow,,,TW3 4DW,http://www.hounslow.gov.uk/index/community_and_living/deaths_funerals_and_cremations/death_registration.htm
Huntingdonshire District Council - Register Office,The Huntingdon Registration and Coroners Office,Lawrence Court ,Princes Street,Huntingdon,PE29 3PA,http://www.cambridgeshire.gov.uk/community/bmd/offices/huntingdon/
Kent County Council - Sandwich Library &#40;Births and Deaths&#41;,13 Market Street,Sandwich,,,CT13 9DA,http://webapps.kent.gov.uk/KCC.Libraries.Web.Sites.Public/LibraryDetails.aspx?aid 0&lid 30&pcd CT13%209DA
Ipswich Borough Council - Register Office,St Peter House,16 Grimwade Street,Ipswich,,IP4 1LP,http://www.suffolk.gov.uk/BirthsMarriagesAndDeaths/SuffolkRegistrationOffices/
Isle of Wight Council - Register Office,Seaclose Offices,Fairlee Road,Newport,,PO30 2QS,http://www.iwight.com/council/departments/registrars/
Isles of Scilly - Register Office,Town Hall,St Marys,Isles of Scilly,,TR21 0JZ,http://www.scilly.gov.uk/regservices/
London Borough of Islington - Register Office,Islington Town Hall,Upper Street,London,,N1 2UD,http://www.islington.gov.uk/services/births-deaths-marriages/Pages/default.aspx?extra 3
Royal Borough of Kensington and Chelsea - Register Office,Chelsea Old Town Hall,Kings Road,London,,SW3 5EE,http://www.rbkc.gov.uk/communityandlocallife/chelsearegisterofficehours.aspx
Kent County Council - Folkestone Library &#40;Births and Deaths&#41;,2 Grace Hill,Folkestone,,,CT20 1HD,http://webapps.kent.gov.uk/KCC.Libraries.Web.Sites.Public/LibraryDetails.aspx?aid 0&lid 32&pcd CT20%201HD
Kent County Council - Tunbridge Wells Library &#40;Births and Deaths&#41;,Mount Pleasant Road,Royal Tunbridge Wells,,,TN1 1NS,http://webapps.kent.gov.uk/KCC.Libraries.Web.Sites.Public/LibraryDetails.aspx?aid 0&lid 99&pcd TN1%201NS
Kent County Council - Tenterden Gateway &#40;Births and Deaths&#41;,2 Manor Row,High Street,Tenterden,,TN30 6HP,http://www.tenterdentown.co.uk/index.php/community-and-living/local-groups/tenterden-gateway/
Downham Registration Office,15 Paradise Road,Downham Market,,Norfolk,PE38 9HS,http://www.norfolk.gov.uk/Community_and_living/Registration_services/NCC090563
Kings Lynn Register Office,The Town Hall,Saturday Market Place,,Kings Lynn,PE30 5DQ,http://www.norfolk.gov.uk/Community_and_living/Registration_services/NCC090563
Kingston-upon-Hull City Council - Register Office,181-191 George Street,Hull,,,HU1 3BY,http://www.hullcc.gov.uk/portal/page?_pageid=221
Kirklees Metropolitan Borough Council - Register Office,Dewsbury Register Office,Wellington Street,Dewsbury,,WF13 1LY,http://www.kirklees.gov.uk/community/registrars/registrars.shtml#contact
Kirklees Metropolitan Borough Council - Register Office,Huddersfield Register Office,Huddersfield Town Hall,Ramsden Street,Huddersfield,HD1 2TA,http://www.kirklees.gov.uk/community/registrars/registrars.shtml#contact
Knowsley Metropolitan Borough Council - Register Office,Knowsley Register Office,High Street,Prescot,,L34 3LD,http://www.knowsley.gov.uk/residents/births
Knowsley Metropolitan Borough Council - Register Office,Halewood One Stop Shop,The Halewood Centre,Halewood,Knowsley,L26 9UH,http://www.knowsley.gov.uk/residents/one-stop-shops.aspx
Knowsley Metropolitan Borough Council - Register Office,Huyton Register Office,Archway Road,Huyton,Knowsley,L36 9YU,http://www.knowsley.gov.uk/residents/one-stop-shops.aspx
Knowsley Metropolitan Borough Council - Register Office,Kirkby Register Office,Kirkby One Stop Shop,Cherryfield Drive,Knowsley,L32 1TX,http://www.knowsley.gov.uk/residents/one-stop-shops.aspx
London Borough of Lambeth - Register Office,Redfearn Centre,329 Kennington Lane,,London,SE11 5QY,http://www.lambeth.gov.uk/places/lambeth-register-office
Lancashire County Council - Accrington Register Office,The Mechanics Institute,Willow Street,Accrington,,BB5 1LP,http://www.lancashire.gov.uk/births-marriages-and-deaths/find-a-registration-office/accrington-registration-office.aspx
Kent County Council - Ramsgate Library &#40;Births and Deaths&#41;,Guildford Lawn,Ramsgate,,,CT11 9AY,http://webapps.kent.gov.uk/KCC.Libraries.Web.Sites.Public/LibraryDetails.aspx?aid 0&lid 87&pcd CT11%209AY
Lancashire County Council - Register Office,Devonshire House,Devonshire Road,Chorley,,PR7 2BY,http://www.lancashire.gov.uk/acs/sites/registration/offices/?town=Chorley
Lancashire County Council - Register Office,New Central Library,North Albert Street,Fleetwood,,FY7 6AJ,http://www.lancashire.gov.uk/acs/sites/registration/offices/?town=Fleetwood
Lancashire County Council - Register Office,4 Queen Street,Lancaster,,,LA1 1RS,http://www.lancashire.gov.uk/acs/sites/registration/offices/?town=Lancaster
Lancashire County Council - Register Office,The Library,Clifton Street,Lytham,,FY8 5EP,http://www.lancashire.gov.uk/acs/sites/registration/offices/?town=Lytham
Lancashire County Council - Register Office,Derby Street,Ormskirk,,,L39 2WS,http://www.lancashire.gov.uk/acs/sites/registration/offices/?town=Ormskirk
Lancashire County Council - Register Office,Bow Lane,Preston,,,PR1 8SE,http://www.lancashire.gov.uk/acs/sites/registration/offices/?town=Preston
Lancaster City Council - Register Office,4 Queen Street,Lancaster,,,LA1 1RS,http://www.lancashire.gov.uk/acs/sites/registration/offices/?town=Lancaster
Leeds City Council - Register Office,2 Great George Street,,,Leeds,LS2 8BA,http://www.leeds.gov.uk/residents/Pages/Births-deaths-and-marriages.aspx
Leeds City Council - Register Office,Rawdon Council Offices,Micklefield House,Rawdon,,LS19 6DF,http://www.leeds.gov.uk/page.aspx?pageidentifier=07b7d020-9b9e-4ac0-97a2-d51f41f43071
Leeds City Council - Register Office,Garforth Library and One Stop Centre,Lidget Lane,Garforth,Leeds,LS25 1EH,http://www.leeds.gov.uk/page.aspx?pageidentifier=07b7d020-9b9e-4ac0-97a2-d51f41f43071
Leeds City Council - Register Office,Town Hall,Robin Lane,Pudsey,Leeds,LS28 7BL,http://www.leeds.gov.uk/page.aspx?pageidentifier=07b7d020-9b9e-4ac0-97a2-d51f41f43071
Leeds City Council - Register Office,Wetherby Council Offices,24 Westgate,Wetherby,Leeds,LS22 6NL,http://www.leeds.gov.uk/page.aspx?pageidentifier=07b7d020-9b9e-4ac0-97a2-d51f41f43071
Leeds City Council - Register Office,Town Hall,Queen Street,Morley,Leeds,LS27 9DY,http://www.leeds.gov.uk/page.aspx?pageidentifier=07b7d020-9b9e-4ac0-97a2-d51f41f43071
Leeds City Council - Register Office,Rothwell Council Offices,Civic Building,Rothwell,Leeds,LS26 0AD,http://www.leeds.gov.uk/page.aspx?pageidentifier=07b7d020-9b9e-4ac0-97a2-d51f41f43071
Leeds City Council - Register Office,Otley One Stop Shop Centre,8 Boroughgate,Otley,Leeds,LS21 3AH,http://www.leeds.gov.uk/page.aspx?pageidentifier=07b7d020-9b9e-4ac0-97a2-d51f41f43071
Leeds City Council - Register Office,Chapeltown Register Office,Reginald Centre,263 Chapeltown Road,Leeds,LS7 3EX,http://www.leeds.gov.uk/page.aspx?pageidentifier=07b7d020-9b9e-4ac0-97a2-d51f41f43071
Leeds City Council - Register Office,Harehills Register Office,Compton Road Centre,Harehills Lane,Leeds,LS9 7BG,http://www.leeds.gov.uk/page.aspx?pageidentifier=07b7d020-9b9e-4ac0-97a2-d51f41f43071
Leeds City Council - Register Office,Armley One Stop Centre,2 Stocks Hill,Armley,Leeds,LS12 1UQ,http://www.leeds.gov.uk/page.aspx?pageidentifier=07b7d020-9b9e-4ac0-97a2-d51f41f43071
Leicester City Council - Register Office,Town Hall,Town Hall Square,Leicester Road,,LE1 9BG,http://www.leicester.gov.uk/your-council-services/council-and-democracy/registration-service/
Leicester County Council - Register Office,County Hall,Leicester Road,Glenfield,,LE3 8RN,http://www.leics.gov.uk/index/community/registration_services/marriages_and_civil_partnerships/registeroffices
Leicester County Council - Register Office,Coalville Registration Service,41 Ravenstone Road,Coalville,,LE67 3NB,http://www.leics.gov.uk/index/community/registration_services/marriages_and_civil_partnerships/registeroffices
Leicester County Council - Register Office,Atkins Building,Lower Bond Street,Hinckley,,LE10 1QU,http://www.leics.gov.uk/index/community/registration_services/marriages_and_civil_partnerships/registeroffices
Leicester County Council - Register Office,Loughborough Registration Service,202 Ashby Road,Loughborough,,LE11 3AG,http://www.leics.gov.uk/index/community/registration_services/marriages_and_civil_partnerships/registeroffices
Leicester County Council - Register Office,Market Harborough Registration Service,42 Coventry Road,Market Harborough,,LE16 9BZ,http://www.leics.gov.uk/index/community/registration_services/marriages_and_civil_partnerships/registeroffices
Leicester County Council - Register Office,Melton Mowbray Registration Service,Areas Office,Leicester Road,Melton Mowbray,LE13 0DA,http://www.leics.gov.uk/index/community/registration_services/marriages_and_civil_partnerships/registeroffices
Leicester County Council - Register Office,South Wigston Registration Service,c/o Social Services Offices,Bassett Street,South Wigston,LE18 4PE,http://www.leics.gov.uk/index/community/registration_services/marriages_and_civil_partnerships/registeroffices
Lewes District Council - Register Office,Lewes Registration Office,Southover Grange,Southover Road,Lewes,BN7 1TP,http://www.eastsussex.gov.uk/atoz/heading785.aspx?forms=&acc=1&ae=1&ah=1&al=1&ar=1&aw=1
London Borough of Lewisham - Register Office,368 Lewisham High Street,London,,,SE13 6LQ,http://www.lewisham.gov.uk/CommunityAndLiving/BirthsDeathsAndMarriages/
Lichfield District Council - Register Office,Lichfield Registration Office,The Old Library Building,Bird Street,Lichfield,WS13 6PN,http://www.staffordshire.gov.uk/community/lifeevents/offices/offices.aspx
Lincoln City Council - Register Office,Lincoln Registration Office,4 Lindum Road,Lincoln,,LN2 1NN,http://www.lincolnshire.gov.uk/residents/births-marriages-deaths-and-civil-partnerships/registration-offices/lincoln-register-office/28769.article?tab=contacts
Lincolnshire County Council - Register Office,Boston Registration Office,"Boston Borough Council Offices, Municipal Buildings",West Street,Boston,PE21 8QR,http://www.lincolnshire.gov.uk/residents/births-deaths-marriages-and-civil-partnerships/registration-offices/boston-regi
Lincolnshire County Council - Register Office,Bourne Registration Office,South Kesteven Community Point & Library &#40;Bourne Corn Exchange&#41;,3 Abbey Road,Bourne,PE10 9EF,http://www.lincolnshire.gov.uk/residents/births-deaths-marriages-and-civil-partnerships/registration-offices/bourne-regi
Lincolnshire County Council - Register Office,Gainsborough Registration Office,Richmond House,Morton Terrace,Gainsborough,DN21 2RJ,http://www.lincolnshire.gov.uk/residents/births-deaths-marriages-and-civil-partnerships/registration-offices/gainsboroug
Lincolnshire County Council - Register Office,Grantham Registration Office,Totemic House,Caunt Road &#40;off Springfield Road&#41;,Grantham,NG31 7FZ,http://www.lincolnshire.gov.uk/residents/births-deaths-marriages-and-civil-partnerships/registration-offices/grantham-re
Lincolnshire County Council - Register Office,Horncastle Registration Office,Holmeleigh,Foundry Street,Horncastle,LN9 6AQ,http://www.lincolnshire.gov.uk/residents/births-deaths-marriages-and-civil-partnerships/registration-offices/horncastle-
Lincolnshire County Council - Register Office,Lincoln Registration Office,4 Lindum Road,&#40;access from Danesgate&#41;,Lincoln,LN2 1NN,http://www.lincolnshire.gov.uk/residents/births-deaths-marriages-and-civil-partnerships/registration-offices/lincoln-reg
Lincolnshire County Council - Register Office,Long Sutton Registration Office,Swap Coat Lane,Long Sutton,Lincolnshire,PE12 9HB,http://www.lincolnshire.gov.uk/residents/births-deaths-marriages-and-civil-partnerships/registration-offices/long-sutton
Lincolnshire County Council - Register Office,Louth Registration Office,The Town Hall,Eastgate,Louth,LN11 9NH,http://www.lincolnshire.gov.uk/residents/births-deaths-marriages-and-civil-partnerships/registration-offices/louth-regis
Lincolnshire County Council - Register Office,Skegness Registration Office,Aura Skegness Business Centre,Heath Road,Skegness,PE25 3SJ,http://www.lincolnshire.gov.uk/residents/births-deaths-marriages-and-civil-partnerships/registration-offices/skegness-re
Lincolnshire County Council - Register Office,Sleaford Registration Office,North Kesteven District Council Offices,Kesteven Street,Sleaford,NG34 7EF,http://www.lincolnshire.gov.uk/residents/births-deaths-marriages-and-civil-partnerships/registration-offices/sleaford-re
Lincolnshire County Council - Register Office,Spalding Registration Office,Linden House,1 Bath Lane,Spalding,PE11 1XP,http://www.lincolnshire.gov.uk/residents/births-deaths-marriages-and-civil-partnerships/registration-offices/spalding-re
Lincolnshire County Council - Register Office,Stamford Registration Office,2 St Marys Hill,Stamford,Lincolnshire,PE9 2DR,http://www.lincolnshire.gov.uk/residents/births-deaths-marriages-and-civil-partnerships/registration-offices/stamford-re
Liverpool Register Office,Heritage Entrance,St George s Hall,St George s Place,Liverpool,L1 1JJ,http://liverpool.gov.uk/births-marriage-deaths/
Luton Borough Council - Register Office,6 George Street West,Luton,Bedfordshire,,LU1 2BJ,http://www.luton.gov.uk/internet/legal_services/luton%20register%20office%20(registration%20service)/registration_of_deaths/death%20-%20registering
Kent County Council - Maidstone Register Office &#40;Marriages&#41;,The Archbishop s Palace,Mill Street,Maidstone,,ME15 6YE,http://www.akentishceremony.com/kcc-register-offices/
Maldon District Council - Register Office,Maldon Registration Office,Carmelite House,White Horse Lane,Maldon,CM9 5FW,http://www.essex.gov.uk/Births%20Ceremonies%20Deaths/Births/Pages/Registration-Contacts.aspx
Maldon District Council - Register Office,Burnham Registration Office,Health Service Clinic,33 Crouch Road,Burnham,CM0 8DX,http://www.essex.gov.uk/Births%20Ceremonies%20Deaths/Births/Pages/Registration-Contacts.aspx
Malvern Hills District Council - Register Office,Malvern Register Office,The Library/Contact Centre,Graham Road,Malvern,WR14 2HU,http://www.worcestershire.gov.uk/cms/community-and-living/registration-services.aspx
Malvern Hills District Council - Register Office,Tenbury Register Office,Library Contact Centre,24 Teme Street,Tenbury Wells,WR15 8AA,http://www.worcestershire.gov.uk/cms/community-and-living/registration-services.aspx
Manchester City Council - Register Office,Heron House,47 Lloyd Street,Manchester,,M2 5LE,https://cms.manchester.gov.uk/site/scripts/documents_info.php?categoryID=321&documentID=1186
Mansfield District Council - Register Office,County House,Dale Close,100 Chesterfield Road South,Mansfield,NG19 7AQ,http://www.mansfield.gov.uk/index.aspx?articleid=124
Medway Council - Register Office,Northgate,Rochester,Kent,,ME1 1LS,http://www.medway.gov.uk/communityandliving/birthdeathandmarriage.aspx
Melton Borough Council - Register Office,Melton Mowbray Registration Service,Areas Office,Leicester Road,Melton Mowbray,LE13 0DA,http://www.leics.gov.uk/index/community/registration_services/marriages_and_civil_partnerships/registeroffices
Mendip District Council - Register Office,Frome Registration Office,5 King Street,Frome,,BA11 1BH,http://www.somerset.gov.uk/births-marriages-deaths/registry-offices/
Mendip District Council - Register Office,Shepton Mallet Registration Office,19b Commercial Road,Shepton Mallet,,BA4 5BU,http://www.somerset.gov.uk/irj/public/services/directory/location?rid=/wpccontent/Sites/SCC/Web%20Pages/Services/Locations/Shepton%20Mallet%20Registration%20Office
Mendip District Council - Register Office,Wells Registration Office,Town Hall,Market Place,Wells,BA5 2RB,http://www.somerset.gov.uk/irj/public/services/directory/location?rid=/wpccontent/Sites/SCC/Web%20Pages/Services/Locations/Wells%20Registration%20Office
London Borough of Merton - Register Office,Morden Park House,Morden Park,London Road,Morden,SM4 5QU,http://www.merton.gov.uk/community-living/register/registeroffice.htm
Mid Devon District Council - Register Office,Old Heathcoat School Community Centre,King Street,,Tiverton,EX16 5JJ,https://new.devon.gov.uk/registrationservice/registrationoffices/mid-devon-registration-office
Mid Suffolk District Council - Register Office,Gipping & Hartismere Registration Office,Milton House,Milton Road South,Stowmarket,IP14 1EZ,http://www.suffolk.gov.uk/BirthsMarriagesAndDeaths/SuffolkRegistrationOffices/
Milton Keynes Council - Register Office,Bracknell House,Aylesbury Street,Bletchley,Milton Keynes,MK2 2BE,http://www.milton-keynes.gov.uk/registrars/
Mole Valley District Council - Register Office,Leatherhead Register Office,The Mansion,70 Church Street,Leatherhead,KT22 8DP,http://www.surreycc.gov.uk/sccwebsite/sccwspages.nsf/LookupWebPagesByTITLE_RTF/District+register+offices?opendocument
New Forest District Council - Register Office,Ringwood Registration Office,Ringwood Gateway,The Furlong,Ringwood,BH24 1AT,http://www3.hants.gov.uk/registration/registration-contact.htm
New Forest District Council - Register Office,Totton and Ealing Community Centre,Civic Centre Building,Library Road,Totton,SO40 3AP,http://www3.hants.gov.uk/registration/registration-contact.htm
Newark and Sherwood District Council - Register Office,County Council Offices,Balderton Gate,Newark,,NG24 1UW,http://cms.nottinghamshire.gov.uk/home/youandyourcommunity/registrars/registeroffices.htm
Newark and Sherwood District Council - Register Office,Dukeries Complex,Whinney Lane,New Ollerton,,NG22 9TH,http://cms.nottinghamshire.gov.uk/home/youandyourcommunity/registrars/registeroffices.htm
Newark and Sherwood District Council - Register Office,The Bramley Centre,King Street,Southwell,,NG25 0EH,http://cms.nottinghamshire.gov.uk/home/youandyourcommunity/registrars/registeroffices.htm
Newcastle-upon-Tyne City Council - Register Office,Civic Centre,Newcastle Upon Tyne,,,NE1 8PS,http://www.newcastle.gov.uk/core.nsf/a/nrocontact?opendocument
London Borough of Newham - Register Office,207 Plashet Grove,East Ham,London,,E6 1BT,http://www.newham.gov.uk/BirthsDeathsAndMarriages/RegisterOffice/NewhamRegisterOffice.htm
Norfolk County Council - Register Office,Diss Registration Office,Council Offices,Market Hill,Diss,IP22 4JZ,http://www.norfolk.gov.uk/Community_and_living/Registration_services/NCC090563
Norfolk County Council - Register Office,Downham Registration Office,15 Paradise Road,Downham Market,Norfolk,PE38 9HS,http://www.norfolk.gov.uk/Community_and_living/Registration_services/NCC090563
Norfolk County Council - Register Office,Dereham Registration Office,Breckland Business Centre,St Withburga Lane,Dereham,NR19 1FD,http://www.norfolk.gov.uk/Community_and_living/Registration_services/NCC090563
Norfolk County Council - Register Office,Fakenham Registration Office,Fakenham Connect,Oak Street,Fakenham,NR21 9SR,http://www.norfolk.gov.uk/Community_and_living/Registration_services/NCC090563
Norfolk County Council - Register Office,Ferryside,High Road,Southtown,Great Yarmouth,NR31 0PH,http://www.norfolk.gov.uk/Community_and_living/Registration_services/NCC090563
Norfolk County Council - Register Office,Kings Lynn Registration Office,Hanse House,St Margarets Place,Kings Lynn,PE30 5DW,http://www.norfolk.gov.uk/Community_and_living/Registration_services/NCC090563
Norfolk County Council - Register Office,North Walsham Registration Office,18 Kings Arms,North Walsham,Norfolk,NR28 9JX,http://www.norfolk.gov.uk/Community_and_living/Registration_services/NCC090563
Norfolk County Council - Register Office,The Norfolk Register office,Churchman House,71 Bethel Street,Norwich,NR2 1NR,http://www.norfolk.gov.uk/Community_and_living/Registration_services/NCC090563
Norfolk County Council - Register Office,Thetford Registration Office,Kings House,King Street,Thetford,IP24 2AP,http://www.norfolk.gov.uk/Community_and_living/Registration_services/NCC090563
North Devon Council - Register Office,Civic Centre,North Walk,,Barnstaple,EX31 1EA,https://new.devon.gov.uk/registrationservice/registrationoffices/north-devon-registration-office
Blandford Registration Office,Norden,Salisbury Road,,Blandford Forum,DT11 7LN,http://www.dorsetforyou.com/374463
Gillingham Registration Office,Gillingham Town Hall,School Road,,Gillingham,SP8 4QR,http://www.dorsetforyou.com/374542
Shaftesbury Registration Office,Abbey View Medical Centre,,,Shaftesbury,SP7 8NU,http://www.dorsetforyou.com/374564
North East Derbyshire District Council - Register Office,Chesterfield Registration District,New Beetwell Street,Chesterfield,,S40 1QJ,http://www.derbyshire.gov.uk/community/births_marriages_deaths/register_offices/default.asp
North East Lincolnshire Council - Register Office,Cleethorpes Town Hall,Knoll Street,,Cleethorpes,DN35 8LN,http://www.nelincs.gov.uk/resident/births deaths-and-marriages/
Kent County Council - Dartford Library &#40;Births and Deaths&#41;,Central Park,Market Street,Dartford,,DA1 1EU,http://webapps.kent.gov.uk/KCC.Libraries.Web.Sites.Public/LibraryDetails.aspx?aid 0&lid 14&uprn 200000533638
North Kesteven District Council - Regiser Office,Sleaford Registration Office,Council Offices,Eastgate,Sleaford,NG34 7EB,http://www.lincolnshire.gov.uk/residents/births-marriages-deaths-and-civil-partnerships/registration-offices/sleaford-registration-office/28774.article?tab=contacts
North Lincolnshire Council - Register Office,Civic Centre,Ashby Road,,Scunthorpe,DN16 1AB,http://www.northlincs.gov.uk/community-advice-and-support/births-deaths-and-marriages/births/register-a-birth/
North Norfolk District Council - Register Office,Fakenham Registration Office,Fakenham Connect,Oak Street,Fakenham,NR21 9SR,http://www.norfolk.gov.uk/Community_and_living/Registration_services/NCC090563
North Norfolk District Council - Register Office,North Walsham Registration Office,18 Kings Arms,North Walsham,Norfolk,NR28 9JX,http://www.norfolk.gov.uk/Community_and_living/Registration_services/NCC090563
North Somerset Council - Register Office,The Register Office,41 Boulevard,Weston-super-Mare,,BS23 1PG,http://www.n-somerset.gov.uk/Contacts/registrationservicecontacts.htm
North Somerset Council - Register Office,37a Old Church Road,Clevedon,,,BS21 6NN,http://www.n-somerset.gov.uk/Contacts/registrationservicecontacts.htm
North Tyneside Metropolitan Borough Council - Register Office,Maritime Chambers,1 Howard Street,North Shields,,NE30 1LZ,http://www.northtyneside.gov.uk/browse-display.shtml?p_ID=28311&p_subjectCategory=593
North Warwickshire Borough Council - Register Office,Atherstone Registration Office,North Warwickshire Borough Council,South Street,Atherstone,CV9 1DE,http://www.warwickshire.gov.uk/atherstonero
North West Leicestershire District Council - Register Office,Coalville Registration Service,41 Ravenstone Road,Coalville,,LE67 3NB,http://www.leics.gov.uk/index/community/registration_services/marriages_and_civil_partnerships/registeroffices
North Yorkshire County Council - Register Office,Pickering Registration Office,The Library & Information Centre,The Ropery,Pickering,YO18 7JL,http://www.northyorks.gov.uk/index.aspx?articleid=5664
North Yorkshire County Council - Register Office,Harrogate Register Office,Bilton House,31 Park Parade,Harrogate,HG1 5AG,http://www.northyorks.gov.uk/index.aspx?articleid=5656
North Yorkshire County Council - Register Office,Leyburn Registration Office,Thornborough Hall,Leyburn,N Yorks,DL8 5AB,http://www.northyorks.gov.uk/index.aspx?articleid=5661
North Yorkshire County Council - Register Office,Malton Registration Office,Ryedale House,Old Malton Road,Malton,YO17 0HH,http://www.northyorks.gov.uk/index.aspx?articleid=5655
North Yorkshire County Council - Register Office,North Allerton Registration Office,County Hall,North Allerton,Hambleton,DL7 8XE,http://www.northyorks.gov.uk/index.aspx?articleid=5662
North Yorkshire County Council - Register Office,Richmond Registration Office,12 Queens Road,Richmond,N Yorks,DL10 4AE,http://www.northyorks.gov.uk/index.aspx?articleid=5657
North Yorkshire County Council - Register Office,Scarborough Registration Office,North Cliff House,69 Burniston Road,Scarborough,YO12 6PH,http://www.northyorks.gov.uk/index.aspx?articleid=5663
North Yorkshire County Council - Register Office,The Annexe,Brook Lodge,Union Lane,Selby,YO8 4AU,http://www.northyorks.gov.uk/index.aspx?articleid=5660
North Yorkshire County Council - Register Office,Council Offices,Castle Hill,Settle,Craven,BD24 9EU,http://www.northyorks.gov.uk/index.aspx?articleid=5654
North Yorkshire County Council - Register Office,Skipton Registration Office,Area Offices,Water Street ,Skipton,BD23 1PB,http://www.northyorks.gov.uk/index.aspx?articleid=5658
North Yorkshire County Council - Register Office,Farndale House,Church Square,Whitby,Scarborough,YO21 3EG,http://www.northyorks.gov.uk/index.aspx?articleid=5659
Northamptonshire County Council - Register Office,Level 2 The Corby Cube,Parkland Gateway,George Street,Corby,NN17 1QG,http://www.northamptonshire.gov.uk/en/councilservices/Community/bdm/register/Pages/Corbyro.aspx
Northamptonshire County Council - Register Office,Daventry Registration Office,Council Offices,Lodge Road,Daventry,NN11 4FP,http://www.northamptonshire.gov.uk/en/councilservices/community/bdm/register/pages/daventryro.aspx
Northamptonshire County Council - Register Office,Kettering Registration Office,Bowling Green Road,Kettering,,NN15 7QX,http://www.northamptonshire.gov.uk/en/councilservices/community/bdm/register/pages/ketteringro.aspx
Northamptonshire County Council - Register Office,Northampton Registration Office,Northampton Central Library,Abington Street,Northampton,NN1 2BA,http://www.northamptonshire.gov.uk/en/councilservices/community/bdm/register/pages/northamptonro.aspx
Oundle Registration Office,Oundle Library,Glapthorn Road,Oundle,Peterborough,PE8 4JA,http://www.northamptonshire.gov.uk/en/councilservices/community/bdm/register/pages/oundlero.aspx
Northamptonshire County Council - Register Office,Towcester Registration Office,"The Forum, Moat Lane",Towcester,Northants,NN12 6AD,http://www.northamptonshire.gov.uk/en/councilservices/community/bdm/register/pages/towcesterro.aspx
Northamptonshire County Council - Register Office,Wellingborough Registration Office,Council Offices,Swanspool House,Wellingborough,NN8 1BP,http://www.northamptonshire.gov.uk/en/councilservices/community/bdm/register/pages/wellingboroughro.aspx
Norwich City Council - Register Office,The Norfolk Register office,Churchman House,71 Bethel Street,Norwich,NR2 1NR,http://www.norfolk.gov.uk/Community_and_living/Registration_services/NCC090563
Nottingham City Council - Register Office,The Council House,Old Market Square,Nottingham,,NG1 2DT,http://nottinghamcity.gov.uk/index.aspx?articleid=12716
Nottinghamshire County Council - Register Office,Retford Registration Office,County Council Offices,Chancery Lane,Retford,DN22 6DG,http://www.nottinghamshire.gov.uk/living/life/births-marriages-and-deaths/register-offices/
Nottinghamshire County Council - Register Office,Beeston Library,Foster Avenue,Beeston ,Nottingham,NG9 1AE,http://www.nottinghamshire.gov.uk/living/life/births-marriages-and-deaths/register-offices/
Nottinghamshire County Council - Register Office,The Court House,Church Street,Bingham,Nottingham,NG13 8AL,http://www.nottinghamshire.gov.uk/living/life/births-marriages-and-deaths/register-offices/
Nottinghamshire County Council - Register Office,Fairdale House,47 Station Road,Carlton,Nottingham,NG4 3AR,http://www.nottinghamshire.gov.uk/living/life/births-marriages-and-deaths/register-offices/
Nottinghamshire County Council - Register Office,East Leake Parish Council Offices,45 Main Street,East Leake,Loughborough,LE12 6PF,http://www.nottinghamshire.gov.uk/living/life/births-marriages-and-deaths/register-offices/
Nottinghamshire County Council - Register Office,Eastwood Health Clinic,Nottingham Road,Eastwood,Nottingham,NG16 3GL,http://www.nottinghamshire.gov.uk/living/life/births-marriages-and-deaths/register-offices/
Nottinghamshire County Council - Register Office,Under One Roof,3A Vine Terrace,Hucknall,Nottingham,NG15 7HN,http://www.nottinghamshire.gov.uk/living/life/births-marriages-and-deaths/register-offices/
Nottinghamshire County Council - Register Office,County House,Dale Close,100 Chesterfield Road South,Mansfield,NG19 7DN,http://www.nottinghamshire.gov.uk/living/life/births-marriages-and-deaths/register-offices/
Nottinghamshire County Council - Register Office,Newark Registration Office &#40;The Gilstrap&#41;,Balderton Gate,Newark,,NG24 1BG,http://www.nottinghamshire.gov.uk/living/life/births-marriages-and-deaths/register-offices/
Nottinghamshire County Council - Register Office,Dukeries Complex,Whinney Lane,New Ollerton,,NG22 9TD,http://www.nottinghamshire.gov.uk/living/life/births-marriages-and-deaths/register-offices/
Nottinghamshire County Council - Register Office,"Rushcliffe Registration Office, County Hall",Bridgford Road,West Bridgford,Nottingham,NG2 7QP,http://www.nottinghamshire.gov.uk/living/life/births-marriages-and-deaths/register-offices/
Nottinghamshire County Council - Register Office,The Bramley Centre,King Street,Southwell,,NG25 0EH,http://www.nottinghamshire.gov.uk/living/life/births-marriages-and-deaths/register-offices/
Nottinghamshire County Council - Register Office,Stapleford Library,Church Street,Stapleford,Nottingham,NG9 8GA,http://www.nottinghamshire.gov.uk/living/life/births-marriages-and-deaths/register-offices/
Nottinghamshire County Council - Register Office,Sutton-in-Ashfield Library,Idlewells Precinct,Sutton-in-Ashfield,,NG17 1BP,http://www.nottinghamshire.gov.uk/living/life/births-marriages-and-deaths/register-offices/
Nottinghamshire County Council - Register Office,Nottinghamshire Register Office,Memorial Avenue,Workshop,Nottingham,S80 2BP,http://www.nottinghamshire.gov.uk/living/life/births-marriages-and-deaths/register-offices/
Nuneaton & Bedworth Borough Council - Register Office,Bedworth Registration Office,Kings House,King Street,Bedworth,CV12 8LL,http://www.warwickshire.gov.uk/bedworthro
Nuneaton & Bedworth Borough Council - Register Office,Nuneaton Registration Office,Riversley Park,Coton Road,Nuneaton,CV11 5HA,http://www.warwickshire.gov.uk/nuneatonro
Oadby & Wigston Borough Council - Register Office,South Wigston Registration Service,c/o Social Services Offices,Bassett Street,South Wigston,LE18 4PE,http://www.leics.gov.uk/index/community/registration_services/marriages_and_civil_partnerships/registeroffices
Oldham Metropolitan Borough Council - Register Office,Chadderton Town Hall,Middleton Road,Chadderton,Oldham,OL9 6PP,http://www.oldham.gov.uk/births_marriages_and_deaths/bereavement-services/registering-a-death.htm
Oxford City Council - Register Office,Oxfordshire District,1 Tidmarsh Lane,Oxford,,OX1 1NS,http://www.oxfordshire.gov.uk/wps/portal/publicsite/councilservices?WCM_GLOBAL_CONTEXT=http://apps.oxfordshire.gov.uk/wps/wcm/connect/occ/Internet%2FCouncil+services%2FCommunity+and+living%2FBirths+deaths+and+marriages%2FCL+-+BDM+-+Register+Offices
Oxfordshire County Council - Register Office,Oxfordshire District,1 Tidmarsh Lane,Oxford,,OX1 1NS,http://www.oxfordshire.gov.uk/wps/portal/publicsite/councilservices?WCM_GLOBAL_CONTEXT=http://apps.oxfordshire.gov.uk/wps/wcm/connect/occ/Internet%2FCouncil+services%2FCommunity+and+living%2FBirths+deaths+and+marriages%2FCL+-+BDM+-+Register+Offices
Oxfordshire County Council - Register Office,Abingdon Register Office,Roysse Court,Bridge Street,Abingdon,OX14 3HU,http://www.oxfordshire.gov.uk/wps/portal/publicsite/councilservices?WCM_GLOBAL_CONTEXT=http://apps.oxfordshire.gov.uk/wps/wcm/connect/occ/Internet%2FCouncil+services%2FCommunity+and+living%2FBirths+deaths+and+marriages%2FCL+-+BDM+-+Register+Offices
Oxfordshire County Council - Register Office,Banbury Register Office,Bodictote House,Banbury,,OX15 4AA,http://www.oxfordshire.gov.uk/wps/portal/publicsite/councilservices?WCM_GLOBAL_CONTEXT=http://apps.oxfordshire.gov.uk/wps/wcm/connect/occ/Internet%2FCouncil+services%2FCommunity+and+living%2FBirths+deaths+and+marriages%2FCL+-+BDM+-+Register+Offices
Oxfordshire County Council - Register Office,Bicester Register Office,The Garth,Launton Road,Bicester,OX26 6PS,http://www.oxfordshire.gov.uk/wps/portal/publicsite/councilservices?WCM_GLOBAL_CONTEXT=http://apps.oxfordshire.gov.uk/wps/wcm/connect/occ/Internet%2FCouncil+services%2FCommunity+and+living%2FBirths+deaths+and+marriages%2FCL+-+BDM+-+Register+Offices
Oxfordshire County Council - Register Office,Didcot Register Office,197 Broadway,Didcot,,OX11 8RU,http://www.oxfordshire.gov.uk/wps/portal/publicsite/councilservices?WCM_GLOBAL_CONTEXT=http://apps.oxfordshire.gov.uk/wps/wcm/connect/occ/Internet%2FCouncil+services%2FCommunity+and+living%2FBirths+deaths+and+marriages%2FCL+-+BDM+-+Register+Offices
Oxfordshire County Council - Register Office,Henley Register Office,Easby House,Northfield End,Henley-on-Thames,RG9 2JN,http://www.oxfordshire.gov.uk/wps/portal/publicsite/councilservices?WCM_GLOBAL_CONTEXT=http://apps.oxfordshire.gov.uk/wps/wcm/connect/occ/Internet%2FCouncil+services%2FCommunity+and+living%2FBirths+deaths+and+marriages%2FCL+-+BDM+-+Register+Offices
Oxfordshire County Council - Register Office,Witney Register Office,Council Offices,Woodgreen,Witney,OX28 1NB,http://www.oxfordshire.gov.uk/wps/portal/publicsite/councilservices?WCM_GLOBAL_CONTEXT=http://apps.oxfordshire.gov.uk/wps/wcm/connect/occ/Internet%2FCouncil+services%2FCommunity+and+living%2FBirths+deaths+and+marriages%2FCL+-+BDM+-+Register+Offices
Kent County Council - Sittingbourne Library &#40;Births and Deaths&#41;,Central Avenue,Sittingbourne,,,ME10 4AH,http://webapps.kent.gov.uk/KCC.Libraries.Web.Sites.Public/LibraryDetails.aspx?aid 0&lid 74&pcd ME10%204AH
Plymouth City Council - Register Office,Lockyer Street,Plymouth ,,,PL1 2QD,http://www.plymouth.gov.uk/homepage/communityandliving/marriageandpartnerships/civilpartnership/registeroffice.htm
Portsmouth City Council - Register Office,Milldam House,Burnaby Road,Portsmouth,,PO1 3AF,http://www.portsmouth.gov.uk/living/440.html
Preston City Council - Register Office,Bow Lane,Preston,,,PR1 8SE,http://www.lancashire.gov.uk/acs/sites/registration/offices/?town=Preston
Swanage Registration Office,The Town Hall,High Street,,Swanage,BH19 2NZ,http://www.dorsetforyou.com/374567
Wareham Registration Office,The Library,South Street,,Wareham,BH20 4LR,http://www.dorsetforyou.com/374568
Reading Borough Council - Register Office,Yeomanry House,131 Castle Hill,Reading,,RG1 7TA,http://www.reading.gov.uk/communityandliving/registeroffice/
London Borough of Redbridge - Register Office,Queen Victoria House,794 Cranbrook Road,Barkingside,,IG6 1JS,http://www.redbridge.gov.uk/cms/contact_pages/r/register_office.aspx
Redcar and Cleveland - Register Office,Leisure and Community Heart,Ridley Street,,,TS10 1TD,http://www.redcar-cleveland.gov.uk/rcbcweb.nsf/web+full+list/83b0816617aefd7580257059004cabe2
Redditch Borough Council - Register Office,Redditch Registration Office,29 Easemore Road,Redditch,Worcestershire,B98 8ER,http://www.worcestershire.gov.uk/cms/community-and-living/registration-services.aspx
Reigate and Banstead Borough Council - Register Office,Reigate Library,Bancroft Road,Reigate,Surrey,RH2 7RP,http://www.surreycc.gov.uk/sccwebsite/sccwspages.nsf/LookupWebPagesByTITLE_RTF/Registrars+offices?opendocument
Kent County Council - Swanley Library &#40;Births and Deaths&#41;,London Road,Swanley,,,BR8 7AE,http://webapps.kent.gov.uk/KCC.Libraries.Web.Sites.Public/LibraryDetails.aspx?aid 0&lid 71&pcd BR8%207AE
London Borough of Richmond upon Thames - Register Office,1 Spring Terrace,Richmond House,Surrey,,TW9 1LW,http://www.richmond.gov.uk/home/council_government_and_democracy/council/civic-offices/departments/environment_directorate/finance_and_performance/birth_marriage_and_death.htm
Richmondshire District Council - Register Office,Leyburn Registration Office,Thornborough Hall,Leyburn,N Yorks,DL8 5AB,http://www.northyorks.gov.uk/index.aspx?articleid=5661
Richmondshire District Council - Register Office,Richmond Registration Office,12 Queens Road,Richmond,N Yorks,DL10 4AE,http://www.northyorks.gov.uk/index.aspx?articleid=5657
Rochdale Metropolitan Borough Council - Register Office,Town Hall,Vicars Gate,Rochdale,,OL16 1AB,"http://www.rochdale.gov.uk/births,_deaths_and_marriages.aspx"
Rochford District Council - Registration Office,The Robing Room,District Council Offices,Hockley Road,Rayleigh,SS6 8EB,http://www.essex.gov.uk/Births%20Ceremonies%20Deaths/Births/Pages/Registration-Contacts.aspx
Kent County Council - Sheppey Gateway &#40;Births and Deaths&#41;,38 - 42 High Street,Sheerness,,,ME12 1NL,http://www.swale.gov.uk/sheppey-gateway/
Rother District Council - Register Office,Hastings Registration Office,Summerfields,Bohemia Road,Hastings,TN34 1EX,http://www.eastsussex.gov.uk/atoz/heading785.aspx?forms=&acc=1&ae=1&ah=1&al=1&ar=1&aw=1
Rotherham Metropolitan Borough Council - Register Office,Riverside House,Main Street,Rotherham,,S60 1AE,http://www.rotherham.gov.uk/births
Rugby Borough Council - Register Office,Rugby Registration Office,5 Bloxam Place,Rugby,,CV21 3DS,http://www.warwickshire.gov.uk/rugbyro
Runnymede Borough Council - Register Office,Rylston,81 Oatlands Drive,Weybridge,Surrey,KT13 9LN,http://www.runnymede.gov.uk/portal/binary/com.epicentric.contentmanagement.servlet.ContentDeliveryServlet/RBC Portal/LGCL Categories/Community %2526 Living/Life events/Births/Registration of births/Registration of births
Rushcliffe Borough Council - Register Office,The Court House,Church Street,Bingham,Nottingham,NG13 8AL,http://cms.nottinghamshire.gov.uk/home/youandyourcommunity/registrars/registeroffices.htm
Rushcliffe Borough Council - Register Office,The Hall,Bridgford Road,West Bridgford,Nottingham,NG2 6AT,http://cms.nottinghamshire.gov.uk/home/youandyourcommunity/registrars/registeroffices.htm
Rushcliffe Borough Council - Register Office,East Leake Parish Council Offices,45 Main Street,East Leake,Loughborough,LE12 6PF,http://cms.nottinghamshire.gov.uk/home/youandyourcommunity/registrars/registeroffices.htm
Rushmoor Borough Council - Register Office,Aldershot Registration Office,30 Grosvenor Road,Aldershot,,GU11 3EB,http://www3.hants.gov.uk/registration/registration-contact.htm
Rutland County Council - Register Office,Catmose Cottage,South Street,Oakham,Rutland,LE15 6HY,http://www.rutland.gov.uk/pp/gold/viewgold.asp?id=847
Ryedale District Council - Register Office,Pickering Registration Office,The Library & Information Centre,The Ropery,Pickering,YO18 7JL,http://www.northyorks.gov.uk/index.aspx?articleid=5664
Ryedale District Council - Register Office,Malton Registration Office,Ryedale House,Old Malton Road,Malton,YO17 0HH,http://www.northyorks.gov.uk/index.aspx?articleid=5655
Salford City Council - Register Office,Town Hall,Chorley Road,Swinton,Salford,M27 5DA,http://www.salford.gov.uk/bmd.htm
Sandwell Metropolitan Borough Council - Register Office,Highfields,High Street,West Bromwich,,B70 8RJ,http://www.sandwell.gov.uk/info/200026/council_departments/411/register_office
Scarborough Borough Council - Register Office,Scarborough Registration Office,North Cliff House,69 Burniston Road,Scarborough,YO12 6PH,http://www.northyorks.gov.uk/index.aspx?articleid=5663
Scarborough Borough Council - Register Office,Farndale House,Church Square,Whitby,Scarborough,YO21 3EG,http://www.northyorks.gov.uk/index.aspx?articleid=5659
Sedgemoor District Council - Register Office,Bridgwater Registration Office,Morgan House,Mount Street,Bridgwater,TA6 3ER,http://www.somerset.gov.uk/irj/public/services/directory/location?rid=/wpccontent/Sites/SCC/Web%20Pages/Services/Locations/Bridgwater%20Registration%20Office
Sedgemoor District Council - Register Office,Burnham-on-Sea Registration Office,The Old Court House,Jaycroft Road,Burnham-on-Sea,TA8 1EH,http://www.somerset.gov.uk/irj/public/services/directory/location?rid=/wpccontent/Sites/SCC/Web%20Pages/Services/Locations/Burnham-on-Sea%20Registration%20Office
Sefton Metropolitan Borough Council - Register Office,North Sefton Register Office,Corporation Street,Southport,,PR8 1DA,http://sefton.gov.uk/default.aspx?page=5221
Sefton Metropolitan Borough Council - Register Office,South Sefton Register Office,Town Hall,Great Georges Road,Waterloo,L22 1RB,http://sefton.gov.uk/default.aspx?page=5221
Selby District Council - Register Office,The Annexe,Brook Lodge,Union Lane,Selby,YO8 4AU,http://www.northyorks.gov.uk/index.aspx?articleid=5660
Kent County Council - Sevenoaks Library &#40;Births and Deaths&#41;,Buckhurst Lane,Sevenoaks,,,TN13 1LQ,http://webapps.kent.gov.uk/KCC.Libraries.Web.Sites.Public/LibraryDetails.aspx?aid 0&lid 62&uprn 100062546713
Sheffield City Council - Register Office,Town Hall,Pinstone Street,Sheffield,,S1 2HH,http://www.sheffield.gov.uk/your-city-council/register-office/register-office-contact-details
Kent County Council - Hythe Library &#40;Births and Deaths&#41;,1 Stade Street,Hythe,,,CT21 6BQ,http://webapps.kent.gov.uk/KCC.Libraries.Web.Sites.Public/LibraryDetails.aspx?aid 0&lid 35&pcd CT21%206BQ
Slough Borough Council - Register Office,The Centre,Farnham Road,Slough,Berkshire,SL1 4UT,http://www.slough.gov.uk/births-marriage-deaths/register-a-death.aspx
Solihull Metropolitan Borough Council - Register Office,Solihull Connect ,Library Square,Touchwood,Solihull,B91 3RG,http://www.solihull.gov.uk/community/deathregistering.htm
Solihull Metropolitan Borough Council - Register Office,West Mall,Chelmsley Wood Shopping Centre,Chelmsley Wood,Solihull,B37 5TN,http://www.solihull.gov.uk/community/deathregistering.htm
Somerset County Council - Register Office,Somerset Register Office (Taunton),The Old Municipal Buildings,Corporation Street,Taunton,TA1 4AQ,http://www.somerset.gov.uk/irj/public/services/directory/location?rid=/wpccontent/Sites/SCC/Web%20Pages/Services/Locations/Somerset%20Register%20Office%20(Taunton)
Somerset County Council - Register Office,Wellington Registration Office,Somerset Skills and Learning,Corams Lane,Wellington,TA21 8LL,http://www.somerset.gov.uk/irj/public/services/directory/location?rid=/wpccontent/Sites/SCC/Web%20Pages/Services/Locations/Wellington%20Registration%20Office
Somerset County Council - Register Office,Bridgwater Registration Office,Morgan House,Mount Street,Bridgwater,TA6 3ER,http://www.somerset.gov.uk/irj/public/services/directory/location?rid=/wpccontent/Sites/SCC/Web%20Pages/Services/Locations/Bridgwater%20Registration%20Office
Somerset County Council - Register Office,Burnham-on-Sea Registration Office,The Old Court House,Jaycroft Road,Burnham-on-Sea,TA8 1EH,http://www.somerset.gov.uk/irj/public/services/directory/location?rid=/wpccontent/Sites/SCC/Web%20Pages/Services/Locations/Burnham-on-Sea%20Registration%20Office
Somerset County Council - Register Office,Chard Registration Office,Holyrood Lace Mill,Holyrood Street,Chard,TA20 2YA,http://www.somerset.gov.uk/irj/public/services/directory/location?rid=/wpccontent/Sites/SCC/Web%20Pages/Services/Locations/Chard%20Registration%20Office
Kent County Council - Gravesend Library &#40;Births and Deaths&#41;,Windmill Street,Gravesend,,,DA12 1BE,http://webapps.kent.gov.uk/KCC.Libraries.Web.Sites.Public/LibraryDetails.aspx?aid 0&lid 41&pcd DA12%201BE
Somerset County Council - Register Office,Minehead Registration Office,1 Parkhouse Road,Minehead,,TA24 8AA,http://www.somerset.gov.uk/irj/public/services/directory/location?rid=/wpccontent/Sites/SCC/Web%20Pages/Services/Locations/Minehead%20Registration%20Office
Kent County Council - Cliftonville Library &#40;Births and Deaths&#41;,Queen Elizabeth Avenue,Margate,,,CT9 3JX,http://webapps.kent.gov.uk/KCC.Libraries.Web.Sites.Public/LibraryDetails.aspx?aid 0&lid 84&pcd CT9%203JX
Kent County Council - Thanet Gateway &#40;Births and Deaths&#41;,Cecil Street,Margate,,,CT9 1RE,http://www.thanet.gov.uk/about-us/thanet-gateway-plus
Somerset County Council - Register Office,Williton Registration Office,2 Long Street,Williton,,TA4 4QN,http://www.somerset.gov.uk/irj/public/services/directory/location?rid=/wpccontent/Sites/SCC/Web%20Pages/Services/Locations/Williton%20Registration%20Office
Kent County Council - Whitstable Library &#40;Births and Deaths&#41;,Oxford Street,Whitstable,,,CT5 1DB,http://webapps.kent.gov.uk/KCC.Libraries.Web.Sites.Public/LibraryDetails.aspx?aid 0&lid 13&uprn 100062300410
Kent County Council - Maidstone Library &#40;Births and Deaths&#41;,Kent History And Library Centre,James Whatman Way,Maidstone,,ME14 1LQ,http://webapps.kent.gov.uk/KCC.Libraries.Web.Sites.Public/LibraryDetails.aspx?aid 0&lid 274&uprn 010014309203
South Cambridgeshire District Council - Register Office,Cambridge Registration Office,Castle Lodge,Shire Hall,Cambridge,CB3 0AP,http://www.cambridgeshire.gov.uk/community/bmd/offices/cambridge/default.htm
South Derbyshire District Council - Register Office,Swadlincote Register Office,Civic Way,Swadlincote,,DE11 0AH,http://www.derbyshire.gov.uk/community/births_marriages_deaths/register_offices/default.asp
South Gloucestershire Register Office,Civic Centre,High Street,Kingswood,Bristol,BS15 9TR,https://www.southglos.gov.uk/community-and-living/
South Hams District Council - Register Office,Follaton House,Plymouth Road,Totnes,,TQ9 5NE,http://www.southhams.gov.uk/index/residents_index/ksp-community-support/ksp_life_events.htm
South Holland District Council - Register Office,Long Sutton Registration Office,Swap Coat Lane,Long Sutton,Lincolnshire,PE12 9HB,http://www.lincolnshire.gov.uk/residents/births-marriages-deaths-and-civil-partnerships/registration-offices/long-sutton-registration-office/28781.article?tab=contacts
South Holland District Council - Register Office,Spalding Registration Office,Linden House,1 Bath Lane,Spalding,PE11 1XP,http://www.lincolnshire.gov.uk/residents/births-marriages-deaths-and-civil-partnerships/registration-offices/spalding-registration-office/28779.article?tab=contacts
South Kesteven District Council - Register Office,Bourne Registration Office,Saxonhurst,35 West Street,Bourne,PE10 9NE,http://www.lincolnshire.gov.uk/residents/births-marriages-deaths-and-civil-partnerships/registration-offices/bourne-registration-office/28778.article?tab=contacts
South Kesteven District Council - Register Office,Grantham Registration Office,Springfield House,Springfield Road,Grantham,NG31 7BG,http://www.lincolnshire.gov.uk/residents/births-marriages-deaths-and-civil-partnerships/registration-offices/grantham-registration-office/54379.article?tab=contacts
South Kesteven District Council - Register Office,Stamford Registration Office,2 St Marys Hill,Stamford,Lincolnshire,PE9 2DR,http://www.lincolnshire.gov.uk/residents/births-marriages-deaths-and-civil-partnerships/registration-offices/stamford-registration-office/29855.article?tab=contacts
South Lakeland District Council - Register Office,Kendal Register Office,County Offices,Busher Walk,Kendal,LA9 4RQ,http://www.cumbria.gov.uk/registration/wheretofindus/Default.asp
Ulverston Registration Office,The Town Hall,Ulverston,,,LA12 7AR,http://www.cumbria.gov.uk/registrationservice/local_register_offices/ulverston.asp
South Norfolk District Council - Register Office,Diss Registration Office,Council Offices,Market Hill,Diss,IP22 4JZ,http://www.norfolk.gov.uk/Community_and_living/Registration_services/NCC090563
South Oxfordshire District Council - Register Office,Didcot Register Office,197 Broadway,Didcot,,OX11 8RU,http://www.oxfordshire.gov.uk/wps/portal/publicsite/councilservices?WCM_GLOBAL_CONTEXT=http://apps.oxfordshire.gov.uk/wps/wcm/connect/occ/Internet%2FCouncil+services%2FCommunity+and+living%2FBirths+deaths+and+marriages%2FCL+-+BDM+-+Register+Offices
South Oxfordshire District Council - Register Office,Henley Register Office,Easby House,Northfield End,Henley-on-Thames,RG9 2JN,http://www.oxfordshire.gov.uk/wps/portal/publicsite/councilservices?WCM_GLOBAL_CONTEXT=http://apps.oxfordshire.gov.uk/wps/wcm/connect/occ/Internet%2FCouncil+services%2FCommunity+and+living%2FBirths+deaths+and+marriages%2FCL+-+BDM+-+Register+Offices
South Ribble Borough Council - Register Office,Bow Lane,Preston,,,PR1 8SE,http://www.lancashire.gov.uk/acs/sites/registration/offices/?town=Preston
South Somerset District Council - Register Office,Chard Registration Office,Holyrood Lace Mill,Holyrood Street,Chard,TA20 2YA,http://www.somerset.gov.uk/irj/public/services/directory/location?rid=/wpccontent/Sites/SCC/Web%20Pages/Services/Locations/Chard%20Registration%20Office
South Somerset District Council - Register Office,Wincanton Registration Office,The Community Office,Churchfields,Wincanton,BA9 9AG,http://www.somerset.gov.uk/irj/public/services/directory/location?rid=/wpccontent/Sites/SCC/Web%20Pages/Services/Locations/Wincanton%20Registration%20Office
South Somerset District Council - Register Office,Yeovil Registration Office,Maltravers House,Petters Way,Yeovil,BA20 1SP,http://www.somerset.gov.uk/irj/public/services/directory/location?rid=/wpccontent/Sites/SCC/Web%20Pages/Services/Locations/Yeovil%20Registration%20Office
South Staffordshire Council - Registe Office,Wombourne Registration Office,Civic Centre,Gravel Hill,Wombourne,Wv5 9HA,http://www.staffordshire.gov.uk/community/lifeevents/offices/offices.aspx
South Tyneside Council - Register Office,10 Broughton Road,South Shields,Tyne & Wear,,NE33 2RN,http://www.southtyneside.info/article/7652/Births-deaths--marriages
Southampton City Council - Register Office,6a Bugle Street,Southampton,,,SO14 2LX,http://www.southampton.gov.uk/living/bmcpd/
Southend-on-Sea Borough Council - Register Office,Civic Centre,Victoria Avenue,Southend-on-Sea,Essex,SS2 6ER,http://www.southend.gov.uk/info/200213/births/161/registering_a_birth
London Borough of Southwark - Register Office,34 Peckham Road,London ,,,SE5 8QA,http://www.southwark.gov.uk/a_to_z/service/2013/southwark_register_office
Spelthorne Borough Council - Register Office,Weybridge Register Office,81 Oatlands Drive,Weybridge,Surrey,KT13 9LN,http://www.spelthorne.gov.uk/csp_registration_of_death.htm
St Albans City & District Council - Register Office,The Gatehouse,1 Victoria Square,Victoria Street,St Albans,AL1 3TF,http://www.hertsdirect.org/your-community/register/contactreg/stalbansreg
St Helens Metropolitan Borough Council - Register Office,Central Street,St Helens,Merseyside,,WA10 1UJ,http://www.sthelens.gov.uk/lgnl.htm?id=319
Stafford Borough Council - Register Office,1 Staffordshire Place,,,Stafford,ST16 2LP,http://www.staffordshire.gov.uk/community/lifeevents/offices/offices.aspx
Stafford Borough Council - Register Office,Stafford Hospital,Weston Road,Stafford,,ST16 3SA,http://www.staffordshire.gov.uk/community/lifeevents/offices/offices.aspx
Stafford Borough Council - Register Office,Stone Office,Mansion House Surgery,Abbey Street,Stone,ST15 8YE,http://www.staffordshire.gov.uk/community/lifeevents/offices/offices.aspx
Staffordshire County Council - Register Office,Stafford Office,Eastgate House,79 Eastgate Street,Stafford,ST16 2NG,http://www.staffordshire.gov.uk/community/lifeevents/offices/offices.aspx
Staffordshire County Council - Register Office,Burton Registration Office,57-60 High Street,Burton upon Trent,,DE14 1JS,http://www.staffordshire.gov.uk/community/lifeevents/offices/offices.aspx
Staffordshire County Council - Register Office,Queens Hospital Burton,Belevdere Road,Burton on Trent,,DE13 0RB,http://www.staffordshire.gov.uk/community/lifeevents/offices/offices.aspx
Staffordshire County Council - Register Office,Cannock Registration Office,5 Victoria Street,Cannock,,WS11 1AG,http://www.staffordshire.gov.uk/community/lifeevents/offices/offices.aspx
Staffordshire County Council - Register Office,Lichfield Registration Office,The Old Library Building,Bird Street,Lichfield,WS13 6PN,http://www.staffordshire.gov.uk/community/lifeevents/offices/offices.aspx
Staffordshire County Council - Register Office,Newcastle Registration Office,20 Sidmouth Avenue,Newcastle under Lyme,,ST5 0QN,http://www.staffordshire.gov.uk/community/lifeevents/offices/offices.aspx
Staffordshire County Council - Register Office,Stafford Hospital,Weston Road,Stafford,,ST16 3SA,http://www.staffordshire.gov.uk/community/lifeevents/offices/offices.aspx
Kent County Council - Edenbridge Library &#40;Births and Deaths&#41;,The Eden Centre,Four Elms Road,Edenbridge,,TN8 6BY,http://webapps.kent.gov.uk/KCC.Libraries.Web.Sites.Public/LibraryDetails.aspx?aid 0&lid 63&uprn 010013772382
Staffordshire County Council - Register Office,Wombourne Registration Office,Civic Centre,Gravel Hill,Wombourne,Wv5 9HA,http://www.staffordshire.gov.uk/community/lifeevents/offices/offices.aspx
Staffordshire County Council - Register Office,Town Hall,High Street,Biddulph,Stoke-on-Trent,ST8 6AR,http://www.staffordshire.gov.uk/community/lifeevents/offices/offices.aspx
Staffordshire County Council - Register Office,Cheadle Office,15a-17 High Street,Cheadle,,ST10 1AA,http://www.staffordshire.gov.uk/community/lifeevents/offices/offices.aspx
Staffordshire County Council - Register Office,Kidgrove Office,Town Hall,Liverpool Road,Kidsgrove,ST7 4EH,http://www.staffordshire.gov.uk/community/lifeevents/offices/offices.aspx
Staffordshire County Council - Register Office,Leek Office,Moorlands District Council,Stockwell Street,Leek,ST13 6HQ,http://www.staffordshire.gov.uk/community/lifeevents/offices/offices.aspx
Staffordshire County Council - Register Office,Rugeley Office,Council Offices,Anson Street,Rugeley,WS15 2BH,http://www.staffordshire.gov.uk/community/lifeevents/offices/offices.aspx
Staffordshire County Council - Register Office,Stone Office,Mansion House Surgery,Abbey Street,Stone,ST15 8YE,http://www.staffordshire.gov.uk/community/lifeevents/offices/offices.aspx
Staffordshire County Council - Register Office,Uttoxeter Office,Balance Street Surgery,Balance Street,Uttoxeter,ST14 8JG,http://www.staffordshire.gov.uk/community/lifeevents/offices/offices.aspx
Staffordshire Moorlands District Council - Register Office,Town Hall,High Street,Biddulph,Stoke-on-Trent,ST8 6AR,http://www.staffordshire.gov.uk/community/lifeevents/offices/offices.aspx
Staffordshire Moorlands District Council - Register Office,Cheadle Office,15a-17 High Street,Cheadle,,ST10 1AA,http://www.staffordshire.gov.uk/community/lifeevents/offices/offices.aspx
Staffordshire Moorlands District Council - Register Office,Leek Office,Moorlands District Council,Stockwell Street,Leek,ST13 6HQ,http://www.staffordshire.gov.uk/community/lifeevents/offices/offices.aspx
Stevenage Borough Council - Register Office,Danesgate,Stevenage,Hertfordshire,,SG1 1WW,http://www.hertsdirect.org/your-community/register/contactreg/stevenagereg
Stockport Metropolitan Borough Council - Register Office,Town Hall,John Street Entrance,Stockport,,SK1 3XE,http://www.stockport.gov.uk/services/communitypeopleliving/birthsmarriagesdeaths/stockportregisteroffice
Stockton-on-Tees Borough Council - Register Office,Nightingale House,Balaclava Street,Stockton-on-Tees,,TS18 2AL,http://www.stockton.gov.uk/citizenservices/registeroffice/
Stoke-on-Trent City Council - Register Office,Hanley Town Hall,Albion Street,Hanley,Stoke-on-Trent,ST1 1QQ,http://www.stoke.gov.uk/ccm/navigation/community-and-living/births--deaths--ceremonies/registering-births-and-deaths/
Stratford-on-Avon District Council - Register Office,Stratford upon Avon Registration Office,Winton House,Church Street,Stratford upon Avon,CV37 6HB,http://www.warwickshire.gov.uk/stratfordro
Stroud District Council - Register Office,Stroud Office,The Old Victorian School,Parliament Street,Stroud,GL5 1DY,http://www.gloucestershire.gov.uk/index.cfm?articleid=7879
Suffolk County Council - Register Office,St Margarets,7 The Churchyard,Bury St Edmunds,,IP33 1RX,http://www.suffolk.gov.uk/BirthsMarriagesAndDeaths/SuffolkRegistrationOffices/
Suffolk County Council - Register Office,The Guineas Centre,63 The Guineas,Newmarket,,CB8 8HT,http://www.suffolk.gov.uk/BirthsMarriagesAndDeaths/SuffolkRegistrationOffices/
Suffolk County Council - Register Office,The Linos Centre,Saddlemakers Lane,Melton,Woodbridge,IP12 1PP,http://www.suffolk.gov.uk/BirthsMarriagesAndDeaths/SuffolkRegistrationOffices/
Suffolk County Council - Register Office,County Offices,Street Farm Road,Saxmundham,,IP17 1AL,http://www.suffolk.gov.uk/BirthsMarriagesAndDeaths/SuffolkRegistrationOffices/
Suffolk County Council - Register Office,Gipping & Hartismere Registration Office,Milton House,Milton Road South,Stowmarket,IP14 1EZ,http://www.suffolk.gov.uk/BirthsMarriagesAndDeaths/SuffolkRegistrationOffices/
Suffolk County Council - Register Office,14 Cornard Road,Sudbury,,,CO10 2XA,http://www.suffolk.gov.uk/BirthsMarriagesAndDeaths/SuffolkRegistrationOffices/
Suffolk County Council - Register Office,Haverhill Library,Camps Road,Haverhill,,CB9 8HB,http://www.suffolk.gov.uk/BirthsMarriagesAndDeaths/SuffolkRegistrationOffices/
Suffolk County Council - Register Office,St Peter House,16 Grimwade Street,Ipswich,,IP4 1LP,http://www.suffolk.gov.uk/BirthsMarriagesAndDeaths/SuffolkRegistrationOffices/
Suffolk County Council - Register Office,Town Hall,Felixstowe,,,IP11 2AG,http://www.suffolk.gov.uk/BirthsMarriagesAndDeaths/SuffolkRegistrationOffices/
Suffolk County Council - Register Office,Waveney Registration Office,Gordon Road,Lowestoft,,NR32 1JQ,http://www.suffolk.gov.uk/BirthsMarriagesAndDeaths/SuffolkRegistrationOffices/
Suffolk County Council - Register Office,Halesworth Library,Bridge Street,Halesworth,,IP19 8AD,http://www.suffolk.gov.uk/BirthsMarriagesAndDeaths/SuffolkRegistrationOffices/
Suffolk Coastal District Council - Register Office,The Linos Centre,Saddlemakers Lane,Melton,Woodbridge,IP12 1PP,http://www.suffolkcoastal.gov.uk/atoz/registrationservice.htm
Suffolk Coastal District Council - Register Office,County Offices,Street Farm Road,Saxmundham,,IP17 1AL,http://www.suffolk.gov.uk/BirthsMarriagesAndDeaths/SuffolkRegistrationOffices/
Suffolk Coastal District Council - Register Office,Town Hall,Felixstowe,,,IP11 2AG,http://www.suffolk.gov.uk/BirthsMarriagesAndDeaths/SuffolkRegistrationOffices/
Sunderland City Council - Register Office,Civic Centre,Sunderland,,,SR2 7DN,http://www.sunderland.gov.uk/index.aspx?articleid=2487
Sunderland City Council - Register Office,Welfare Road,Hetton-le-Hole,Houghton-le-Spring,Tyne and Wear,DH5 9NE,http://www.sunderland.gov.uk/index.aspx?articleid=2487
Sunderland City Council - Register Office,74 Newbottle Street,Newbottle,Houghton-le-Spring,Tyne and Wear,DH4 4AF,http://www.sunderland.gov.uk/index.aspx?articleid=2487
Sunderland City Council - Register Office,Independence Square,Washington Centre,Washington,Tyne and Wear,NE38 7RZ,http://www.sunderland.gov.uk/index.aspx?articleid=2487
Surrey County Council - Register Office,Guildford Registration Office,Artington House,42 Portsmouth Road,Guildford,GU2 4DZ,http://www.surreycc.gov.uk/sccwebsite/sccwspages.nsf/LookupWebPagesByTITLE_RTF/District+register+offices?opendocument
Surrey County Council - Register Office,Leatherhead Register Office,The Mansion,70 Church Street,Leatherhead,KT22 8DP,http://www.surreycc.gov.uk/sccwebsite/sccwspages.nsf/LookupWebPagesByTITLE_RTF/District+register+offices?opendocument
Surrey County Council - Register Office,Weybridge Register Office,Rylston,81 Oatlands Drive,Weybridge,KT13 9LN,http://www.surreycc.gov.uk/people-and-community/birth-death-marriage-and-civil-partnerships/district-register-offices/weybridge-register-office
Surrey County Council - Register Office,Reigate Library,Bancroft Road,Reigate,Surrey,RH2 7RP,http://www.surreycc.gov.uk/sccwebsite/sccwspages.nsf/LookupWebPagesByTITLE_RTF/Registrars+offices?opendocument
Surrey County Council - Register Office,Stafford Road Library,Stafford Road,Caterham,Surrey,CR3 6JG,http://www.surreycc.gov.uk/sccwebsite/sccwspages.nsf/LookupWebPagesByTITLE_RTF/Registrars+offices?opendocument
Surrey County Council - Register Office,Farnham Library,Vernon House,28 West Street,Farnham,GU9 7DR,http://www.surreycc.gov.uk/sccwebsite/sccwspages.nsf/LookupWebPagesByTITLE_RTF/Registrars+offices?opendocument
Surrey County Council - Register Office,Frinley Register Office,The Absolute Building,Lyon Way,Frimley,GU16 7ER,http://www.surreycc.gov.uk/sccwebsite/sccwspages.nsf/LookupWebPagesByTITLE_RTF/Registrars+offices?opendocument
Surrey County Council - Register Office,Haslemere Hospital,Church Lane,Haslemere,Surrey,GU27 2BJ,http://www.surreycc.gov.uk/sccwebsite/sccwspages.nsf/LookupWebPagesByTITLE_RTF/Registrars+offices?opendocument
Surrey Heath Borough Council - Register Office,Frinley Register Office,The Absolute Building,Lyon Way,Frimley,GU16 7ER,http://www.surreyheath.gov.uk/services/list.htm?mode=8&pk_services=332
London Borough of Sutton - Register Office,Russettings,25 Worcester Road,Sutton,,SM2 6PR,http://www.sutton.gov.uk/index.aspx?articleid=3555
Kent County Council - Sittingbourne Register Office &#40;Marriages&#41;,Milton Place,Avenue of Remembrance,Sittingbourne,,ME10 4DE,http://www.akentishceremony.com/kcc-register-offices/
Swindon Borough Council - Register Office,Civic Offices,Euclid Street,Swindon,,SN1 2JH,http://www.swindon.gov.uk/cm/cm-registrationservices/Pages/cm-registrationservices-contact.aspx
Tameside Metropolitan Borough Council - Register Office,Dukinfield Town Hall,King Street,Dukinfield,,SK16 4LA,http://www.tameside.gov.uk/registrars
Tamworth Borough Council - Register Office,Tamworth Registration Office,Church Street,Tamworth,,B79 7BX,http://www.staffordshire.gov.uk/community/lifeevents/offices/offices.aspx
Tandridge District Council - Register Office,Stafford Road Library,Stafford Road,Caterham,Surrey,CR3 6JG,http://www.surreycc.gov.uk/sccwebsite/sccwspages.nsf/LookupWebPagesByTITLE_RTF/Registrars+offices?opendocument
Taunton Deane Borough Council - Register Office,Somerset Register Office (Taunton),The Old Municipal Buildings,Corporation Street,Taunton,TA1 4AQ,http://www.somerset.gov.uk/irj/public/services/directory/location?rid=/wpccontent/Sites/SCC/Web%20Pages/Services/Locations/Somerset%20Register%20Office%20(Taunton)
Taunton Deane Borough Council - Register Office,Wellington Registration Office,Somerset Skills and Learning,Corams Lane,Wellington,TA21 8LL,http://www.somerset.gov.uk/irj/public/services/directory/location?rid=/wpccontent/Sites/SCC/Web%20Pages/Services/Locations/Wellington%20Registration%20Office
Teignbridge District Council - Register Office,Olde Forde House,Brunel Road,Newton Abbot,,TQ12 4XX,http://www.devon.gov.uk/index/councildemocracy/people/marriages/devons-register-offices.htm
Telford & Wrekin Council - Register Office,The Beeches,29 Vineyard Road,Wellington,Telford,TF1 1HB,http://www.telford.gov.uk/info/200032/deaths_funerals_and_cremations/930/telford_and_wrekin_register_office
Tendring District Council - Register Office,Clacton Registration Office,The Bungalow (opp Railway Station),Clacton on Sea,,CO15 6BP,http://www.essex.gov.uk/Births%20Ceremonies%20Deaths/Births/Pages/Registration-Contacts.aspx
Tendring District Council - Register Office,Parish Town Offices,Parish Hall,Victoria Place,Brightlingsea,CO7 0BP,http://www.essex.gov.uk/Births%20Ceremonies%20Deaths/Births/Pages/Registration-Contacts.aspx
Tendring District Council - Register Office,Fryatt Hospital,419 Main Road,Dovercourt,Harwich,CO12 4EX,http://www.essex.gov.uk/Births%20Ceremonies%20Deaths/Births/Pages/Registration-Contacts.aspx
Hampshire County Council - Register Office,Andover Registration Office,Wessex Chambers,South Street,Andover,SP10 2BN,http://www3.hants.gov.uk/registration/registration-contact.htm
Hampshire County Council - Register Office,Romsey Registration Office,Hayter House,Hayter Gardens,Romsey,SO51 7QU,http://www3.hants.gov.uk/registration/registration-contact.htm
Tewkesbury Borough Council - Register Office,Cheltenham Office,St Georges Road,Cheltenham,Glos,GL50 3EW,http://www.gloucestershire.gov.uk/index.cfm?articleid=7879&contactid=7840
Kent County Council - Ramsgate Register Office &#40;Marriages&#41;,Aberdeen House,68 Ellington Road,Ramsgate,,CT11 9ST,http://www.akentishceremony.com/kcc-register-offices/
Three Rivers District Council - Register Office,36 Clarendon Road,Watford,Hertfordshire,,WD17 1JQ,http://www.threerivers.gov.uk/Default.aspx/Web/LifeEvents
Thurrock Council - Register Office,Thameside Complex (Cromwell Road Entrance),Orsett Road,Grays,Essex,RM17 5DX,http://www.thurrock.gov.uk/legal/register/
Kent County Council - Tonbridge Library &#40;Births and Deaths&#41;,1 Avebury Avenue,Tonbridge,,,TN9 1TG,http://webapps.kent.gov.uk/KCC.Libraries.Web.Sites.Public/LibraryDetails.aspx?aid 0&lid 89&uprn 100062593959
Torbay Register Office,1st Floor ,Cockington Court,Cockington,Torquay,TQ2 6XA,http://www.torbay.gov.uk/registeroffice
London Borough of Tower Hamlets - Register Office,Bromley Public Hall,Bow Road,London,,E3 3AA,http://www.towerhamlets.gov.uk/lgnl/community_and_living/births
Trafford Metropolitan Borough Council - Register Office,Trafford Register Office,Sale Town Hall,Sale Waterside,Sale,M33 7ZF,http://www.trafford.gov.uk/communityandliving/registrars/
Kent County Council - Tunbridge Wells Register Office &#40;Marriages&#41;,The Mansion House,Grove Hill Road,Tunbridge Wells,,TN1 1EP,http://www.akentishceremony.com/kcc-register-offices/
Tunbridge Wells Borough Council - Register Office,The Tunbridge Wells Gateway,8 Grosvenor Road,Tunbridge Wells,,TN21 2AB,http://www.kent.gov.uk/community_and_living/births
Uttlesford District Council - Register Office,Council Offices,London Road,Saffron Walden,,CB11 4ER,http://www.essex.gov.uk/Births%20Ceremonies%20Deaths/Births/Pages/Registration-Contacts.aspx
Uttlesford District Council - Register Office,Dunmow Registration Office,47 Stortford Road,Dunmow,,CM6 1DG,http://www.essex.gov.uk/Births%20Ceremonies%20Deaths/Births/Pages/Registration-Contacts.aspx
Uttlesford District Council - Register Office,Branch Library,Crafton Green,Chapel Hill,Stansted,CM24 8AQ,http://www.essex.gov.uk/Births%20Ceremonies%20Deaths/Births/Pages/Registration-Contacts.aspx
Vale of White Horse District Council - Register Office,Abingdon Register Office,Roysse Court,Bridge Street,Abingdon,OX14 3HU,http://www.oxfordshire.gov.uk/wps/portal/publicsite/councilservices?WCM_GLOBAL_CONTEXT=http://apps.oxfordshire.gov.uk/wps/wcm/connect/occ/Internet%2FCouncil+services%2FCommunity+and+living%2FBirths+deaths+and+marriages%2FCL+-+BDM+-+Register+Offices
Wakefield Metropolitan District Council - Register Office,Pontefract Registration Office,Town Hall,Pontefract,,WF8 1PG,http://www.wakefield.gov.uk/CommunityAndLiving/Registrars/contact_pontefract.htm
Wakefield Metropolitan District Council - Register Office,Wakefield Town Hall,Wood Street,Wakefield,,WF1 2HQ,http://www.wakefield.gov.uk/residents/community-and-housing/births-marriages-deaths
Walsall Metropolitan Borough Council - Register Office,Walsall Council,Civic Centre,Hatherton Road,Walsall,WS1 1TN,http://www.walsall.gov.uk/index/community_and_living/death_and_bereavement/registration_of_deaths.htm
London Borough of Waltham Forest - Register Office,106 Grove Road,Walthamstow,,,E17 9BY,http://www.walthamforest.gov.uk/index/community/register-office/contact-registrar.htm
London Borough of Wandsworth - Register Office,Town Hall,High Street,Wandsworth,,SW18 2PU,http://www.wandsworth.gov.uk/a_to_z/service/452/register_office
Warrington Borough Council - Register Office,Museum Street,Warrington,,,WA1 1JX,http://www.warrington.gov.uk/home/residents/births_deaths_and_marriages/
Warwick District Council - Register Office,Leamington Spa Registration Office,Riverside House,Milverton Hill,Leamington Spa,CV32 5HZ,http://www.warwickshire.gov.uk/leamingtonro
Warwick District Council - Register Office,Warwick Registration Office,Shire Hall,Warwick,,CV34 4RR,http://www.warwickshire.gov.uk/warwickro
Warwickshire County Council - Register Office,Atherstone Registration Office,North Warwickshire Borough Council,South Street,Atherstone,CV9 1DE,http://www.warwickshire.gov.uk/atherstonero
Warwickshire County Council - Register Office,Bedworth Registration Office,Kings House,King Street,Bedworth,CV12 8LL,http://www.warwickshire.gov.uk/bedworthro
Warwickshire County Council - Register Office,Leamington Spa Registration Office,Riverside House,Milverton Hill,Leamington Spa,CV32 5HZ,http://www.warwickshire.gov.uk/leamingtonro
Warwickshire County Council - Register Office,Nuneaton Registration Office,Riversley Park,Coton Road,Nuneaton,CV11 5HA,http://www.warwickshire.gov.uk/nuneatonro
Warwickshire County Council - Register Office,Rugby Registration Office,5 Bloxam Place,Rugby,,CV21 3DS,http://www.warwickshire.gov.uk/rugbyro
Warwickshire County Council - Register Office,Stratford upon Avon Registration Office,Winton House,Church Street,Stratford upon Avon,CV37 6HB,http://www.warwickshire.gov.uk/stratfordro
Warwickshire County Council - Register Office,Warwick Registration Office,Shire Hall,Warwick,,CV34 4RR,http://www.warwickshire.gov.uk/warwickro
Watford Borough Council - Register Office,Watford Registration Office,31 Hempstead Road,Watford,Hertfordshire,WD17 3EY,http://www.hertsdirect.org/your-community/register/contactreg/watfordreg
Waveney District Council - Register Office,Waveney Registration Office,Gordon Road,Lowestoft,,NR32 1JQ,http://www.suffolk.gov.uk/BirthsMarriagesAndDeaths/SuffolkRegistrationOffices/
Waveney District Council - Register Office,Halesworth Library,Bridge Street,Halesworth,,IP19 8AD,http://www.suffolk.gov.uk/BirthsMarriagesAndDeaths/SuffolkRegistrationOffices/
Waverley Borough Council - Register Office,Farnham Library,Vernon House,28 West Street,Farnham,GU9 7DR,http://www.surreycc.gov.uk/sccwebsite/sccwspages.nsf/LookupWebPagesByTITLE_RTF/Registrars+offices?opendocument
Waverley Borough Council - Register Office,Haslemere Hospital,Church Lane,Haslemere,Surrey,GU27 2BJ,http://www.surreycc.gov.uk/sccwebsite/sccwspages.nsf/LookupWebPagesByTITLE_RTF/Registrars+offices?opendocument
Crowborough Registration Office,Beaconwood,Beacon Road,,Crowborough,TN6 1AR,http://www.eastsussex.gov.uk/atoz/heading785.aspx?forms &acc 1&ae 1&ah 1&al 1&ar 1&aw 1
Welwyn Hatfield Council - Register Office,Hertfordshire Registration Office - Hatfield,19b St Albans Road East,Hatfield,Hertfordshire,AL10 0NG,http://www.hertsdirect.org/your-community/register/contactreg/hatfieldreg
West Berkshire Council - Register Office,Shaw House,Church Road,Shaw,Newbury,RG14 2DR,http://www.westberks.gov.uk/index.aspx?articleid=867&contactid=4033
Bridport Registration Office,Mountfield,Rax Lane,,Bridport,DT6 3JP,http://www.dorsetforyou.com/374462
Dorset Register Office,Dorset History Centre,Bridport Road,,Dorchester,DT1 1RP,http://www.dorsetforyou.com/374526
Sherborne Registration Office,Manor House,Newland,,Sherborne,DT9 3JL,http://www.dorsetforyou.com/374565
West Lancashire Borough Council - Register Office,Derby Street,Ormskirk,,,L39 2WS,http://www.lancashire.gov.uk/acs/sites/registration/offices/?town=Ormskirk
West Lindsey District Council - Register Office,Caistor Registration Office,Southdale,Area Council Offices,Caistor,LN7 6LX,http://www.lincolnshire.gov.uk/residents/births-marriages-deaths-and-civil-partnerships/registration-offices/bourne-registration-office/28778.article?tab=contacts
West Lindsey District Council - Register Office,Gainsborough Registration Office,Richmond House,Morton Terrace,Gainsborough,DN21 2RJ,http://www.lincolnshire.gov.uk/residents/births-marriages-deaths-and-civil-partnerships/registration-offices/gainsborough-registration-office/28760.article?tab=contacts
West Oxfordshire District Council - Register Office,Witney Register Office,Council Offices,Woodgreen,Witney,OX28 1NB,http://www.oxfordshire.gov.uk/wps/portal/publicsite/councilservices?WCM_GLOBAL_CONTEXT=http://apps.oxfordshire.gov.uk/wps/wcm/connect/occ/Internet%2FCouncil+services%2FCommunity+and+living%2FBirths+deaths+and+marriages%2FCL+-+BDM+-+Register+Offices
West Somerset Council - Register Office,Minehead Registration Office,1 Parkhouse Road,Minehead,,TA24 8AA,http://www.somerset.gov.uk/irj/public/services/directory/location?rid=/wpccontent/Sites/SCC/Web%20Pages/Services/Locations/Minehead%20Registration%20Office
West Somerset Council - Register Office,Williton Registration Office,2 Long Street,Williton,,TA4 4QN,http://www.somerset.gov.uk/irj/public/services/directory/location?rid=/wpccontent/Sites/SCC/Web%20Pages/Services/Locations/Williton%20Registration%20Office
West Sussex County Council - Registration Office,Record Office,3 Orchard Street,Chichester,,PO19 1DD,http://www.westsussex.gov.uk/living/births_marriages_and_deaths/registration_offices.aspx
West Sussex County Council - Registration Office,Durban House,South Bersted Business Park,Durban Road,Bognor Regis,PO22 9RE,http://www.westsussex.gov.uk/living/births_marriages_and_deaths/registration_offices.aspx
Midhurst Registration Office ,The Grange,Bepton Road ,Midhurst,,GU29 9HD,http://www.westsussex.gov.uk/living/births_marriages_and_deaths/registration_offices.aspx
West Sussex County Council - Register Office,West Sussex County Council,Southgate Avenue,Crawley,,RH10 6HG,http://www.westsussex.gov.uk/living/births_marriages_and_deaths/registration_offices.aspx
West Sussex County Council - Registration Office,County Library,West Street,East Grinstead,,RH19 4EY,http://www.westsussex.gov.uk/living/births_marriages_and_deaths/registration_offices.aspx
Haywards Heath Registration Office,Haywards Heath Library,34 Boltro Road,Haywards Heath,,RH16 1BN,http://www.westsussex.gov.uk/living/births_marriages_and_deaths/registration_offices.aspx
West Sussex County Council - Registration Office,96 Church Walk,Burgess Hill,,,RH15 9AS,http://www.westsussex.gov.uk/living/births_marriages_and_deaths/registration_offices.aspx
West Sussex County Council - Registration Office,Park House,North Street,Horsham,,RH12 9SB,http://www.westsussex.gov.uk/living/births_marriages_and_deaths/registration_offices.aspx
West Sussex County Council - Registration Office,Storrington Library,Ryecroft Lane,Storrington,,RH20 4PA,http://www.westsussex.gov.uk/living/births_marriages_and_deaths/registration_offices.aspx
West Sussex County Council - Registration Office,Portland House,Richmond Road,Worthing,,BN11 1HH,http://www.westsussex.gov.uk/living/births_marriages_and_deaths/registration_offices.aspx
Littlehampton Registration Office,Arun Civic Centre,Maltravers Road,Littlehampton,,BN17 5LF,http://www.westsussex.gov.uk/living/births_marriages_and_deaths/registration_offices.aspx
West Sussex County Council - Registration Office,Pond Road,Shoreham-by-Sea,,,BN43 5US,http://www.westsussex.gov.uk/living/births_marriages_and_deaths/registration_offices.aspx
London Borough of Westminster - Register Office,Westminster City Hall,64 Victoria Street,,London,SW1E 6QP,https://www.westminster.gov.uk/contact-westminster-register-office
Weymouth Registration Office,The Adult Learning Centre,45 Dorchester Road,,Weymouth,DT4 7JT,http://www.dorsetforyou.com/374602
Wigan and Leigh Register Office,Council Life Centre &#40;North&#41;,2nd Floor,The Wiend,Wigan,WN1 1NH,http://www.wigan.gov.uk/Resident/Births-Marriage-Deaths/Marriages-and-Civil-Partnerships/Giving-notice.aspx
Hampshire County Council - Register Office,Winchester Registration Office,Castle Hil,High Street,Winchester,SO23 8UH,http://www3.hants.gov.uk/ro-winchester
Royal Borough of Windsor and Maidenhead - Register Office,,Town Hall,St Ives Road,Maidenhead,SL6 1RF,http://www.rbwm.gov.uk/web/registrars_copy_certificates.htm
Wirral Council - Register Office,Town Hall,Mortimer Street,Birkenhead,,CH41 5EU,http://www.wirral.gov.uk/my-services/find-us/council-offices/wirral-register-office
Woking Borough Council - Register Office,Weybridge Register Office,Rylston,81 Oatlands Drive,Weybridge,KT13 9LN,http://www.surreycc.gov.uk/people-and-community/birth-death-marriage-and-civil-partnerships/district-register-offices/weybridge-register-office
Wokingham Borough Council - Register Office,Civic Offices,Shute End,Wokingham,Berkshire,RG40 1WH,http://wokingham.gov.uk/communities/births-deaths-and-marriages/?locale en
Wolverhampton City Council - Register Office,Wolverhampton City Council,Civic Centre,St Peters Square,Wolverhampton,WV1 1RU,http://www.wolverhampton.gov.uk/community_living/life_events/opening_times.htm
Worcester City Council - Register Office,Worcester Register Office,County Hall,Spetchley Road,Worcester,WR5 2NP,http://www.worcestershire.gov.uk/cms/community-and-living/registration-services.aspx
Worcester City Council - Register Office,Worcestershire Royal Hospital,Meadow Level,Charles Hastings Way,Worcester,WR5 1DD,http://www.worcestershire.gov.uk/cms/community-and-living/registration-services.aspx
Kent County Council - Coldharbour Library &#40;Births and Deaths&#41;,Coldharbour Road,Northfleet,Gravesend,,DA11 8AE,http://webapps.kent.gov.uk/KCC.Libraries.Web.Sites.Public/LibraryDetails.aspx?aid 0&lid 42&uprn 100062310918
Worcestershire County Council - Register Office,Droitwich Register Office,Droitwich Contact Centre,44 High Street,Droitwich Spa,WR9 8ES,http://www.worcestershire.gov.uk/cms/community-and-living/registration-services.aspx
Worcestershire County Council - Register Office,Evesham Register Office,Oat Street,Evesham,Worcestershire,WR11 4PJ,http://www.worcestershire.gov.uk/cms/community-and-living/registration-services.aspx
Worcestershire County Council - Register Office,Kidderminster Registration Office,Council Offices,Bewdley Road,Kidderminster,DY11 6RL,http://www.worcestershire.gov.uk/cms/community-and-living/registration-services.aspx
Worcestershire County Council - Register Office,Malvern Register Office,The Library/Contact Centre,Graham Road,Malvern,WR14 2HU,http://www.worcestershire.gov.uk/cms/community-and-living/registration-services.aspx
Worcestershire County Council - Register Office,Wychavon Council Offices,Queen Elizabeth Drive,Station Road,Pershore,WR10 1PT,http://www.worcestershire.gov.uk/cms/community-and-living/registration-services.aspx
Kent County Council - Faversham Library &#40;Births and Deaths&#41;,Newton Road,Faversham,,,ME13 8DY,http://webapps.kent.gov.uk/KCC.Libraries.Web.Sites.Public/LibraryDetails.aspx?aid 0&lid 76&pcd ME13%208DY
Worcestershire County Council - Register Office,Tenbury Register Office,Library Contact Centre,24 Teme Street,Tenbury Wells,WR15 8AA,http://www.worcestershire.gov.uk/cms/community-and-living/registration-services.aspx
Worcestershire County Council - Register Office,Worcester Register Office,County Hall,Spetchley Road,Worcester,WR5 2NP,http://www.worcestershire.gov.uk/cms/community-and-living/registration-services.aspx
Worcestershire County Council - Register Office,Worcestershire Royal Hospital,Meadow Level,Charles Hastings Way,Worcester,WR5 1DD,http://www.worcestershire.gov.uk/cms/community-and-living/registration-services.aspx
Wychavon District Council - Register Office,Droitwich Register Office,Droitwich Contact Centre,44 High Street,Droitwich Spa,WR9 8ES,http://www.worcestershire.gov.uk/cms/community-and-living/registration-services.aspx
Wychavon District Council - Register Office,Evesham Register Office,Oat Street,Evesham,Worcestershire,WR11 4PJ,http://www.worcestershire.gov.uk/cms/community-and-living/registration-services.aspx
Wychavon District Council - Register Office,Wychavon Council Offices,Queen Elizabeth Drive,Station Road,Pershore,WR10 1PT,http://www.worcestershire.gov.uk/cms/community-and-living/registration-services.aspx
Wyre Borough Council - Register Office,New Central Library,North Albert Street,Fleetwood,,FY7 6AJ,http://www.lancashire.gov.uk/acs/sites/registration/offices/?town=Fleetwood
Wyre Forest District Council - Register Office,Kidderminstar Registration Office,Council Offices,Bewdley Road,Kidderminster,DY11 6RL,http://www.worcestershire.gov.uk/cms/community-and-living/registration-services.aspx
City of York Council - Register Office,56 Bootham,York,,,YO30 7DA,http://www.york.gov.uk/council/offices/buildings/York_Register_Office/
Aberdeenshire Council - Register Office,Aboyne Registration Office,Council Offices,Bellwood Road,Aboyne,AB34 5HQ,http://www.aberdeenshire.gov.uk/registrars/offices/aboyne.asp
Aberdeenshire Council - Register Office,Alford Registration Office,Council Office,School Road,Alford,AB33 8PY,http://www.aberdeenshire.gov.uk/registrars/offices/alford.asp
Aberdeenshire Council - Register Office,Ballater Registration Office (home based),An Creagan,5 Queens Road,Ballater,AB35 5NJ,http://www.aberdeenshire.gov.uk/registrars/offices/ballater.asp
Aberdeenshire Council - Register Office,Banchory Registration Office,The Square,High Street,Banchory,AB31 5RW,http://www.aberdeenshire.gov.uk/registrars/offices/banchory.asp
Aberdeenshire Council - Register Office,Banff Registration Office,Seafield House,37 Castle Street,Banff,AB45 1FQ,http://www.aberdeenshire.gov.uk/registrars/offices/banff.asp
Aberdeenshire Council - Register Office,Ellon Registration Office,Area Offices,29 Bridge Street,Ellon,AB41 9AA,http://www.aberdeenshire.gov.uk/registrars/offices/ellon.asp
Aberdeenshire Council - Register Office,Fraserburgh Registration Office,14 Saltoun Square,Fraserburgh,,AB43 9DA,http://www.aberdeenshire.gov.uk/registrars/offices/fraserburgh.asp
Aberdeenshire Council - Register Office,Huntly Registration Office,25 Gordon Street,Huntly,,AB54 8AN,http://www.aberdeenshire.gov.uk/registrars/offices/huntly.asp
Aberdeenshire Council - Register Office,Insch Registration Office (Home based),Marbert,George Street,Insch,AB52 6JL,http://www.aberdeenshire.gov.uk/registrars/offices/insch.asp
Aberdeenshire Council - Register Office,Inverurie Registration Office,Gordon House,Blackhall Road,Inverurie,AB51 3WA,http://www.aberdeenshire.gov.uk/registrars/offices/inverurie.asp
Aberdeenshire Council - Register Office,Maud Registration Office,Council Ofices,Nethermuir Road,Maud,AB42 4ND,http://www.aberdeenshire.gov.uk/registrars/offices/maud.asp
Aberdeenshire Council - Register Office,Peterhead Registration Office,Arbuthnot House,Broad Street,Peterhead,AB42 1DA,http://www.aberdeenshire.gov.uk/registrars/offices/peterhead.asp
Aberdeenshire Council - Register Office,Stonehaven and East Kincardine,Viewmount,Arduthie Road,Stonehaven,AB39 2DQ,http://www.aberdeenshire.gov.uk/registrars/offices/stonehaven.asp
Aberdeenshire Council - Register Office,Turriff Registration Office,Towie House,Manse Road,Turriff,AB53 4AY,http://www.aberdeenshire.gov.uk/registrars/offices/turriff.asp
Aberdeen City Council - Register Office,Resources Management,Upperkirkgate,Aberdeen,,AB10 1BA,http://www.aberdeencity.gov.uk/Births/bir/bir_registering_births_and_deaths.asp
Aberdeen City Council - Register Office,Bucksburn Area Office,23 Inverurie Road,Bucksburn,Aberdeen,AB21 9LJ,http://www.aberdeencity.gov.uk/Births/bir/bir_registering_births_and_deaths.asp
Aberdeen City Council - Register Office,Peterculter Area Office,102 North Deeside Road,Peterculter,Aberdeen,AB14 0QB,http://www.aberdeencity.gov.uk/Births/bir/bir_registering_births_and_deaths.asp
Isle of Anglesey County Council - Register Office,Shire Hall,Llangefni,Anglesey,,LL77 7TW,http://www.anglesey.gov.uk/doc.asp?catid=1702
Isle of Anglesey County Council - Register Office,Holyhead Registration Office,Trearddur Square,Holyhead,,LL65 1NB,http://www.anglesey.gov.uk/doc.asp?catid=1702
Angus Council - Register Office,Arbroath Register Office,69 High Street,Arbroath,,DD11 1AN,http://www.angus.gov.uk/services/view_service_detail.cfm?serviceid=1104#a20
Angus Council - Register Office,Forfar Registar Office,9 West High Street,Forfar,,DD8 1BD,http://www.angus.gov.uk/services/view_service_detail.cfm?serviceid=1104#a20
Angus Council - Register Office,Montrose Register Office,51 John Street,Montrose,,DD10 8LZ,http://www.angus.gov.uk/services/view_service_detail.cfm?serviceid=1104#a20
Argyll and Bute Council - Register Office,Cambeltown Register Office,Burnet Building,St John Street,Campbeltown,PA28 6BJ,http://www.argyll-bute.gov.uk/births-deaths-and-marriages/registration-offices-contact-information
Argyll and Bute Council - Register Office,Colonsay and Oronsay Register Office,Colonsay Servicepoint,Colonsay,,PA61 7YW,http://www.argyll-bute.gov.uk/births-deaths-and-marriages/registration-offices-contact-information
Argyll and Bute Council - Register Office,Dunoon Register Office,22 Hill Street ,Dunoon,,PA23 7AP,http://www.argyll-bute.gov.uk/births-deaths-and-marriages/registration-offices-contact-information
Argyll and Bute Council - Register Office,Helensburgh Register Office,Scotcourt House,45 West Princes Street,Helensburgh,G84 8BP,http://www.argyll-bute.gov.uk/births-deaths-and-marriages/registration-offices-contact-information
Argyll and Bute Council - Register Office,Islay Service Point,Jamieson Street,Bowmore,Islay,PA43 7HP,http://www.argyll-bute.gov.uk/births-deaths-and-marriages/registration-offices-contact-information
Argyll and Bute Council - Register Office,Eaglesham House,Mountpleasant Road,Rothesay,Isle of Bute,PA20 9HQ,http://www.argyll-bute.gov.uk/births-deaths-and-marriages/registration-offices-contact-information
Argyll and Bute Council - Register Office,Lochgilphead Register Office,Dalriada House,Lochnell Street,Lochgilphead,PA31 8ST,http://www.argyll-bute.gov.uk/births-deaths-and-marriages/registration-offices-contact-information
Argyll and Bute Council - Register Office,Oban Register Office,Municipal Building,Albany Street,Oban,PA34 4AW,http://www.argyll-bute.gov.uk/births-deaths-and-marriages/registration-offices-contact-information
Argyll and Bute Council - Register Office,Council Buildings,Breadalbane Street,Tobermory,Isle of Mull,PA75 6PX,http://www.argyll-bute.gov.uk/births-deaths-and-marriages/registration-offices-contact-information
Argyll and Bute Council - Register Office,Tiree Register Office,Area Office,Crossapol,Isle of Tiree,PA77 6UP,http://www.argyll-bute.gov.uk/births-deaths-and-marriages/registration-offices-contact-information
Barrow-In-Furness and Millom Registration Offices,Nan Tait Centre,Abbey Road,Barrow In Furness,,LA14 1LG,http://www.cumbria.gov.uk/registrationservice/local_register_offices/barrow.asp
Bridgend County Borough Council - Register Office,Ty'r Ardd,Sunnyside,Bridgend,,CF31 4AR,http://www.bridgend.gov.uk/web/groups/public/documents/services/000856.hcsp#TopOfPage
Bridgend County Borough Council - Register Office,Trinity Church,Saint Johns Drive,Porthcawl,The Vale of Glamorgan,CF36 3DT,http://www.bridgend.gov.uk/web/groups/public/documents/services/057620.hcsp#TopOfPage
Bridgend County Borough Council - Register Office,Maesteg College,Castle Street,Maesteg,Mid Glamorgan,CF34 9UN,http://www.bridgend.gov.uk/web/groups/public/documents/services/057620.hcsp#TopOfPage
Bridgend County Borough Council - Register Office,Helig Fan,Kenfig Hill,Bridgend,Mid Glamorgan,CF33 6BS,http://www.bridgend.gov.uk/web/groups/public/documents/services/057620.hcsp#TopOfPage
Bury Metropolitan Borough Council - Register Office,Town Hall,Knowsley Street,Bury,Lancashire,BL9 0SW,http://www.bury.gov.uk/index.aspx?articleid=5670&findusID=453&ArticleReferenceId=2096
Caerphilly County Borough Council - Register Office,Penallta House,Tredomen Park,Ystrad Mynach,Hengoed,CF82 7PG,http://www.caerphilly.gov.uk/site.aspx?s=qeg7eDFodEZ9vSN73LCGo0F81p5PvADCtXwmeFtoxQQ=
Cardiff Council - Register Office,City Hall (North West Entrance),Cathays Park,Cardiff,,CF10 3ND,http://www.cardiff.gov.uk/content.asp?nav=2867
Carmarthenshire County Council - Register Office,Carmarthen Register Office,Parc Myrddin,Richmond Terrace,Carmarthen,SA31 1HQ,http://www.carmarthenshire.gov.uk/english/living/registrars/pages/registrar.aspx
Carmarthenshire County Council - Register Office,Llanelli Registration Office,2 Coleshill Terrace,Llanelli,,SA15 3DB,http://www.carmarthenshire.gov.uk/english/living/registrars/pages/registrar.aspx
Carmarthenshire County Council - Register Office,Ammanford Register Office,3b Wind Street,Ammanford,Dyfed,SA18 3DN,http://www.carmarthenshire.gov.uk/english/living/registrars/pages/registrar.aspx
Ceredigion County Council - Register Office,canolfan Rheidol,Rhodfa Padarn,Llanbadarn Fawr,Aberystwyth,SY23 3UE,http://www.ceredigion.gov.uk/index.cfm?articleid=11779
Ceredigion County Council - Register Office,,21 High Street,Lampeter,Ceredigion,SA48 7BG,http://www.ceredigion.gov.uk/index.cfm?articleid=11780
Ceredigion County Council - Register Office,Glyncoed Chambers,Priory Street,Cardigan,Ceredigion,SA43 1BX,http://www.ceredigion.gov.uk/index.cfm?articleid=11781
Clackmannanshire Council - Register Office,Marshill House,Marshill,Alloa,,FK10 1AB,http://www.clacksweb.org.uk/regulation/registration/
Conwy County Borough Council - Register Office,Town Hall,Lloyd Street,Llandudno,,LL30 2UP,http://www.conwy.gov.uk/doc.asp?cat=4656&doc=19535
Denbighshire County Council - Register Office,Denbighshire South Register Office,Ruthin Town Hall,Wynnstay Road,Ruthin,LL15 1YN,http://www.denbighshire.gov.uk/en-gb/DNAP-74ZLST
Denbighshire County Council - Register Office,Denbigh Office,Eirianfa,Factory Place,Denbigh,LL16 3TS,http://www.denbighshire.gov.uk/en-gb/DNAP-74ZLST
Denbighshire County Council - Register Office,Llangollen Office,Capel Library,Castle Street,Llangollen,LL20 8NU,http://www.denbighshire.gov.uk/en-gb/DNAP-74ZLST
Dudley Metropolitan Borough Council - Register Office,Dudley Council Plus,259 Castle Street,Dudley,West Midlands,DY1 1LQ,http://www.dudley.gov.uk/community-and-living/registration-service/contact-us-and-publications
Dudley Metropolitan Borough Council - Register Office,Crown Lane,Crown Centre,Stourbridge,West Midlands,DY8 1YA,http://www.dudley.gov.uk/community-and-living/registration-service/contact-us-and-publications
Dudley Metropolitan Borough Council - Register Office,Priory Hall,Priory Park,Priory Road,Dudley,DY1 4EU,http://www.dudley.gov.uk/community-and-living/registration-service/contact-us-and-publications
Dumfries and Galloway Council - Register Offices,Annan Registration Office,15 Ednam Street,Annan,,DG12 6EF,http://www.dumgal.gov.uk/index.aspx?articleid=3671
Dumfries and Galloway Council - Register Offices,Creetown Registration Office,The Bogue,Creetown,,DG8 7JW,http://www.dumgal.gov.uk/index.aspx?articleid=3671
Dumfries and Galloway Council - Register Offices,Dalry/Castle Douglas Registration Office,4 Market Street,Castle Douglas,,DG7 1BE,http://www.dumgal.gov.uk/index.aspx?articleid=3671
Dumfries and Galloway Council - Register Offices,Gatehouse of Fleet/Kirkcudbright Registration Office,Daar Road,Kirkcudbright,,DG6 4JG,http://www.dumgal.gov.uk/index.aspx?articleid=3671
Dumfries and Galloway Council - Register Offices,Kirkconnel Registration Office,Mill Hill Centre,Corserig Crescent,Kelloholm,DG4 6EL,http://www.dumgal.gov.uk/index.aspx?articleid=3671
Dumfries and Galloway Council - Register Offices,Langholm Registration Office,Market Place,Langholm,,DG13 0JQ,http://www.dumgal.gov.uk/index.aspx?articleid=3671
Dumfries and Galloway Council - Register Offices,Moffat Registration Office,High Street,Moffat,,DG10 9HF,http://www.dumgal.gov.uk/index.aspx?articleid=3671
Dumfries and Galloway Council - Register Offices,Port William Registration Office,The Library,Church Street,Port William,DG8 9QJ,http://www.dumgal.gov.uk/index.aspx?articleid=3671
Dumfries and Galloway Council - Register Offices,Stranraer Registration Office,Sun Street,Stranraer,,DG9 7JJ,http://www.dumgal.gov.uk/index.aspx?articleid=3671
Dumfries and Galloway Council - Register Offices,Whithorn Registration Office,75 George Street,Whithorn,,DG8 8NU,http://www.dumgal.gov.uk/index.aspx?articleid=3671
Dumfries and Galloway Council - Register Offices,Dalbeattie Registration Office,Town Hall Buildings,High Street,Dalbeattie,DG5 4AD,http://www.dumgal.gov.uk/index.aspx?articleid=3671
Dumfries and Galloway Council - Register Offices,Dumfries Registration Office,Buccleuch,Dumfries,,DG1 2AD,http://www.dumgal.gov.uk/index.aspx?articleid=3671
Dumfries and Galloway Council - Register Offices,Gretna Registration Office,Central Avenue,Gretna,,DG16 5AQ,http://www.dumgal.gov.uk/index.aspx?articleid=3671
Dumfries and Galloway Council - Register Offices,Lockerbie Registration Office,High Street,Lockerbie,,DG11 2ES,http://www.dumgal.gov.uk/index.aspx?articleid=3671
Dumfries and Galloway Council - Register Offices,Newton Stewart Registration Office,Dashwood Square,Newton Stewart,,DG8 6EQ,http://www.dumgal.gov.uk/index.aspx?articleid=3671
Dumfries and Galloway Council - Register Offices,Sanquhar Registration Office,100 High Street,Sanquhar,,DG4 6DZ,http://www.dumgal.gov.uk/index.aspx?articleid=3671
Dumfries and Galloway Council - Register Offices,Thornhill Registration Office,Manse Road,Thornhill,,DG3 5DR,http://www.dumgal.gov.uk/index.aspx?articleid=3671
Dumfries and Galloway Council - Register Offices,Wigtown Registration Office,County Buildings,Wigtown,,DG8 9JH,http://www.dumgal.gov.uk/index.aspx?articleid=3671
Dundee City Council - Register Office,89 Commercial Street,Dundee,,,DD1 2AF,http://www.dundeecity.gov.uk/supportservs/registrar/
London Borough of Ealing - Register Office,Ealing Town Hall,New Broadway,London,,W5 2BY,http://www2.ealing.gov.uk/services/community/births_deaths_marriages/contact_us/
East Ayrshire Council - Register Office,Auchinleck Registration Office,Local Council Office,28 Well Road,Auchinleck,KA18 2JZ,http://www.east-ayrshire.gov.uk/comser/viewrecord.asp?UIN=437
East Ayrshire Council - Register Office,Cumnock Registration Office,Local Council Office,14 Lugar Street,Cumnock,KA18 1AB,http://www.east-ayrshire.gov.uk/comser/viewrecord.asp?UIN=436
East Ayrshire Council - Register Office,Dalmellington Registration Office,Local Office,33 Main Street,Dalmellington,KA6 7QL,http://www.east-ayrshire.gov.uk/comser/viewrecord.asp?UIN=441
East Ayrshire Council - Register Office,Galston Registration Office,Local Office,Cross Street,Galston,KA4 8AA,http://www.east-ayrshire.gov.uk/comser/viewrecord.asp?UIN=440
East Ayrshire Council - Register Office,Kilmarnock Registration Office,Burns Monument Centre,Kay Park,Kilmarnock,KA3 7RU,http://www.east-ayrshire.gov.uk/comser/viewrecord.asp?UIN=525
East Ayrshire Council - Register Office,Mauchline Registration Office,Local Office,The Cross,Mauchline,KA5 5DA,http://www.east-ayrshire.gov.uk/comser/viewrecord.asp?UIN=438
East Ayrshire Council - Register Office,Muirkirk Registration Office,Local Council Office,44 Main Street,Muirkirk,KA18 3RD,http://www.east-ayrshire.gov.uk/comser/viewrecord.asp?UIN=443
East Ayrshire Council - Register Office,New Cumnock Registration Office,Local Council Office,17 Castle,New Cumnock,KA18 4AN,http://www.east-ayrshire.gov.uk/comser/viewrecord.asp?UIN=439
East Dunbartonshire Council - Register Office,Bearsden Registration Office,38 Roman Road,Bearsden,,G61 2SH,http://eastdunbarton.gov.uk/default.aspx?page=19761
East Dunbartonshire Council - Register Office,Bishopbriggs Registration Office,The Triangle,Kirkintilloch Road,Bishopbriggs,G64 2TR,http://eastdunbarton.gov.uk/default.aspx?page=19761
East Dunbartonshire Council - Register Office,Kirkintilloch Registration Office,21 Southbank Road,Kirkintilloch ,,G66 1NH,http://eastdunbarton.gov.uk/default.aspx?page=19761
East Lothian Council - Register Office,Dunbar Registration Office,48 High Street,Dunbar,,EH42 1JH,http://www.eastlothian.gov.uk/site/scripts/documents_info.php?documentID=555
East Lothian Council - Register Office,Haddington Registration Office,East Lothian Council Headquarters,John Muir House,Haddington,EH41 3HA,http://www.eastlothian.gov.uk/site/scripts/documents_info.php?documentID=555
East Lothian Council - Register Office,Musselburgh Registration Office,Brunton Hall,Ladywell Way,Musselburgh,EH21 6AA,http://www.eastlothian.gov.uk/site/scripts/documents_info.php?documentID=555
East Lothian Council - Register Office,North Berwick Registration Office,2 Quality Street,North Berwick,,EH39 4HW,http://www.eastlothian.gov.uk/site/scripts/documents_info.php?documentID=555
East Lothian Council - Register Office,Prestonpans Registration Office,Aldhammer House,High Street,Prestonpans,EH32 9SH,http://www.eastlothian.gov.uk/site/scripts/documents_info.php?documentID=555
East Lothian Council - Register Office,Tranent Registration Office,Sandersons Wynd,Tranent,,EH33 1DA,http://www.eastlothian.gov.uk/site/scripts/documents_info.php?documentID=555
East Renfrewshire Council - Register Office,Council Buildings,211 Main Street,Barrhead,,G78 1SY,http://www.eastrenfrewshire.gov.uk/law-and-licensing/birth-marriage-and-death.htm
East Renfrewshire Council - Register Office,Council Headquarters,Eastwood Park,Rouken Glen Road,Giffnock,G46 6UG,http://www.eastrenfrewshire.gov.uk/law-and-licensing/birth-marriage-and-death.htm
Edinburgh City Council - Register Office,Lothian Chambers,59-63 George IV Bridge,Edinburgh,,EH1 1RN,http://www.edinburgh.gov.uk/directory_record/6200/lothian_chambers_registrars_office
Edinburgh City Council - Register Office,Kirkliston Registar Office,16 Station Road (within Library),Edinburgh,,EH29 9BE,http://www.edinburgh.gov.uk/directory_record/6203/kirkliston_registars_office
Edinburgh City Council - Register Office,Leith Suite Register Office,30 Ferry Road,Edinburgh,,EH6 4AE,http://www.edinburgh.gov.uk/directory_record/6201/leith_suite_registrars_office
Edinburgh City Council - Register Office,Queensferry Register Office,53 High Street,Edinburgh,,EH30 9HP,http://www.edinburgh.gov.uk/directory_record/6202/queensferry_registrars_office
Elmbridge Borough Council - Register Office,Weybridge Register Office,Rylston,81 Oatlands Drive,Weybridge,KT13 9LN,http://www.surreycc.gov.uk/people-and-community/birth-death-marriage-and-civil-partnerships/district-register-offices/weybridge-register-office
Falkirk Council - Register Office,Bo'ness Registration Office,15A Seaview Place,Bo'ness,,EH51 0AJ,http://www.falkirk.gov.uk/services/chief_executive/governance/customer_and_development_services/registration_services/boness.aspx
Falkirk Council - Register Office,Brightons Registration Office,Redding Road,Brightons,,FK2 0AB,http://www.falkirk.gov.uk/services/chief_executive/governance/customer_and_development_services/registration_services/brightons.aspx
Falkirk Council - Register Office,Denny Registration Office,Carronbank House,Carronbank Crescent,Denny,FK6 6GA,http://www.falkirk.gov.uk/services/chief_executive/governance/customer_and_development_services/registration_services/denny.aspx
Falkirk Council - Register Office,Falkirk Registration Office,Ild Burgh Buildings,Newmarket Street,Falkirk,FK1 1JE,http://www.falkirk.gov.uk/services/chief_executive/governance/customer_and_development_services/registration_services/falkirk.aspx
Falkirk Council - Register Office,Grangemouth Registration Office,Municipal Chambers,Bo'ness Road,Grangemouth,FK3 8AH,http://www.falkirk.gov.uk/services/chief_executive/governance/customer_and_development_services/registration_services/grangemouth.aspx
Falkirk Council - Register Office,Larbert Regisgtration Office,318 Main Street,Stenhousemuir,,FK5 3BD,http://www.falkirk.gov.uk/services/chief_executive/governance/customer_and_development_services/registration_services/larbert.aspx
Fife Council - Register Offices,Methil Local Services Centre,Methil Library,Wellesley Road,Methil,KY8 3PA,http://www.fifedirect.org.uk/atoz/index.cfm?fuseaction=facility.display&facid=B1D1EBAF-CEF7-4B5A-8691E7A272EA9A5D
Fife Council - Register Offices,Cowdenbeath Local Services Centre,123 Town House,High Street,Cowdenbeath,KY4 9QB,http://www.fifefire.gov.uk/atoz/index.cfm?fuseaction=facility.display&facid=0D7FAA62-1CE0-411D-A30CC2E83CD60D03
Fife Council - Register Offices,Cupar Local Office,County Buildings,St Catherine Street,Cupar,KY15 4TA,http://www.fifefire.gov.uk/atoz/index.cfm?fuseaction=facility.display&facid=29FEF9C1-3624-4A1A-A7A461E798333DDF
Fife Council - Register Offices,Dunfermline Registration Office,City Chambers,Kirkgate,Dunfermline,KY12 7ND,http://www.fifefire.gov.uk/atoz/index.cfm?fuseaction=facility.display&facid=C64C1682-A0AD-45BA-9F998350203F7AA6
Fife Council - Register Offices,Glenrothes Local Office,Fife House,North Street,Glenrothes,KY7 5LT,http://www.fifefire.gov.uk/atoz/index.cfm?fuseaction=facility.display&facid=CED539FC-021C-45AA-A95EB9D1A2F4C95B
Fife Council - Register Offices,Inverkeithing Local Services Centre,10 Inverkeithing Local Office Civic Centre,Queen Street,Inverkeithing,KY11 1PA,http://www.fifefire.gov.uk/atoz/index.cfm?fuseaction=facility.display&facid=4CA3B12E-88E0-43C2-B48E88CC8A476498
Fife Council - Register Offices,Kirkcaldy Central Local Services Centre,2 Town House,Wemyssfield,Kirkcaldy,KY1 1XW,http://www.fifefire.gov.uk/atoz/index.cfm?fuseaction=facility.display&facid=06596AA1-B51F-42C2-8A5CAEEA9BA07A67
Fife Council - Register Offices,Leven Local Services Centre,Carberry House,Scoonie Road,Leven,KY8 4JS,http://www.fifefire.gov.uk/atoz/index.cfm?fuseaction=facility.display&facid=33D1D805-59B7-441B-AF06811C614FE4AD
Fife Council - Register Offices,St Andrews Local Office,St Andrews,,,KY16 9UY,http://www.fifefire.gov.uk/atoz/index.cfm?fuseaction=facility.display&facid=4A5621B2-E20A-4596-9215E6BF9F682815
Flintshire County Council - Register Office,Llwynegrin Hall,Mold,Flintshire,,CH7 6NR,http://www.flintshire.gov.uk/wps/portal/english/services?WCM_GLOBAL_CONTEXT=/Web+Content/Flintshire/English/Services/100003/Births+Deaths+Marriages+and+Civil+Partnerships
Flintshire County Council - Register Office,Buckley Town Hall,Mold Road,Buckley,,CH7 2JB,http://www.flintshire.gov.uk/wps/portal/english/services?WCM_GLOBAL_CONTEXT=/Web+Content/Flintshire/English/Services/100003/Births+Deaths+Marriages+and+Civil+Partnerships
Flintshire County Council - Register Office,Caergwrle Clinic,Ty Cerrig,Caergwrle,Wrexham,LL12 9LF,http://www.flintshire.gov.uk/wps/portal/english/services?WCM_GLOBAL_CONTEXT=/Web+Content/Flintshire/English/Services/100003/Births+Deaths+Marriages+and+Civil+Partnerships
Flintshire County Council - Register Office,Connah's Quay Council Offices,Civic Centre,Connah's Quay,,CH5 4HB,http://www.flintshire.gov.uk/wps/portal/english/services?WCM_GLOBAL_CONTEXT=/Web+Content/Flintshire/English/Services/100003/Births+Deaths+Marriages+and+Civil+Partnerships
Flintshire County Council - Register Office,Flint Council Offices,Chapel Street,Flintshire,,CH6 5WA,http://www.flintshire.gov.uk/wps/portal/english/services?WCM_GLOBAL_CONTEXT=/Web+Content/Flintshire/English/Services/100003/Births+Deaths+Marriages+and+Civil+Partnerships
Flintshire County Council - Register Office,Holywell Library,North Road,Holywell,Clwyd,CH8 7TQ,http://www.flintshire.gov.uk/wps/portal/english/services?WCM_GLOBAL_CONTEXT=/Web+Content/Flintshire/English/Services/100003/Births+Deaths+Marriages+and+Civil+Partnerships
Gateshead Metropolitan Borough Council - Register Office,Gateshead Council,Civic Centre,Regent Street,Gateshead,NE8 1HH,http://www.gateshead.gov.uk/People%20and%20Living/marriages/Home.aspx
Glasgow City Council - Register Office,1 Martha Street,Glasgow,,,GI 1JJ,http://www.glasgow.gov.uk/en/Residents/BirthDeathMarriage_Citizenship/Death/RegisteringaDeath/
Gwynedd County Council - Register Office,Bangor Register Office,Town Hall,Bangor,,LL57 2RE,http://www.gwynedd.gov.uk/gwy_doc.asp?cat=6727&doc=24923&language=1
Gwynedd County Council - Register Office,Pwllheli Register Office,Dwyfor Area Office,Ffordd y Cob,Pwllheli,LL53 5AA,http://www.gwynedd.gov.uk/gwy_doc.asp?cat=6727&doc=24923&language=1
Gwynedd County Council - Register Office,Dolgellau Register Office,Meirionnydd Area Office,Penarlag,Dolgellau,LL40 2YB,http://www.gwynedd.gov.uk/gwy_doc.asp?cat=6727&doc=24923&language=1
Gwynedd - Register Office,Gwynedd Council s Headquarters,Castle Street,Penrallt,Caernarfon,LL55 1SE,https://www.gwynedd.gov.uk/en/Residents/Births-marriages-deaths/Registry-offices.aspx
Gwynedd County Council - Register Office,The Library,Canolfan,Maenofferen,Blaenau Ffestiniog,LL41 3DL,http://www.gwynedd.gov.uk/gwy_doc.asp?cat=6727&doc=24923&language=1
Gwynedd County Council - Register Office,Penygroes Outstation,Adeilad y Clinig,Ffordd Buddug,Penygroes,LL54 6HD,http://www.gwynedd.gov.uk/gwy_doc.asp?cat=6727&doc=24923&language=1
Gwynedd County Council - Register Office,Llanberis Outstation,The Library,Capel Coch Road,Llanberis,LL55 4SH,http://www.gwynedd.gov.uk/gwy_doc.asp?cat=6727&doc=24923&language=1
Gwynedd County Council - Register Office,Deiniolen Outstation,The Library,T? Elidir,Deiniolen,LL55 3LA,http://www.gwynedd.gov.uk/gwy_doc.asp?cat=6727&doc=24923&language=1
Gwynedd County Council - Register Office,Criccieth Outstation,The Library,Council Office,Criccieth,LL52 0RN,http://www.gwynedd.gov.uk/gwy_doc.asp?cat=6727&doc=24923&language=1
Gwynedd County Council - Register Office,Penrhyndeudraeth Outstation,The Library,Llys Deudraeth,Penrhyndeudraeth,LL48 6BL,http://www.gwynedd.gov.uk/gwy_doc.asp?cat=6727&doc=24923&language=1
Gwynedd County Council - Register Office,Harlech Outstation ,The Library,Old Primary School,Harlech,LL46 2YB,http://www.gwynedd.gov.uk/gwy_doc.asp?cat=6727&doc=24923&language=1
Gwynedd County Council - Register Office,Trawsfynydd Outstation,Health Centre,,Trawsfynydd,LL41 4TA,http://www.gwynedd.gov.uk/gwy_doc.asp?cat=6727&doc=24923&language=1
Hambleton District Council - Register Office,North Allerton Registration Office,County Hall,North Allerton,Hambleton,DL7 8XE,http://www.northyorks.gov.uk/index.aspx?articleid=5662
Highland Council - Register Office,Inverness Registration Office,The Highland Archive & Registration Centre,Bught Road,Inverness,IV3 5SS,http://www.highland.gov.uk/livinghere/birthsdeathsandmarriages/contacts/reg-inverness-office.htm
Highland Council - Register Office,Ardgour Registrar,9 Clovullin,Ardgour,Fort William,PH33 7AB,http://www.highland.gov.uk/livinghere/birthsdeathsandmarriages/contacts/reg-ardgour-office.htm
Highland Council - Register Office,Easgadail,Longrigg Road,Strontian,Acharacle,PH36 4HY,http://www.highland.gov.uk/livinghere/birthsdeathsandmarriages/contacts/reg-ardnamurchan-office.htm
Highland Council - Register Office,Assynt Registrar,Post Office House,Lochinver,Lairg,IV27 4JY,http://www.highland.gov.uk/livinghere/birthsdeathsandmarriages/contacts/reg-assynt-office.htm
Highland Council - Register Office,Service Point,School House,Milton Park,Aviemore,PH22 1RR,http://www.highland.gov.uk/livinghere/birthsdeathsandmarriages/contacts/reg-aviemore-office.htm
Highland Council - Register Office,Black Isle Registration Office,Service Point,Deans Road,Fortrose,IV10 8TJ,http://www.highland.gov.uk/livinghere/birthsdeathsandmarriages/contacts/reg-blackisle-office.htm
Highland Council - Register Office,Industrial Estate,Old Corry Road,Broadford,Isle of Skye,IV49 9AB,http://www.highland.gov.uk/livinghere/birthsdeathsandmarriages/contacts/reg-broadford-office.htm
Highland Council - Register Office,Clyne (Brora) Registration Office,Service Point,Gower Street,Brora,KW9 6PD,http://www.highland.gov.uk/livinghere/birthsdeathsandmarriages/contacts/reg-clyne-office.htm
Highland Council - Register Office,Dingwall and Carnoch Registration Office,Council Offices,Ferry Road,Dingwall,IV15 9QX,http://www.highland.gov.uk/livinghere/birthsdeathsandmarriages/contacts/reg-dingwallandcarnoch-office.htm
Highland Council - Register Office,Service Point,Sheriff Court House,Castle Street,Dornoch,IV25 3FD,http://www.highland.gov.uk/livinghere/birthsdeathsandmarriages/contacts/reg-dornoch-office.htm
Highland Council - Register Office,Durness Registration Office,Service Point,Sangomore,Durness,IV27 4PZ,http://www.highland.gov.uk/livinghere/birthsdeathsandmarriages/contacts/reg-durness-office.htm
Highland Council - Register Office,Service Point,Memorial Hall,Oich Road,Fort Augustus,PH32 4DJ,http://www.highland.gov.uk/livinghere/birthsdeathsandmarriages/contacts/reg-fortaugustus-office.htm
Highland Council - Register Office,Fort William and Ballachulish Registration Office,Lochaber College,Carmichael Way,Fort William,PH33 6FF,http://www.highland.gov.uk/livinghere/birthsdeathsandmarriages/contacts/reg-fortwilliamandballachulish-office.htm
Highland Council - Register Office,Gairloch Registration Office,Service Point,Achtercairn,Gairloch,IV21 2BP,http://www.highland.gov.uk/livinghere/birthsdeathsandmarriages/contacts/reg-gairloch-office.htm
Highland Council - Register Office,Glenelg Registrar,Taobh na Mara,Glenelg,Kyle of Lochalsh,IV40 8JT,http://www.highland.gov.uk/livinghere/birthsdeathsandmarriages/contacts/reg-glenelg-office.htm
Highland Council - Register Office,Service Point,Olsen House,Main Street,Golspie,KW10 6RA,http://www.highland.gov.uk/livinghere/birthsdeathsandmarriages/contacts/reg-golspie-office.htm
Highland Council - Register Office,Grantown-on-Spey and Nethybridge Registration Office,Service Point,The Square,Grantown-on-Spey,PH26 3HF,http://www.highland.gov.uk/livinghere/birthsdeathsandmarriages/contacts/reg-grantownandnethybridge-office.htm
Highland Council - Register Office,Helmsdale Library Service Point,Community Centre,Dunrobin Street,Helmsdale,KW8 6JX,http://www.highland.gov.uk/livinghere/birthsdeathsandmarriages/contacts/reg-helmsdale-office.htm
Highland Council - Register Office,Kingussie Registration Office,Council Offices,Ruthven Road,Kingussie,PH21 1EJ,http://www.highland.gov.uk/livinghere/birthsdeathsandmarriages/contacts/reg-kingussie-office.htm
Highland Council - Register Office,Kinlochbervie Registration Office,North & West Sutherland Advice and Information Service,The Harbour,Kinlochbervie,IV27 4RR,http://www.highland.gov.uk/livinghere/birthsdeathsandmarriages/contacts/reg-kinlochbervie-office.htm
Highland Council - Register Office,Kirkton and Tongue (Bettyhill) Registration Office,Service Point,Naver Teleservice Centre,Bettyhill,KW14 7SS,http://www.highland.gov.uk/livinghere/birthsdeathsandmarriages/contacts/reg-+kirktonandtongue-office.htm
Highland Council - Register Office,Kathleen Phipps ,New Buildings,Main Street,Lairg,IV27 4DB,http://www.highland.gov.uk/livinghere/birthsdeathsandmarriages/contacts/reg-lairg-office.htm
Highland Council - Register Office,Service Point,Kintail House,Main Street,Kyle of Lochalsh,IV40 8AB,http://www.highland.gov.uk/livinghere/birthsdeathsandmarriages/contacts/reg-lochalsh-office.htm
Highland Council - Register Office,Lochbroom and Coigach (Ullapool) Registration Office,Service Point,North Road,Ullapool,IV26 2XL,http://www.highland.gov.uk/livinghere/birthsdeathsandmarriages/contacts/reg-lochbroomandcoigach-office.htm
Highland Council - Register Office,Lochcarron and Shieldaig Registration Office,Service Point,Main Street,Lochcarron,IV54 8YB,http://www.highland.gov.uk/livinghere/birthsdeathsandmarriages/contacts/reg-lochcarronandshieldaig-office.htm
Highland Council - Register Office,Nairn Registration Office,Service Point,The Court House,Nairn,IV12 4AU,http://www.highland.gov.uk/livinghere/birthsdeathsandmarriages/contacts/reg-nairn-office.htm
Highland Council - Register Office,Tigh Na Sgire,Park Lane,Portree,Isle of Skye,IV51 9GP,http://www.highland.gov.uk/livinghere/birthsdeathsandmarriages/contacts/reg-portreeandraasay-office.htm
Highland Council - Register Office,Rosskeen (Invergordon) Registration Office,Service Point,62 High Street,Invergordon,IV18 0DH,http://www.highland.gov.uk/livinghere/birthsdeathsandmarriages/contacts/reg-rosskeen-office.htm
Highland Council - Register Office,Small Isles Registrar,Kildonan House,Isle of Eigg,,PH42 4RL,http://www.highland.gov.uk/livinghere/birthsdeathsandmarriages/contacts/reg-smallisles-office.htm
Highland Council - Register Office, Strathy and Mey Registration Office,Library Buildings,Davidsons Lane,Thurso,KW14 7AF,http://www.highland.gov.uk/livinghere/birthsdeathsandmarriages/contacts/reg-thursostrathyandmey-office.htm
Highland Council - Register Office,Tain Registration Office,Service Point,24 High Street,Tain,IV19 1AE,http://www.highland.gov.uk/livinghere/birthsdeathsandmarriages/contacts/reg-tain-office.htm
Highland Council - Register Office,Wick Registration Office,Town Hall,Bridge Street,Wick,KW1 4AJ,http://www.highland.gov.uk/livinghere/birthsdeathsandmarriages/contacts/reg-wick-office.htm
Inverclyde Council - Register Office,40 West Stewart Street,Greenock,,,PA14 5YS,http://www.inverclyde.gov.uk/advice-and-benefits/births-deaths-marriages-civil/registrar-office?pg=1
Merthyr Tydfil County Borough Council - Register Office,Ty Penderyn,26 High Street,Merthyr Tydfil,,CF47 8DP,http://www.merthyr.gov.uk/Home/Local+Services/Registrars+Births+Deaths+Marriages/Contact+Us.htm
Midlothian Council - Register Office,2 Buccleuch Street,Dalkeith,Midlothian,,EH22 1HA,http://www.midlothian.gov.uk/info/640/birth_marriage_and_death/465/midlothian_registration_office
Middlesbrough Borough Council - Register Office,Town Hall,Albert Road,Middlesbrough,,TS1 2PA,http://www.middlesbrough.gov.uk/index.aspx?articleid%3D1653
Monmouthshire County Council - Register Office,Abergavenny Register Office,Coed Glas,Abergavenny,,NP7 5LE,http://www.monmouthshire.gov.uk/info/100003/community_and_living/739/register_office_services
Monmouthshire County Council - Register Office,Chepstow Sub Office,High Trees,Steep Street,Chepstow,NP16 5PJ,http://www.monmouthshire.gov.uk/info/100003/community_and_living/739/register_office_services
Monmouthshire County Council - Register Office,Abergavenny Sub Office,Nevill Hall Hospital,Brecon Road,Abergavenny,NP7 7EG,http://www.monmouthshire.gov.uk/info/100003/community_and_living/739/register_office_services
Monmouthshire - Register Office,County Hall,Rhadyr,,Usk,NP15 1GA,http://www.monmouthshire.gov.uk/births-deaths-and-marriages
Moray Council - Register Office,Elgin Registration Office,240 High Street,Elgin,Morayshire,IV30 1BA,http://www.moray.gov.uk/moray_standard/page_1889.html
Moray Council - Register Office,Buckie Registration Office,Town House West,Cluny Place,Buckie,AB56 1HB,http://www.moray.gov.uk/moray_standard/page_1889.html
Moray Council - Register Office,Forres Registration Office,Auchernack,High Street,Forres,IV36 1DX,http://www.moray.gov.uk/moray_standard/page_1889.html
Moray Council - Register Office,Area Office,The Institute,Mid Street,Keith,AB55 5AF,http://www.moray.gov.uk/moray_standard/page_1889.html
Neath Port Talbot County Borough Council - Register Office,119 London Road,Neath,,,SA11 1HL,http://www.npt.gov.uk/default.aspx?page=1746
Newport City Council - Register Office,8 Gold Tops,Newport,South Wales,,NP20 4PH,http://www.newport.gov.uk/_dc/index.cfm?fuseaction=registrars.homepage
North Ayrshire Council - Register Office,Community Education Services, Council Offices,Clauchlands Road,Lamlash,KA27 8LB,http://www.north-ayrshire.gov.uk/CouncilBuildings/CorporateServices/RegistrationServices.aspx
North Ayrshire Council - Register Office,Irvine Registration Office,106 Bridgegate House,Irvine,Ayrshire,KA12 8BD,http://www.north-ayrshire.gov.uk/CouncilBuildings/CorporateServices/RegistrationServices.aspx
North Ayrshire Council - Register Office,Kilbirnie Registration Office,Branch Library,Avils Place,Kilbirnie,KA25 6BL,http://www.north-ayrshire.gov.uk/CouncilBuildings/CorporateServices/RegistrationServices.aspx
North Ayrshire Council - Register Office,Largs Registration Office,Brooksby Medical & Resource Centre,31 Brisbane Road,Largs,KA30 8LH,http://www.north-ayrshire.gov.uk/CouncilBuildings/CorporateServices/RegistrationServices.aspx
North Ayrshire Council - Register Office,Saltcoats Registration Office,Area Office,45 Ardrossan Road,Saltcoats,KA21 5BS,http://www.north-ayrshire.gov.uk/CouncilBuildings/CorporateServices/RegistrationServices.aspx
Orkney Islands Council - Register Office,North Ronaldsay Registrar,Hooking,North Ronaldsay,Orkney,KW17 2BE,http://www.orkney.gov.uk/Service-Directory/R/Registrars_2.htm
Orkney Islands Council - Register Office,Papa Westray Registrar,Bewan,Papa Westray,Orkney,KW17 2BU,http://www.orkney.gov.uk/Service-Directory/R/Registrars_2.htm
Orkney Islands Council - Register Office,Westray Registrar,Myrtle Cottage,Westray,Orkney,KW17 2DH,http://www.orkney.gov.uk/Service-Directory/R/Registrars_2.htm
Orkney Islands Council - Register Office,Sanday Registrar,Neigarth,Sanday,Orkney,KW17 2BW,http://www.orkney.gov.uk/Service-Directory/R/Registrars_2.htm
Orkney Islands Council - Register Office,Eday and Pharay Registrar,Redbanks,Eday,Orkney,KW17 2AA,http://www.orkney.gov.uk/Service-Directory/R/Registrars_2.htm
Orkney Islands Council - Register Office,Stronsay Registrar,Strynie,Stronsay,Orkney,KW17 2AR,http://www.orkney.gov.uk/Service-Directory/R/Registrars_2.htm
Orkney Islands Council - Register Office,Shapinsay Registrar,Girnigoe,Shapinsay,Orkney,KW17 2EB,http://www.orkney.gov.uk/Service-Directory/R/Registrars_2.htm
Orkney Islands Council - Register Office,Stromness Registration Office,Burradale Innertown,Stromness,Orkney,KW16 3JP,http://www.orkney.gov.uk/Service-Directory/R/Registrars_2.htm
Orkney Islands Council - Register Office,Orkney Islands Council,School Place,Kirkwall,Orkney,KW15 1NY,http://www.orkney.gov.uk/Service-Directory/R/Registrars_2.htm
Orkney Islands Council - Register Office,Laundry House,Melsetter ,Longhope,Orkney,KW16 3NZ,http://www.orkney.gov.uk/Service-Directory/R/Registrars_2.htm
Orkney Islands Council - Register Office,Post Office,Flotta,Stromness,Orkney,KW16 3NP,http://www.orkney.gov.uk/Service-Directory/R/Registrars_2.htm
Pembrokeshire County Council - Register Office,1 Cherry Grove,Haverfordwest,Dyfed,Pembrokeshire,SA61 2NZ,"http://www.pembrokeshire.gov.uk/content.asp?nav 107,2213&parent_directory_id 646"
Perth & Kinross Council - Register Office,Perth & Kinross Registration Office,5 High Street,Perth,,PH1 5JS,http://www.pkc.gov.uk/Law+and+licensing/Birth+marriage+civil+partnership+and+death/Registration+offices.htm
Perth & Kinross Council - Register Office,Aberfeldy Sub Office,Duntaggart,Crieff Road,Aberfeldy,PH15 2EN,http://www.pkc.gov.uk/Law+and+licensing/Birth+marriage+civil+partnership+and+death/Registration+offices.htm
Perth & Kinross Council - Register Office,Auchterarder Sub Office,Parkdale RHE,New School Lane,Auchterarder,PH3 1QN,http://www.pkc.gov.uk/Law+and+licensing/Birth+marriage+civil+partnership+and+death/Registration+offices.htm
Perth & Kinross Council - Register Office,Blairgowrie Sub Office,46 Leslie Street,Blairgowrie,,PH10 6AW,http://www.pkc.gov.uk/Law+and+licensing/Birth+marriage+civil+partnership+and+death/Registration+offices.htm
Perth & Kinross Council - Register Office,Coupar Angus Sub Office,Union Bank Buildings,Coupar Angus,,PH13 9AE,http://www.pkc.gov.uk/Law+and+licensing/Birth+marriage+civil+partnership+and+death/Registration+offices.htm
Perth & Kinross Council - Register Office,Crieff Sub Office,32 James Square,Crieff,,PH7 3EY,http://www.pkc.gov.uk/Law+and+licensing/Birth+marriage+civil+partnership+and+death/Registration+offices.htm
Perth & Kinross Council - Register Office,Kinross Sub Office,21-25 High Street,Kinross,,KY13 8AP,http://www.pkc.gov.uk/Law+and+licensing/Birth+marriage+civil+partnership+and+death/Registration+offices.htm
Perth & Kinross Council - Register Office,Milnathort Sub Office,Rowallan,21 Church Street,Milnathort,KY13 9XH,http://www.pkc.gov.uk/Law+and+licensing/Birth+marriage+civil+partnership+and+death/Registration+offices.htm
Perth & Kinross Council - Register Office,Pitlochry Sub Office,26 Atholl Road,Pitlochry,,PH16 5BX,http://www.pkc.gov.uk/Law+and+licensing/Birth+marriage+civil+partnership+and+death/Registration+offices.htm
Perth & Kinross Council - Register Office,Rannoch Sub Office,Kinloch Rannoch Medical Practice,The Surgery,Kinloch Rannoch,PH16 5PR,http://www.pkc.gov.uk/Law+and+licensing/Birth+marriage+civil+partnership+and+death/Registration+offices.htm
Powys County Council - Register Office,Brecon Registration Office,Neuadd Brycheiniog,Cambrian Way,,LD3 7HR,http://www.powys.gov.uk/index.php?id=5600&L=0
Powys County Council - Register Office,Builth Wells Registration Office,Antur Gwy,Park Road,,LD2 3BA,http://www.powys.gov.uk/index.php?id=5600&L=0
Powys County Council - Register Office,Crickhowell Registration Office,CRiC,Beaufort Street,Crickhowell,NP8 1BN,http://www.powys.gov.uk/index.php?id=5600&L=0
Powys County Council - Register Office,Hay on Wye Registration Office,Council Offices,Broad Street,Hay on Wye,HR3 5BX,http://www.powys.gov.uk/index.php?id=5600&L=0
Powys County Council - Register Office,Knighton Registration Office,Offa's Dyke Heritage Centre,West Street,,LD7 1EN,http://www.powys.gov.uk/index.php?id=5600&L=0
Powys County Council - Register Office,Llandrindod Wells Registration Office,The Gwalia,Ithon Road,Llandrindod Wells,LD1 6AA,http://www.powys.gov.uk/index.php?id=5600&L=0
Powys County Council - Register Office,Llanfyllin Registration Office,First Floor,Area Office,Llanfyllin,SY22 5BQ,http://www.powys.gov.uk/index.php?id=5600&L=0
Powys County Council - Register Office,Llanidloes Registration Office,Customer Service Point,Mount Lane,Llanidloes,SY18 6EY,http://www.powys.gov.uk/index.php?id=5600&L=0
Powys County Council - Register Office,Machynlleth Registration Office,Y Plas,Aberystwyth,,SY20 8ER,http://www.powys.gov.uk/index.php?id=5600&L=0
Powys County Council - Register Office,Newtown Registration Office,The Park Offices,Newtown,,SY16 2NZ,http://www.powys.gov.uk/index.php?id=5600&L=0
Powys County Council - Register Office,Talgarth Registration Office,Library,New Street,Talgarth,LD3 0AH,http://www.powys.gov.uk/index.php?id=5600&L=0
Powys County Council - Register Office,Welshpool Registration Office,Neuadd Maldwyn,Severn Road,Welshpool,SY21 7AS,http://www.powys.gov.uk/index.php?id=5600&L=0
Powys County Council - Register Office,Customer Service Point,Library,Temperance Lane,Ystradgynlais,SA9 1JP,http://www.powys.gov.uk/index.php?id=5600&L=0
Renfrewshire Council - Register Office,Customer Service Centre,Renfrewshire House,Cotton Street,Paisley,PA1 1AN,http://www.renfrewshire.gov.uk/ilwwcm/publishing.nsf/Content/Navigation-cs-RegistrationServiceHomePage
Renfrewshire Council - Register Office,Renfrew Registration Office,Renfrew Neighbourhood Office,14 Renfield Street,Renfrew,PA4 8RW,http://www.renfrewshire.gov.uk/ilwwcm/publishing.nsf/Content/Navigation-cs-RegistrationServiceHomePage
Renfrewshire Council - Register Office,Johnstone Registration Office,16-18 McDowall Street,Johnstone,,PA5 8QL,http://www.renfrewshire.gov.uk/ilwwcm/publishing.nsf/Content/Navigation-cs-RegistrationServiceHomePage
Rhondda Cynon Taf Council - Register Office,Municipal Building,Gelliwastad Road,Pontypridd,,CF37 2DP,http://www.rctcbc.gov.uk/en/communityliving/births/registrars-locationsopeninghours/registrars-locationopeninghours.aspx
Rhondda Cynon Taf Council - Register Office,One 4 All Centre,Station Road,Treorchy,,CF42 6NN,http://www.rctcbc.gov.uk/en/communityliving/births/registrars-locationsopeninghours/registrars-locationopeninghours.aspx
Rhondda Cynon Taf Council - Register Office,One 4 All Centre,Rock Grounds,Aberdare,,CF44 7AE,http://www.rctcbc.gov.uk/en/communityliving/births/registrars-locationsopeninghours/registrars-locationopeninghours.aspx
Shetland Islands Council - Register Office,Bressay Registrar,2 Roadside,Bressay,,ZE2 9JY,http://www.shetland.gov.uk/registrar/contacts.asp
Shetland Islands Council - Register Office,Burra Isles Registrar,Post Office,Hamnavoe,Burra Isle,ZE2 9JY,http://www.shetland.gov.uk/registrar/contacts.asp
Shetland Islands Council - Register Office,Dunrossness Registrar,Wayland,Quendale,,ZE2 9DJ,http://www.shetland.gov.uk/registrar/contacts.asp
Shetland Islands Council - Register Office,Fair Isle Registrar,Field,Fair Isle,,ZE2 9DJ,http://www.shetland.gov.uk/registrar/contacts.asp
Shetland Islands Council - Register Office,Fetlar Registrar,Lower Toft,Funzie,Fetlar,ZE2 9DJ,http://www.shetland.gov.uk/registrar/contacts.asp
Shetland Islands Council - Register Office,Foula Registrar,Magdala,Foula,,ZE2 9PN,http://www.shetland.gov.uk/registrar/contacts.asp
Shetland Islands Council - Register Office,Lunnasting Registrar,Vidlin Farm,Vidlin,,ZE2 9QB,http://www.shetland.gov.uk/registrar/contacts.asp
Shetland Islands Council - Register Office,Lerwick Registry Office,County Buildings,Lerwick,,ZE1 0HD,http://www.shetland.gov.uk/registrar/contacts.asp
Shetland Islands Council - Register Office,Mid & South Yell Registrar,Schoolhouse,Ulsta,Yell,ZE2 9BD,http://www.shetland.gov.uk/registrar/contacts.asp
Shetland Islands Council - Register Office,Nesting Registrar,Laxfirth,Brettabister,North Nesting,ZE2 9PR,http://www.shetland.gov.uk/registrar/contacts.asp
Shetland Islands Council - Register Office,Northmaven Registrar,Uradell,Eshaness,,ZE2 9RS,http://www.shetland.gov.uk/registrar/contacts.asp
Shetland Islands Council - Register Office,North Yell Registrar,Breckon,Cullivoe,Yell,ZE2 9DD,http://www.shetland.gov.uk/registrar/contacts.asp
Shetland Islands Council - Register Office,Sandness Registrar,Grindidale,Sandness,,ZE2 9PL,http://www.shetland.gov.uk/registrar/contacts.asp
Shetland Islands Council - Register Office,Sandsting & Aithsting Registrar,Modesty,West Burrafirth,,ZE2 9NT,http://www.shetland.gov.uk/registrar/contacts.asp
Shetland Islands Council - Register Office,Sandwick & Cunningsburgh Registrar,Leebitton,Sandwick,,ZE2 9HP,http://www.shetland.gov.uk/registrar/contacts.asp
Shetland Islands Council - Register Office,Skerries Registrar,Hillcrest,East Isle,Skerries,ZE2 9AR,http://www.shetland.gov.uk/registrar/contacts.asp
Shetland Islands Council - Register Office,Tingwall Registrar,Vindas,Laxfirth,Tingwall,ZE2 9SG,http://www.shetland.gov.uk/registrar/contacts.asp
Shetland Islands Council - Register Office,Unst Registrar,New Hoose,Baltasound,Unst,ZE2 9DX,http://www.shetland.gov.uk/registrar/contacts.asp
Shetland Islands Council - Register Office,Whalsay Registrar,Conamore,Brough,Whalsay,ZE2 9AL,http://www.shetland.gov.uk/registrar/contacts.asp
Shetland Islands Council - Register Office,Whiteness & Weisdale Registrar,Vista ,Whiteness,,ZE2 9JL,http://www.shetland.gov.uk/registrar/contacts.asp
South Ayrshire Council - Register Office,Ayr Registration Office,5-9 High Street,Ayr,,KA7 1LU,http://www.south-ayrshire.gov.uk/registrationandbereavement/registrationoffices.aspx?cat=Births
South Ayrshire Council - Register Office,Girvan Registration Office,17-19 Knockcushan Street,Girvan,,KA26 9AQ,http://www.south-ayrshire.gov.uk/registrationandbereavement/registrationoffices.aspx?cat=Births
South Lanarkshire Council - Register Office,East Kilbride Register Office,Civic Centre,Andrew Street,East Kilbride,G74 1AB,http://www.southlanarkshire.gov.uk/directory_record/7391/licensing_and_registration_office-east_kilbride
South Lanarkshire Council - Register Office,Rutherglen Register Office,Town Hall,139 Main Street,Rutherglen,G73 2JJ,http://www.southlanarkshire.gov.uk/directory_record/7392/licensing_and_registration_office-rutherglen
South Lanarkshire Council - Register Office,Hamilton Register Office,Town Hall,102 Cadzow Street,Hamilton,ML3 6HH,http://www.southlanarkshire.gov.uk/directory_record/7393/licensing_and_registration_office-hamilton
South Lanarkshire Council - Register Office,Lanark Register Office,Council Offices,South Vennel,Lanark,ML11 7JT,http://www.southlanarkshire.gov.uk/directory_record/7394/licensing_and_registration_office-lanark
St Edmundsbury Borough Council - Register Office,7 Angel Hill,Bury St Edmunds,,,IP33 1UZ,http://www.suffolk.gov.uk/your-community/registrars-and-hm-coroners-services/
St Edmundsbury Borough Council - Register Office,Haverhill Library,Camps Road,Haverhill,,CB9 8HB,http://www.suffolk.gov.uk/BirthsMarriagesAndDeaths/SuffolkRegistrationOffices/
Stirling Council - Register Office,Aberfoyle Registrar,Main Street,Aberfoyle,,FK8 3UQ,http://www.stirling.gov.uk/index/life/registrar/registrar-contact.htm#aberfoylereg
Stirling Council - Register Office,Municipal Buildings,8-10 Corn Exchange Road,Stirling,,FK8 2ET,http://www.stirling.gov.uk/index/life/registrar/registrar-contact.htm
Stirling Council - Register Office,Balfron Registrar,32 Buchanan Street,Balfron,,G63 0TR,http://www.stirling.gov.uk/index/life/registrar/registrar-contact.htm
Stirling Council - Register Office,Callander Registrar,1 South Church Street,Callander,,FK17 8BN,http://www.stirling.gov.uk/index/life/registrar/registrar-contact.htm
Stirling Council - Register Office,Dunblane Registrar,Burgh Chambers,The Cross,Dunblane,FK15 0AG,http://www.stirling.gov.uk/index/life/registrar/registrar-contact.htm
Stirling Council - Register Office,Killin Registrar,8 Lyon Villas,Killin,,FK21 8TF,http://www.stirling.gov.uk/index/life/registrar/registrar-contact.htm
Torfaen County Borough Council - Register Office,Pontypool Register Office,Civic Centre,Pontypool,Torfaen,NP4 6YB,http://www.torfaen.gov.uk/CommunityAndLiving/Births/RegistrarBusinessHoursAndLocations.aspx
Torfaen County Borough Council - Register Office,Cwmbran Sub Office,1-2 General Rees Square,Cwmbran,Torfaen,NP44 1AH,http://www.torfaen.gov.uk/CommunityAndLiving/Births/RegistrarBusinessHoursAndLocations.aspx
Torfaen County Borough Council - Register Office,Blaenavon Customer Care Centre,Lion Court, Lion Street,Blaenavon,NP4 9QA,http://www.torfaen.gov.uk/CommunityAndLiving/Births/RegistrarBusinessHoursAndLocations.aspx
Vale of Glamorgan Council - Register Office,Civic Offices,Holton Road,Barry,,CF63 4RU,http://www.valeofglamorgan.gov.uk/living/life_in_the_community/registry_-_life_events/births/register_office.aspx
Vale of Glamorgan Council - Register Office,Penarth Outstation,West House,Stanwell Road,Penarth,CF64 2YG,http://www.valeofglamorgan.gov.uk/living/life_in_the_community/registry_-_life_events/births/register_office.aspx
Western Isles Council - Register Office,Comhairle nan Eilean Siar,Sandwick Road,Stornaway,Isle Of Lewis,HS1 2BW,http://www.cne-siar.gov.uk/registrars/index.asp?servicename=Birth
West Dunbartonshire Council - Register Office,Municipal Buildings,College Street (off Station Road),Dumbarton,,G82 1NR,http://www.wdcweb.info/law-and-licensing/registration-services/
West Lothian Council - Register Office,Bathgate Registration Office,76 Mid Street,Bathgate,,EH48 1QD,http://www.wlonline.org/law-licensing/640/
West Lothian Council - Register Office,Livingston Registration Office,West Lothian Civic Centre,Howden South Road,,EH54 6FF,http://www.wlonline.org/law-licensing/640/
West Lothian Council - Register Office,East Calder Registration Office,Library,200 Main Street,East Calder,EH53 0EJ,http://www.wlonline.org/law-licensing/640/
West Lothian Council - Register Office,Broxburn CIS,Strathbrock Partnership Centre,189a West Main Street,Broxburn,EH52 5LH,http://www.wlonline.org/law-licensing/640/
West Lothian Council - Register Office,Linlithgow CIS,County Buildings,High Street,Linlithgow,EH49 7EZ,http://www.wlonline.org/law-licensing/640/
West Lothian Council - Register Office,West Calder CIS,24-26 Main Street,West Calder,,EH55 8DR,http://www.wlonline.org/law-licensing/640/
West Lothian Council - Register Office,Whitburn CIS,5 East Main Street,Whitburn,,EH47 0RA,http://www.wlonline.org/law-licensing/640/
Wrexham County Borough Council - Register Office,Ty Dewi Sant,Rhosddu Road,Wrexham,,LL11 1NF,http://www.wrexham.gov.uk/english/life_events/bereavement/register_office.htm
North Lanarkshire Council - Register Office,Airdrie Registration Office,Willowbank House,37 Alexander Street,Airdrie,ML6 0BA,http://www.northlanarkshire.gov.uk/index.aspx?articleid=16793
North Lanarkshire Council - Register Office,Bellshill Registration Office,20-22 Motherwell Road,Bellshill,,ML4 1RB,http://www.northlanarkshire.gov.uk/index.aspx?articleid=16793
North Lanarkshire Council - Register Office,Coatbridge Registration Office,126 Main Street,Coatbridge,,ML5 3BJ,http://www.northlanarkshire.gov.uk/index.aspx?articleid=16793
North Lanarkshire Council - Register Office,Cumbernauld Registration Office,Council Offices,Bron Way,Cumbernauld,G67 1DZ,http://www.northlanarkshire.gov.uk/index.aspx?articleid=16793
North Lanarkshire Council - Register Office,Kilsyth Registration Office,Burngreen Health Centre,Kilsyth,,G65 0HY,http://www.northlanarkshire.gov.uk/index.aspx?articleid=16793
North Lanarkshire Council - Register Office,Moodiesburn Registration Office,17 Blackswood Crescent,Moodiesburn,,G69 0EZ,http://www.northlanarkshire.gov.uk/index.aspx?articleid=16793
North Lanarkshire Council - Register Office,Motherwell Registration Office,Civic Centre,Windmillhill Street,Motherwell,ML1 1AB,http://www.northlanarkshire.gov.uk/index.aspx?articleid=16793
North Lanarkshire Council - Register Office,Shotts Registration Office,162 Station Road,Shotts,,ML7 4AW,http://www.northlanarkshire.gov.uk/index.aspx?articleid=16793
Scottish Borders Council - Register Office,Council Headquarters,Newton Street,Boswells,Melrose,TD6 0SA,http://www.scotborders.gov.uk/council/locationsdirections/index.html
Scottish Borders Council - Register Office,Coldstream Registration Office,Coldsteam Town Hall,73 High Street,Coldstream,TD12 4AE,http://www.scotborders.gov.uk/council/locationsdirections/areaoffices/registrationoffices/27790.html
Scottish Borders Council - Register Office,Duns Registration Office,8 Newtown Street,Duns,Berwickshire,TD11 3DT,http://www.scotborders.gov.uk/council/locationsdirections/areaoffices/registrationoffices/27788.html
Scottish Borders Council - Register Office,Eyemouth Registration Office,Community Centre,Albert Road,Eyemouth,TD14 5DE,http://www.scotborders.gov.uk/council/locationsdirections/areaoffices/registrationoffices/27796.html
Scottish Borders Council - Register Office,Galashiels Registration Office,Paton Street,Galashiels,,TD1 3AS,http://www.scotborders.gov.uk/council/locationsdirections/areaoffices/registrationoffices/27789.html
Scottish Borders Council - Register Office,Hawick Registration Office,Council Offices,High Street,Hawick,TD9 9EF,http://www.scotborders.gov.uk/council/locationsdirections/areaoffices/registrationoffices/27791.html
Scottish Borders Council - Register Office,Jedburgh Registration Office,Library Building,Castlegate,Jedburgh,TD8 6AS,http://www.scotborders.gov.uk/council/locationsdirections/areaoffices/registrationoffices/27797.html
Scottish Borders Council - Register Office,Kelso Registration Office,The Town House,Kelso,,TD5 7HF,http://www.scotborders.gov.uk/council/locationsdirections/areaoffices/registrationoffices/27794.html
Scottish Borders Council - Register Office,Lauder Registration Office,The Old Jail,Mid Row,Lauderdale,LD2 6SZ,http://www.scotborders.gov.uk/council/locationsdirections/areaoffices/registrationoffices/27798.html
Scottish Borders Council - Register Office,Melrose Registration Office,Market Square,Melrose,Ettrick and Lauderdale,TD6 9PG,http://www.scotborders.gov.uk/council/locationsdirections/areaoffices/registrationoffices/27787.html
Scottish Borders Council - Register Office,Newcastleton Registration Office,10 Douglas Square,Newcastleton,Roxburghshire,TD9 0QD,http://www.scotborders.gov.uk/council/locationsdirections/areaoffices/registrationoffices/27786.html
Scottish Borders Council - Register Office,Peebles Registration Office,Chambers' Institute,High Street,Peebles,EH4 8AG,http://www.scotborders.gov.uk/council/locationsdirections/areaoffices/registrationoffices/27795.html
Scottish Borders Council - Register Office,Selkik Registration Office,Municipal Building,High Street,Selkirk,TD7 4JX,http://www.scotborders.gov.uk/council/locationsdirections/areaoffices/registrationoffices/27792.html
Scottish Borders Council - Register Office,West Linton Registration Office,Council Offices,West Linton,,EH46 7ED,http://www.scotborders.gov.uk/council/locationsdirections/areaoffices/registrationoffices/27793.html
Blaenau Gwent County Borough Council - Register Office,The Grove,Church Street,Tredegar,,NP22 3DS,http://www.blaenau-gwent.gov.uk/documents/Documents_Governance/RegService_OpeningHours_1110.pdf
Blaenau Gwent County Borough Council - Register Office,Abertillery Sub Office,Mitre Street,Abertillery,,NP13 1AE,http://www.blaenau-gwent.gov.uk/documents/Documents_Governance/RegService_OpeningHours_1110.pdf
Bristol City Council - Register Office,The Old Council House,Corn Street,Bristol,,BS1 1JG,http://www.bristol.gov.uk/ccm/content/Community-Living/Marriages/register-office-births-marriages-and-deaths.en
London Borough of Kingston upon Thames - Register Office,35 Coombe Road,Kingston upon Thames,,,KT2 7BA,http://www.kingston.gov.uk/browse/community_people_and_living/rbdm.htm
Newcastle-Under-Lyme Borough Council - Register Office,Newcastle Registration Office,20 Sidmouth Avenue,The Brampton,Newcastle under Lyme,ST5 0QN,http://www.newcastle-staffs.gov.uk/life_content.asp?id SXA86E-A7807EA3&cat 1314
Newcastle-Under-Lyme Borough Council - Register Office,Kidgrove Office,Town Hall,Liverpool Road,Kidsgrove,ST7 4EH,http://www.newcastle-staffs.gov.uk/life_content.asp?id SXD128-A7807EA3&cat 1314
Borough of Poole - Register Office,The Guildhall,Market Street,Poole,,BH15 1NF,http://www.boroughofpoole.com/go.php?structureID=categories&ref=C464833988B297
Swansea City and Borough Council - Register Office,Civic Centre (West access road),Oystermouth Road,Swansea,,SA1 3SN,http://www.swansea.gov.uk/index.cfm?articleid=1458
Cornwall Council - Register Office,Bodmin Registration Office,Lyndhurst,66 St Nicholas Street,Bodmin,PL31 1AG,http://www.cornwall.gov.uk/Default.aspx?page=14491
Cornwall Council - Register Office,Bude Registration Office,Bude Visitor Centre,The Crescent,Bude,EX23 8LE,http://www.cornwall.gov.uk/Default.aspx?page=14492
Cornwall Council - Register Office,Camborne Registration Office,Jayne Hooper House,Roaskear,Camborne,TR14 8DN,http://www.cornwall.gov.uk/Default.aspx?page=14493
Cornwall Council - Register Office,Cornwall Registration Office (Truro),Dalvenie House,County Hall,Truro,TR1 3AY,http://www.cornwall.gov.uk/Default.aspx?page=14500
Cornwall Council - Register Office,Falmouth Registration Office,Skol Goth,Albany Place,Falmouth,TR11 3BZ,http://www.cornwall.gov.uk/Default.aspx?page=14494
Cornwall Council - Register Office,Helston Registration Office,Isaac House,Tyacke Road,Helston,TR13 8RR,http://www.cornwall.gov.uk/Default.aspx?page=14495
Cornwall Council - Register Office,Launceston Registration Office,Hendra,Dunheved Road,Launceston,PL15 9JG,http://www.cornwall.gov.uk/Default.aspx?page=14496
Cornwall Council - Register Office,Liskeard Registration Office,Graylands,Dean Street,Liskeard,PL14 4AE,http://www.cornwall.gov.uk/Default.aspx?page=14497
Cornwall Council - Register Office,Newquay Registration Office,Lanherne House,Tolcarne Road,Newquay,TR7 2NQ,http://www.cornwall.gov.uk/Default.aspx?page=14497
Cornwall Council - Register Office,Penzance Registration Office,Alphington House,Alverton Place,Penzance,TR18 4JJ,http://www.cornwall.gov.uk/Default.aspx?page=14498
Cornwall Council - Register Office,Saltash Registration Office,Plougastel Centre,Plougastel Drive,Saltash,PL12 6DL,http://www.cornwall.gov.uk/Default.aspx?page=14499
Cornwall Council - Register Office,Polkyth House,Council Offices,12 Carlyon Road,St Austell,PL25 4LD,http://www.cornwall.gov.uk/Default.aspx?page=14501
Durham County Council - Register Office,Bishop Auckland Register Office,Cockton House,35 Cockton Hill Road,Bishop Auckland,DL14 6HS,http://www.durham.gov.uk/Pages/Service.aspx?ServiceId=7085
Durham County Council - Register Office,Durham City Register Office,40 Old Elvet,Durham City,,DH1 3HN,http://www.durham.gov.uk/Pages/Service.aspx?ServiceId=7085
Durham County Council - Register Office,Peterlee Register Office,The Old School,Peterlee,County Durham,SR8 2DP,http://www.durham.gov.uk/Pages/Service.aspx?ServiceId=7085
Durham County Council - Register Office,Stanley Register Office,7 Thorneyholme Terrace,Stanley,County Durham,DH9 0BJ,http://www.durham.gov.uk/Pages/Service.aspx?ServiceId=7085
Durham County Council - Register Office,Barnard Castle Register Office,30 Galgate,Barnard Castle,County Durham,DL12 8BH,http://www.durham.gov.uk/Pages/Service.aspx?ServiceId=7085
Durham County Council - Register Office,Chester-le-Street Register Office,Civic Centre,Chester-le-Street,County Durham,DH3 3UT,http://www.durham.gov.uk/Pages/Service.aspx?ServiceId=7085
Durham County Council - Register Office,Consett Register Office,39 Medomsley Road,Consett,County Durham,DH8 5HE,http://www.durham.gov.uk/Pages/Service.aspx?ServiceId=7085
Durham County Council - Register Office,Crook Register Office,Civic Centre,North Terrace,Crook ,DL15 9ES,http://www.durham.gov.uk/Pages/Service.aspx?ServiceId=7085
Durham County Council - Register Office,Stanhope Register Office,Health Centre Dale Street,Stanhope,County Durham,DL13 2XD,http://www.durham.gov.uk/Pages/Service.aspx?ServiceId=7085
Northumberland Council -Register Office,Alnwick Register Office,27 Fenkle Street,Alnwick,,NE66 1HW,http://www.northumberland.gov.uk/default.aspx?page=3480
Northumberland Council -Register Office,Amble Register Office,73 Queen Street,Amble,Morpeth,NE65 0DA,http://www.northumberland.gov.uk/default.aspx?page=3480
Northumberland Council -Register Office,Ashington Register Office,Post Office Chambers,Station Road,Ashington,NE63 8RH,http://www.northumberland.gov.uk/default.aspx?page=3480
Northumberland Council -Register Office,Berwick Register Office,Berwick Community Centre,5 Palace Street East,Berwick-upon-Tweed,TD15 1HT,http://www.northumberland.gov.uk/default.aspx?page=3480
Northumberland Council -Register Office,Northumberland Information Centre,Unit 10 ,Keel Row Shopping Centre,Blyth,NE24 1AH,http://www.northumberland.gov.uk/default.aspx?page=3480
Northumberland Council -Register Office,Hexham Register Office,Hadrian House,Market Street,Hexham,NE46 3NH,http://www.northumberland.gov.uk/default.aspx?page=3480
Northumberland Council -Register Office,Morpeth Register Office,Morpeth Town Hall,Market Place,Morpeth,NE61 1LZ,http://www.northumberland.gov.uk/default.aspx?page=3480
Northumberland Council -Register Office,Church House,Church Street,Rothbury,Morpeth,NE65 7UP,http://www.northumberland.gov.uk/default.aspx?page=3480
Shropshire Council - Register Office,Bishops Castle Register Office,Enterprise House,Station Street,Bishops Castle,SY9 5AQ,http://www.shropshire.gov.uk/registrar.nsf/open/4F3206F3069D0B7780256D1E004B347D
Shropshire Council - Register Office,Shropshire Council Area Headquarters - Bridgnorth,Westgate,Bridnorth,,WV16 5AA,http://www.shropshire.gov.uk/registrar.nsf/open/4F3206F3069D0B7780256D1E004B347D
Shropshire Council - Register Office,Church Stretton Register Offic,The Library/Customer First Point,Chiurch Street,Church Stretton,SY6 6DQ,http://www.shropshire.gov.uk/registrar.nsf/open/4F3206F3069D0B7780256D1E004B347D
Shropshire Council - Register Office,Craven Arms Outstation,Shropshire Hills Discovery Centre,School Road,Craven Arms,SY7 9RS,http://www.shropshire.gov.uk/registrar.nsf/open/4F3206F3069D0B7780256D1E004B347D
Shropshire Council - Register Office,Council Offices,Stone House,Corve Street,Ludlow,SY8 1DG,http://www.shropshire.gov.uk/registrar.nsf/open/4F3206F3069D0B7780256D1E004B347D
Shropshire Council - Register Office,Market Drayton Register Office,Shropshire Customer First & Visitor Information Centre,49 Cheshire Street,Market Drayton,TF9 1PH,http://www.shropshire.gov.uk/registrar.nsf/open/4F3206F3069D0B7780256D1E004B347D
Shropshire Council - Register Office,Oswestry Register Office,Castle View,Oswestry,,SY11 1JR,http://www.shropshire.gov.uk/registrar.nsf/open/4F3206F3069D0B7780256D1E004B347D
Shropshire Council - Register Office,Shropshire Register Office,The Shirehall,Abbey Foregate,Shrewsbury,SY2 6ND,"http://www.shropshire.gov.uk/births,-deaths-and-marriages/book-an-appointment/registration-service-points/"
Shropshire Council - Register Office,Wem Register Office,Edinburgh House,New Street,Wem,SY4 5DB,http://www.shropshire.gov.uk/registrar.nsf/open/4F3206F3069D0B7780256D1E004B347D
Shropshire Council - Register Office,The Talbot Centre,Whitchurch Business Park,Shakespeare Way,Whitchurch,SY13 1LJ,http://www.shropshire.gov.uk/registrar.nsf/open/4F3206F3069D0B7780256D1E004B347D
Wiltshire Council - Register Office,The Registration Office,4 Timber Street,Chippenham,,SN15 3BZ,http://www.wiltshire.gov.uk/communityandliving/birthsdeathsmarriages/registrationservicelocationsopeningtimes.htm
Wiltshire Council - Register Office,The Registration Office,The Beeches,Bath Road,Devizes,SN10 2AL,http://www.wiltshire.gov.uk/communityandliving/birthsdeathsmarriages/registrationservicelocationsopeningtimes.htm
Wiltshire Council - Register Office,The Registration Office,Bourne Hill,Salisbury,,SP1 3UZ,http://www.wiltshire.gov.uk/communityandliving/birthsdeathsmarriages/registrationservicelocationsopeningtimes.htm
Wiltshire Council - Register Office,The Register Office,The Chesnuts,Bythesea Road,Trowbridge,BA14 8EZ,http://www.wiltshire.gov.uk/communityandliving/birthsdeathsmarriages/registrationservicelocationsopeningtimes.htm
Wiltshire Council - Register Office,The Town Hall,High Street,Corsham,,SN13 0EZ,http://www.wiltshire.gov.uk/communityandliving/birthsdeathsmarriages/registrationservicelocationsopeningtimes.htm
Wiltshire Council - Register Office,The Library,Cross Hayes,Malmesbury,,SN16 9BG,http://www.wiltshire.gov.uk/communityandliving/birthsdeathsmarriages/registrationservicelocationsopeningtimes.htm
Wiltshire Council - Register Office,The Town Council Offices,117 High Street,Wootten Bassett,,SN4 7AU,http://www.wiltshire.gov.uk/communityandliving/birthsdeathsmarriages/registrationservicelocationsopeningtimes.htm
Wiltshire Council - Register Office,The Health Centre,Broken Cross,Calne,,SN11 8RN,http://www.wiltshire.gov.uk/communityandliving/birthsdeathsmarriages/registrationservicelocationsopeningtimes.htm
Wiltshire Council - Register Office,The Library,91 High Street,Marlborough,,SN8 1HD,http://www.wiltshire.gov.uk/communityandliving/birthsdeathsmarriages/registrationservicelocationsopeningtimes.htm
Wiltshire Council - Register Office,The Library,Barton Lane,Church Street,Mere,BA12 6JA,http://www.wiltshire.gov.uk/communityandliving/birthsdeathsmarriages/registrationservicelocationsopeningtimes.htm
Wiltshire Council - Register Office,Memorial Health Centre,St Michael's Avenue,Tidworth,,SP9 7EA,http://www.wiltshire.gov.uk/communityandliving/birthsdeathsmarriages/registrationservicelocationsopeningtimes.htm
Wiltshire Council - Register Office,The Library,Three Horseshoes Walk,Warminster,,BA12 9BT,http://www.wiltshire.gov.uk/communityandliving/birthsdeathsmarriages/registrationservicelocationsopeningtimes.htm
Wiltshire Council - Register Office,The Town Hall,Market Place,Melksham,,SN12 6ES,http://www.wiltshire.gov.uk/communityandliving/birthsdeathsmarriages/registrationservicelocationsopeningtimes.htm
Wiltshire Council - Register Office,Westbury Community Hospital,Westbury,,,BA13 3EL,http://www.wiltshire.gov.uk/communityandliving/birthsdeathsmarriages/registrationservicelocationsopeningtimes.htm
Macclesfield Registration Office,Town Hall Extension,Market Place,,Macclesfield,SK10 1EA,http://www.cheshireeast.gov.uk/register_office/contact_details.aspx
Crewe Register Office,Municipal Buildings,Earle Street,,Crewe,CW1 2BJ,http://www.cheshireeast.gov.uk/register_office/contact_details.aspx
Cheshire West and Chester Council - Register Office,Chester Register Office,Goldsmith House,Goss Street,Chester,CH1 2BG,http://www.cheshirewestandchester.gov.uk/council_services/registration_service/register_offices_outstations.aspx?removelink=yes
Cheshire West and Chester Council - Register Office,Northwich Registration Office,Watling Street,Northwich,,CW9 5ET,http://www.cheshirewestandchester.gov.uk/council_services/registration_service/register_offices_outstations.aspx?removelink=yes
Cheshire West and Chester Council - Register Office,Blacon Library,Western Avenue,Blacon,Chester,CH1 5QY,http://www.cheshirewestandchester.gov.uk/council_services/registration_service/register_offices_outstations.aspx?removelink=yes
Cheshire West and Chester Council - Register Office,Ellesmere Port Library,1st Floor,Civic way,Ellesmere Port,CH65 0BG,http://www.cheshirewestandchester.gov.uk/council_services/registration_service/register_offices_outstations.aspx?removelink=yes
Cheshire West and Chester Council - Register Office,Castle Park House Frodsham,Chester Road,Frodsham,,WA6 6SB,http://www.cheshirewestandchester.gov.uk/council_services/registration_service/register_offices_outstations.aspx?removelink=yes
Cheshire West and Chester Council - Register Office,Winsford Library,High Street,Winsford,,CW7 2AS,http://www.cheshirewestandchester.gov.uk/council_services/registration_service/register_offices_outstations.aspx?removelink=yes
Bedford Borough Council - Register Office,Pilgrim Centre,Brickhill Drive,Bedford,,MK41 7PZ,http://www.bedford.gov.uk/advice_and_benefits/registration_service.aspx
Kent County Council - Larkfield Library &#40;Births and Deaths&#41;,Martin Square,Larkfield,Aylesford,,ME20 6QW,http://webapps.kent.gov.uk/KCC.Libraries.Web.Sites.Public/LibraryDetails.aspx?aid 0&lid 95&uprn 100062389622
Central Bedfordshire Council - Register Office,The Court House,Woburn Street,Ampthill,,MK45 2HX,http://www.centralbedfordshire.gov.uk/images/Office%20Opening%20Hours_tcm5-22912.pdf
Central Bedfordshire Council - Register Office,The Limes,142 London Road,Biggleswade,,SG18 8EL,http://www.centralbedfordshire.gov.uk/images/Office%20Opening%20Hours_tcm5-22912.pdf
Central Bedfordshire Council - Register Office,Grove House,76 High Street North,Dunstable,,LU6 1NF,http://www.centralbedfordshire.gov.uk/images/Office%20Opening%20Hours_tcm5-22912.pdf
Central Bedfordshire Council - Register Office,Bossard House,West Street,Leighton Buzzard,,LU7 7DA,http://www.centralbedfordshire.gov.uk/images/Office%20Opening%20Hours_tcm5-22912.pdf
Rhyl Register Office,Morfa Clwyd,Marsh Road,,Rhyl,LL18 2AF,
Hampshire County Council - Register Office,Ringwood Gateway,The Furlong,,Ringwood,BH24 1AT,http://www3.hants.gov.uk/registration/registration-contact.htm
Hampshire County Council - Register Office,Lymington Library,North Close,,Lymington,SO41 9BW,http://www3.hants.gov.uk/registration/registrationfinder/ro-lymington
Hampshire County Council - Register Office,Romsey Registration Office,1 Market Place,,Romsey,SO51 8YZ,http://www3.hants.gov.uk/registration/registration-contact.htm
Nottinghamshire County Council - Register Office,Kings Mill Hospital,Mansfield Road,Sutton in Ashfield,,NG17 4JL,http://www.nottinghamshire.gov.uk/living/life/births-marriages-and-deaths/register-offices/
Nottinghamshire County Council - Register Office,Basford Registration Office,Highbury Road,Bulwell,Nottingham,NG6 9DA,http://www.nottinghamshire.gov.uk/living/life/births-marriages-and-deaths/register-offices/
High Wycombe Library - Register Office ,High Wycome Library,5 Eden Place,,High Wycombe,HP11 2DH,"http://www.buckscc.gov.uk/community/births,-deaths,-marriages-and-civil-partnerships/register-offices/high-wycombe/"
Beaconsfield Old Town - Register Office,29 Windsor End,,,Beaconsfield,HP9 2JJ,"http://www.buckscc.gov.uk/community/births,-deaths,-marriages-and-civil-partnerships/register-offices/beaconsfield/"
Wiltshire - Register Office,County Hall,Bythesea Road,,Trowbridge,BA14 8JN,http://www.wiltshire.gov.uk/communityandliving/birthsdeathsmarriages/registrationservicelocationsopeningtimes.htm
West Devon Borough Council - Tavistock Register Office,Council Offices,Kilworthy Park,,Tavistock,PL19 0BZ,https://new.devon.gov.uk/registrationservice/registrationoffices/west-devon-registration-office-tavistock
Hampshire County Council - Register Office,Winchester Registration Office,Castle Hil,High Street,Winchester,SO23 8UH,http://www3.hants.gov.uk/ro-winchester
